<?xml version="1.0" encoding="UTF-8"?>
<gpx creator="Garmin Connect" version="1.1" schemaLocation="http://www.topografix.com/GPX/1/1 http://www.topografix.com/GPX/1/1/gpx.xsd http://www.garmin.com/xmlschemas/GpxExtensions/v3 http://www.garmin.com/xmlschemas/GpxExtensionsv3.xsd http://www.garmin.com/xmlschemas/TrackPointExtension/v1 http://www.garmin.com/xmlschemas/TrackPointExtensionv1.xsd http://www.garmin.com/xmlschemas/PowerExtension/v1 http://www.garmin.com/xmlschemas/PowerExtensionv1.xsd http://www.topografix.com/GPX/gpx_style/0/2 http://www.topografix.com/GPX/gpx_style/0/2/gpx_style.xsd" xmlns="http://www.topografix.com/GPX/1/1" xmlns:xsi="http://www.w3.org/2001/XMLSchema-instance" xsi:schemaLocation="http://www.topografix.com/GPX/1/1 http://www.topografix.com/GPX/1/1/gpx.xsd http://www.garmin.com/xmlschemas/GpxExtensions/v3 http://www.garmin.com/xmlschemas/GpxExtensionsv3.xsd http://www.garmin.com/xmlschemas/TrackPointExtension/v1 http://www.garmin.com/xmlschemas/TrackPointExtensionv1.xsd http://www.garmin.com/xmlschemas/PowerExtension/v1 http://www.garmin.com/xmlschemas/PowerExtensionv1.xsd http://www.topografix.com/GPX/gpx_style/0/2 http://www.topografix.com/GPX/gpx_style/0/2/gpx_style.xsd" xmlns:gpxtpx="http://www.garmin.com/xmlschemas/TrackPointExtension/v1" xmlns:gpxx="http://www.garmin.com/xmlschemas/GpxExtensions/v3" xmlns:gpxpx="http://www.garmin.com/xmlschemas/PowerExtension/v1" xmlns:gpx_style="http://www.topografix.com/GPX/gpx_style/0/2">
  <metadata>
    <name>TRA-I</name>
    <author>
      <name>gpx.studio</name>
      <link href="https://gpx.studio"/>
    </author>
    <link href="connect.garmin.com">
      <text>Garmin Connect</text>
    </link>
    <time>2025-03-20T18:23:03.000Z</time>
  </metadata>
  <trk>
    <name>TRA-I</name>
    <trkseg>
      <trkpt lat="46.438901" lon="12.898728">
        <ele>697.485308159981</ele>
        <time>2025-03-20T18:23:03.000Z</time>
      </trkpt>
      <trkpt lat="46.438892" lon="12.898768">
        <ele>697.392101404444</ele>
        <time>2025-03-20T18:23:03.504Z</time>
      </trkpt>
      <trkpt lat="46.439082" lon="12.898901">
        <ele>696.813525072258</ele>
        <time>2025-03-20T18:23:07.171Z</time>
      </trkpt>
      <trkpt lat="46.439178" lon="12.898996">
        <ele>696.4125437634541</ele>
        <time>2025-03-20T18:23:09.190Z</time>
      </trkpt>
      <trkpt lat="46.439253" lon="12.898978">
        <ele>696.0173366657525</ele>
        <time>2025-03-20T18:23:10.511Z</time>
      </trkpt>
      <trkpt lat="46.439286" lon="12.898923">
        <ele>695.6940241734666</ele>
        <time>2025-03-20T18:23:11.384Z</time>
      </trkpt>
      <trkpt lat="46.439318" lon="12.898893">
        <ele>695.3478739394184</ele>
        <time>2025-03-20T18:23:12.046Z</time>
      </trkpt>
      <trkpt lat="46.439363" lon="12.89889">
        <ele>694.9086212736775</ele>
        <time>2025-03-20T18:23:12.829Z</time>
      </trkpt>
      <trkpt lat="46.439422" lon="12.898907">
        <ele>694.4406238012194</ele>
        <time>2025-03-20T18:23:13.874Z</time>
      </trkpt>
      <trkpt lat="46.439537" lon="12.898969">
        <ele>693.8668480647732</ele>
        <time>2025-03-20T18:23:16.006Z</time>
      </trkpt>
      <trkpt lat="46.439628" lon="12.898999">
        <ele>693.6742190288107</ele>
        <time>2025-03-20T18:23:17.628Z</time>
      </trkpt>
      <trkpt lat="46.439714" lon="12.899007">
        <ele>693.7258327084551</ele>
        <time>2025-03-20T18:23:19.126Z</time>
      </trkpt>
      <trkpt lat="46.439791" lon="12.898964">
        <ele>693.7504983002676</ele>
        <time>2025-03-20T18:23:20.560Z</time>
      </trkpt>
      <trkpt lat="46.439839" lon="12.898843">
        <ele>693.129488414713</ele>
        <time>2025-03-20T18:23:22.232Z</time>
      </trkpt>
      <trkpt lat="46.439931" lon="12.898522">
        <ele>690.6440140578594</ele>
        <time>2025-03-20T18:23:26.396Z</time>
      </trkpt>
      <trkpt lat="46.440017" lon="12.898511">
        <ele>692.2043357170579</ele>
        <time>2025-03-20T18:23:27.896Z</time>
      </trkpt>
      <trkpt lat="46.440062" lon="12.898475">
        <ele>692.7759731472529</ele>
        <time>2025-03-20T18:23:28.789Z</time>
      </trkpt>
      <trkpt lat="46.440548915416" lon="12.897438425570726">
        <ele>701.1085824815929</ele>
        <time>2025-03-20T18:23:43.817Z</time>
      </trkpt>
      <trkpt lat="46.440641451627016" lon="12.897093845531344">
        <ele>700.9984157427975</ele>
        <time>2025-03-20T18:23:43.966Z</time>
      </trkpt>
      <trkpt lat="46.44066860899329" lon="12.896883292123675">
        <ele>699.9771315562718</ele>
        <time>2025-03-20T18:23:44.029Z</time>
      </trkpt>
      <trkpt lat="46.440632147714496" lon="12.896693106740713">
        <ele>696.5728962698024</ele>
        <time>2025-03-20T18:23:44.164Z</time>
      </trkpt>
      <trkpt lat="46.440762570127845" lon="12.896261354908347">
        <ele>696.5080871816688</ele>
        <time>2025-03-20T18:23:44.484Z</time>
      </trkpt>
      <trkpt lat="46.44083758816123" lon="12.895585941150784">
        <ele>691.6224984311564</ele>
        <time>2025-03-20T18:23:45.290Z</time>
      </trkpt>
      <trkpt lat="46.440930124372244" lon="12.895383099094033">
        <ele>693.8677796009943</ele>
        <time>2025-03-20T18:23:45.519Z</time>
      </trkpt>
      <trkpt lat="46.44083700142801" lon="12.89512543939054">
        <ele>687.0581228927733</ele>
        <time>2025-03-20T18:23:45.891Z</time>
      </trkpt>
      <trkpt lat="46.44096474163234" lon="12.89477214217186">
        <ele>691.6858191201682</ele>
        <time>2025-03-20T18:23:46.438Z</time>
      </trkpt>
      <trkpt lat="46.44096348434687" lon="12.894428316503763">
        <ele>689.2580664720635</ele>
        <time>2025-03-20T18:23:46.735Z</time>
      </trkpt>
      <trkpt lat="46.44117001444101" lon="12.893766229972243">
        <ele>694.4424599536339</ele>
        <time>2025-03-20T18:23:47.740Z</time>
      </trkpt>
      <trkpt lat="46.44121485762298" lon="12.893295837566257">
        <ele>695.125561337546</ele>
        <time>2025-03-20T18:23:48.301Z</time>
      </trkpt>
      <trkpt lat="46.44116926006973" lon="12.893086289986968">
        <ele>691.3748518651003</ele>
        <time>2025-03-20T18:23:49.098Z</time>
      </trkpt>
      <trkpt lat="46.44122667610645" lon="12.892627213150263">
        <ele>693.5010436086453</ele>
        <time>2025-03-20T18:23:50.147Z</time>
      </trkpt>
      <trkpt lat="46.441183844581246" lon="12.892427472397685">
        <ele>689.7439585094854</ele>
        <time>2025-03-20T18:23:50.815Z</time>
      </trkpt>
      <trkpt lat="46.44122751429677" lon="12.891883989796042">
        <ele>686.7535595206992</ele>
        <time>2025-03-20T18:23:52.233Z</time>
      </trkpt>
      <trkpt lat="46.44135273993015" lon="12.891708556562662">
        <ele>693.0510631034294</ele>
        <time>2025-03-20T18:23:52.732Z</time>
      </trkpt>
      <trkpt lat="46.441349470987916" lon="12.89141041226685">
        <ele>690.084581876919</ele>
        <time>2025-03-20T18:23:54.022Z</time>
      </trkpt>
      <trkpt lat="46.441432032734156" lon="12.890990562736988">
        <ele>691.7450968549472</ele>
        <time>2025-03-20T18:23:56.200Z</time>
      </trkpt>
      <trkpt lat="46.44171190448105" lon="12.890609605237842">
        <ele>704.1617792234629</ele>
        <time>2025-03-20T18:23:58.220Z</time>
      </trkpt>
      <trkpt lat="46.44188096746802" lon="12.88995087146759">
        <ele>703.4011605405774</ele>
        <time>2025-03-20T18:24:01.656Z</time>
      </trkpt>
      <trkpt lat="46.44199722446501" lon="12.889830591157079">
        <ele>709.4008094857421</ele>
        <time>2025-03-20T18:24:03.288Z</time>
      </trkpt>
      <trkpt lat="46.4421671256423" lon="12.889405880123377">
        <ele>710.160955082362</ele>
        <time>2025-03-20T18:24:05.986Z</time>
      </trkpt>
      <trkpt lat="46.442355047911406" lon="12.889245869591832">
        <ele>715.7737960274571</ele>
        <time>2025-03-20T18:24:08.113Z</time>
      </trkpt>
      <trkpt lat="46.44237474538386" lon="12.889152243733406">
        <ele>714.0460420205706</ele>
        <time>2025-03-20T18:24:08.834Z</time>
      </trkpt>
      <trkpt lat="46.44265000708401" lon="12.8887830208987">
        <ele>713.3440589154278</ele>
        <time>2025-03-20T18:24:12.525Z</time>
      </trkpt>
      <trkpt lat="46.44296072423458" lon="12.88869702257216">
        <ele>716.1257149582738</ele>
        <time>2025-03-20T18:24:16.801Z</time>
      </trkpt>
      <trkpt lat="46.44315015524626" lon="12.88877128623426">
        <ele>719.8721312202987</ele>
        <time>2025-03-20T18:24:18.004Z</time>
      </trkpt>
      <trkpt lat="46.443366911262274" lon="12.888802969828248">
        <ele>721.7561568473004</ele>
        <time>2025-03-20T18:24:19.658Z</time>
      </trkpt>
      <trkpt lat="46.44340664148331" lon="12.88871856406331">
        <ele>719.5684254758739</ele>
        <time>2025-03-20T18:24:20.914Z</time>
      </trkpt>
      <trkpt lat="46.44349657930434" lon="12.888694508001208">
        <ele>719.7180319292358</ele>
        <time>2025-03-20T18:24:21.761Z</time>
      </trkpt>
      <trkpt lat="46.4435778837651" lon="12.888367278501391">
        <ele>711.6045604345836</ele>
        <time>2025-03-20T18:24:23.926Z</time>
      </trkpt>
      <trkpt lat="46.44368198700249" lon="12.8882269654423">
        <ele>709.5037876046863</ele>
        <time>2025-03-20T18:24:25.254Z</time>
      </trkpt>
      <trkpt lat="46.44394090399146" lon="12.888125292956829">
        <ele>711.4647177072532</ele>
        <time>2025-03-20T18:24:27.955Z</time>
      </trkpt>
      <trkpt lat="46.444146847352386" lon="12.88795824162662">
        <ele>710.1163318634506</ele>
        <time>2025-03-20T18:24:30.274Z</time>
      </trkpt>
      <trkpt lat="46.444310043007135" lon="12.887770738452673">
        <ele>708.3955515417276</ele>
        <time>2025-03-20T18:24:32.645Z</time>
      </trkpt>
      <trkpt lat="46.44443501718342" lon="12.887514838948846">
        <ele>704.7668472971408</ele>
        <time>2025-03-20T18:24:35.072Z</time>
      </trkpt>
      <trkpt lat="46.445201709866524" lon="12.886866834014654">
        <ele>692.802816368408</ele>
        <time>2025-03-20T18:24:42.222Z</time>
      </trkpt>
      <trkpt lat="46.44544545561075" lon="12.88647573441267">
        <ele>684.7098891446836</ele>
        <time>2025-03-20T18:24:46.030Z</time>
      </trkpt>
      <trkpt lat="46.44586203619838" lon="12.886000396683812">
        <ele>680.2838965858343</ele>
        <time>2025-03-20T18:24:50.561Z</time>
      </trkpt>
      <trkpt lat="46.44651507027447" lon="12.88540754467249">
        <ele>677.9096540648502</ele>
        <time>2025-03-20T18:24:54.773Z</time>
      </trkpt>
      <trkpt lat="46.44669930450618" lon="12.8853362146765">
        <ele>682.4446711171696</ele>
        <time>2025-03-20T18:24:57.265Z</time>
      </trkpt>
      <trkpt lat="46.447223676368594" lon="12.884945701807737">
        <ele>691.2106194580533</ele>
        <time>2025-03-20T18:25:02.404Z</time>
      </trkpt>
      <trkpt lat="46.44752106629312" lon="12.884639175608754">
        <ele>689.9435462898119</ele>
        <time>2025-03-20T18:25:05.067Z</time>
      </trkpt>
      <trkpt lat="46.44780739210546" lon="12.884274227544665">
        <ele>686.5695582306014</ele>
        <time>2025-03-20T18:25:09.174Z</time>
      </trkpt>
      <trkpt lat="46.448245011270046" lon="12.883672825992107">
        <ele>682.6427866291488</ele>
        <time>2025-03-20T18:25:18.393Z</time>
      </trkpt>
      <trkpt lat="46.448561511933804" lon="12.883472414687276">
        <ele>684.9186795042505</ele>
        <time>2025-03-20T18:25:22.069Z</time>
      </trkpt>
      <trkpt lat="46.44872512668371" lon="12.883522287011147">
        <ele>692.030308842709</ele>
        <time>2025-03-20T18:25:26.542Z</time>
      </trkpt>
      <trkpt lat="46.44889762625098" lon="12.8834486939013">
        <ele>689.2383961666075</ele>
        <time>2025-03-20T18:25:31.072Z</time>
      </trkpt>
      <trkpt lat="46.449075154960155" lon="12.883627563714981">
        <ele>692.2298222568414</ele>
        <time>2025-03-20T18:25:33.365Z</time>
      </trkpt>
      <trkpt lat="46.44942526705563" lon="12.88416744209826">
        <ele>692.1224883502833</ele>
        <time>2025-03-20T18:25:38.070Z</time>
      </trkpt>
      <trkpt lat="46.4496598765254" lon="12.884919382631779">
        <ele>692.3569617490147</ele>
        <time>2025-03-20T18:25:45.353Z</time>
      </trkpt>
      <trkpt lat="46.44956784322858" lon="12.88503966294229">
        <ele>699.8930336792164</ele>
        <time>2025-03-20T18:25:47.836Z</time>
      </trkpt>
      <trkpt lat="46.44964411854744" lon="12.885578703135252">
        <ele>690.9864716121201</ele>
        <time>2025-03-20T18:25:56.236Z</time>
      </trkpt>
      <trkpt lat="46.4495546836406" lon="12.88584055379033">
        <ele>697.5802203916166</ele>
        <time>2025-03-20T18:26:03.071Z</time>
      </trkpt>
      <trkpt lat="46.44966029562056" lon="12.88608237169683">
        <ele>684.6716478185649</ele>
        <time>2025-03-20T18:26:09.988Z</time>
      </trkpt>
      <trkpt lat="46.44971209578216" lon="12.886105421930552">
        <ele>679.3439430884282</ele>
        <time>2025-03-20T18:26:11.730Z</time>
      </trkpt>
      <trkpt lat="46.44966322928667" lon="12.886013807728887">
        <ele>684.7338509414794</ele>
        <time>2025-03-20T18:26:14.353Z</time>
      </trkpt>
      <trkpt lat="46.449877889826894" lon="12.886239029467106">
        <ele>663.6366630252231</ele>
        <time>2025-03-20T18:26:23.202Z</time>
      </trkpt>
      <trkpt lat="46.44994402304292" lon="12.886163759976625">
        <ele>658.030805413317</ele>
        <time>2025-03-20T18:26:27.664Z</time>
      </trkpt>
      <trkpt lat="46.45001510158181" lon="12.886344892904162">
        <ele>653.9119667148556</ele>
        <time>2025-03-20T18:26:33.957Z</time>
      </trkpt>
      <trkpt lat="46.449961038306355" lon="12.8864742256701">
        <ele>658.3377575401132</ele>
        <time>2025-03-20T18:26:36.674Z</time>
      </trkpt>
      <trkpt lat="46.449998086318374" lon="12.886640271171927">
        <ele>658.4593360727988</ele>
        <time>2025-03-20T18:26:39.407Z</time>
      </trkpt>
      <trkpt lat="46.450020130723715" lon="12.886609677225351">
        <ele>656.7706014611481</ele>
        <time>2025-03-20T18:26:41.239Z</time>
      </trkpt>
      <trkpt lat="46.44999054260552" lon="12.886749068275094">
        <ele>661.174594644933</ele>
        <time>2025-03-20T18:26:45.837Z</time>
      </trkpt>
      <trkpt lat="46.45033948123455" lon="12.886795001104474">
        <ele>658.2385313847244</ele>
        <time>2025-03-20T18:26:52.358Z</time>
      </trkpt>
      <trkpt lat="46.45068020559847" lon="12.887026341632009">
        <ele>684.5754425401717</ele>
        <time>2025-03-20T18:26:58.054Z</time>
      </trkpt>
      <trkpt lat="46.450813729315996" lon="12.886993233114481">
        <ele>696.1122059477858</ele>
        <time>2025-03-20T18:26:59.979Z</time>
      </trkpt>
      <trkpt lat="46.450499910861254" lon="12.886872198432684">
        <ele>668.1667135757461</ele>
        <time>2025-03-20T18:27:01.932Z</time>
      </trkpt>
      <trkpt lat="46.45055380649865" lon="12.886826684698462">
        <ele>671.6090092538182</ele>
        <time>2025-03-20T18:27:08.810Z</time>
      </trkpt>
      <trkpt lat="46.45052136853337" lon="12.886701375246048">
        <ele>667.6183239247077</ele>
        <time>2025-03-20T18:27:14.741Z</time>
      </trkpt>
      <trkpt lat="46.450308384373784" lon="12.886569947004318">
        <ele>652.6916336839099</ele>
        <time>2025-03-20T18:27:23.721Z</time>
      </trkpt>
      <trkpt lat="46.45018072798848" lon="12.88630717433989">
        <ele>646.6585077666382</ele>
        <time>2025-03-20T18:27:33.819Z</time>
      </trkpt>
      <trkpt lat="46.450251722708344" lon="12.886301139369607">
        <ele>646.3150412520795</ele>
        <time>2025-03-20T18:27:36.870Z</time>
      </trkpt>
      <trkpt lat="46.45028734579682" lon="12.886152695864439">
        <ele>643.8387440861538</ele>
        <time>2025-03-20T18:27:41.979Z</time>
      </trkpt>
      <trkpt lat="46.45048985257745" lon="12.886013220995665">
        <ele>652.0017753467417</ele>
        <time>2025-03-20T18:27:50.223Z</time>
      </trkpt>
      <trkpt lat="46.45093216560781" lon="12.885526651516557">
        <ele>672.7091310761788</ele>
        <time>2025-03-20T18:28:06.998Z</time>
      </trkpt>
      <trkpt lat="46.451108353212476" lon="12.885214760899544">
        <ele>671.9625482468277</ele>
        <time>2025-03-20T18:28:13.426Z</time>
      </trkpt>
      <trkpt lat="46.45121446810663" lon="12.885180562734604">
        <ele>676.3130062108864</ele>
        <time>2025-03-20T18:28:17.749Z</time>
      </trkpt>
      <trkpt lat="46.45154974423349" lon="12.88481536321342">
        <ele>683.5955652587571</ele>
        <time>2025-03-20T18:28:26.542Z</time>
      </trkpt>
      <trkpt lat="46.45157757215202" lon="12.884737998247147">
        <ele>683.7028937551181</ele>
        <time>2025-03-20T18:28:28.756Z</time>
      </trkpt>
      <trkpt lat="46.45152920857072" lon="12.884638169780374">
        <ele>679.5318191520873</ele>
        <time>2025-03-20T18:28:33.199Z</time>
      </trkpt>
      <trkpt lat="46.45157078281045" lon="12.884538006037474">
        <ele>680.0834792795958</ele>
        <time>2025-03-20T18:28:36.543Z</time>
      </trkpt>
      <trkpt lat="46.451674634590745" lon="12.884479500353336">
        <ele>684.3442279653586</ele>
        <time>2025-03-20T18:28:41.016Z</time>
      </trkpt>
      <trkpt lat="46.451781168580055" lon="12.884165765717626">
        <ele>683.9513934388226</ele>
        <time>2025-03-20T18:28:52.297Z</time>
      </trkpt>
      <trkpt lat="46.45187856629491" lon="12.884091418236494">
        <ele>687.2894836184284</ele>
        <time>2025-03-20T18:28:53.436Z</time>
      </trkpt>
      <trkpt lat="46.45193371921778" lon="12.883907267823815">
        <ele>687.389219298253</ele>
        <time>2025-03-20T18:28:59.156Z</time>
      </trkpt>
      <trkpt lat="46.45208375528455" lon="12.883688751608133">
        <ele>691.2354419302205</ele>
        <time>2025-03-20T18:29:12.978Z</time>
      </trkpt>
      <trkpt lat="46.45227796398103" lon="12.883614907041192">
        <ele>698.6033987563576</ele>
        <time>2025-03-20T18:29:21.125Z</time>
      </trkpt>
      <trkpt lat="46.452516093850136" lon="12.883762260898948">
        <ele>708.8190020888833</ele>
        <time>2025-03-20T18:29:35.216Z</time>
      </trkpt>
      <trkpt lat="46.45291406661272" lon="12.883785897865891">
        <ele>714.8366435298906</ele>
        <time>2025-03-20T18:29:56.660Z</time>
      </trkpt>
      <trkpt lat="46.45327038131654" lon="12.883680621162057">
        <ele>718.9349905643307</ele>
        <time>2025-03-20T18:30:08.778Z</time>
      </trkpt>
      <trkpt lat="46.453296365216374" lon="12.883608872070909">
        <ele>718.6237208942061</ele>
        <time>2025-03-20T18:30:14.887Z</time>
      </trkpt>
      <trkpt lat="46.453490909188986" lon="12.883668970316648">
        <ele>724.8808030454445</ele>
        <time>2025-03-20T18:30:21.023Z</time>
      </trkpt>
      <trkpt lat="46.45378293469548" lon="12.88346671499312">
        <ele>729.860055517777</ele>
        <time>2025-03-20T18:30:37.169Z</time>
      </trkpt>
      <trkpt lat="46.45409205928445" lon="12.883445927873254">
        <ele>734.5248491464836</ele>
        <time>2025-03-20T18:30:42.211Z</time>
      </trkpt>
      <trkpt lat="46.45460461266339" lon="12.882825331762433">
        <ele>723.6152681642133</ele>
        <time>2025-03-20T18:30:56.317Z</time>
      </trkpt>
      <trkpt lat="46.45516159012914" lon="12.882395843043923">
        <ele>722.501310373983</ele>
        <time>2025-03-20T18:31:07.216Z</time>
      </trkpt>
      <trkpt lat="46.45516" lon="12.882462">
        <ele>724.1248186420657</ele>
        <time>2025-03-20T18:31:08.004Z</time>
      </trkpt>
      <trkpt lat="46.455316" lon="12.88247">
        <ele>725.458900326672</ele>
        <time>2025-03-20T18:31:10.701Z</time>
      </trkpt>
      <trkpt lat="46.455446" lon="12.882519">
        <ele>726.9501958487576</ele>
        <time>2025-03-20T18:31:13.022Z</time>
      </trkpt>
      <trkpt lat="46.455634" lon="12.882698">
        <ele>730.4786897567682</ele>
        <time>2025-03-20T18:31:16.907Z</time>
      </trkpt>
      <trkpt lat="46.455803" lon="12.882724">
        <ele>731.4002466248669</ele>
        <time>2025-03-20T18:31:19.844Z</time>
      </trkpt>
      <trkpt lat="46.455808" lon="12.882803">
        <ele>732.4726753120785</ele>
        <time>2025-03-20T18:31:20.788Z</time>
      </trkpt>
      <trkpt lat="46.455702" lon="12.882945">
        <ele>735.7010129434782</ele>
        <time>2025-03-20T18:31:23.280Z</time>
      </trkpt>
      <trkpt lat="46.455403" lon="12.882988">
        <ele>740.489568842362</ele>
        <time>2025-03-20T18:31:28.472Z</time>
      </trkpt>
      <trkpt lat="46.454756" lon="12.883744">
        <ele>766.508659424292</ele>
        <time>2025-03-20T18:31:42.826Z</time>
      </trkpt>
      <trkpt lat="46.454468" lon="12.884216">
        <ele>777.2390038142335</ele>
        <time>2025-03-20T18:31:50.332Z</time>
      </trkpt>
      <trkpt lat="46.454357" lon="12.884487">
        <ele>784.4354113244945</ele>
        <time>2025-03-20T18:31:54.085Z</time>
      </trkpt>
      <trkpt lat="46.454128" lon="12.884796">
        <ele>790.8094106504803</ele>
        <time>2025-03-20T18:31:59.488Z</time>
      </trkpt>
      <trkpt lat="46.453936" lon="12.885026">
        <ele>793.415441073059</ele>
        <time>2025-03-20T18:32:03.790Z</time>
      </trkpt>
      <trkpt lat="46.45392" lon="12.885059">
        <ele>793.8938684983658</ele>
        <time>2025-03-20T18:32:04.273Z</time>
      </trkpt>
      <trkpt lat="46.4538" lon="12.885304">
        <ele>794.7592101894536</ele>
        <time>2025-03-20T18:32:07.873Z</time>
      </trkpt>
      <trkpt lat="46.453761" lon="12.88537">
        <ele>794.3156792288187</ele>
        <time>2025-03-20T18:32:08.914Z</time>
      </trkpt>
      <trkpt lat="46.453598" lon="12.886036">
        <ele>794.3985367620535</ele>
        <time>2025-03-20T18:32:17.379Z</time>
      </trkpt>
      <trkpt lat="46.453532" lon="12.886199">
        <ele>796.8636501025375</ele>
        <time>2025-03-20T18:32:19.643Z</time>
      </trkpt>
      <trkpt lat="46.453383" lon="12.88642">
        <ele>800.6916960486018</ele>
        <time>2025-03-20T18:32:23.346Z</time>
      </trkpt>
      <trkpt lat="46.453151" lon="12.886637">
        <ele>800.8567560554856</ele>
        <time>2025-03-20T18:32:28.144Z</time>
      </trkpt>
      <trkpt lat="46.45306" lon="12.886758">
        <ele>801.0417062421329</ele>
        <time>2025-03-20T18:32:30.289Z</time>
      </trkpt>
      <trkpt lat="46.45298" lon="12.886958">
        <ele>803.2132366234446</ele>
        <time>2025-03-20T18:32:33.058Z</time>
      </trkpt>
      <trkpt lat="46.45294" lon="12.887133">
        <ele>805.4976400188925</ele>
        <time>2025-03-20T18:32:35.266Z</time>
      </trkpt>
      <trkpt lat="46.452826" lon="12.88752">
        <ele>805.881118507367</ele>
        <time>2025-03-20T18:32:40.307Z</time>
      </trkpt>
      <trkpt lat="46.452812" lon="12.887719">
        <ele>806.9587712293959</ele>
        <time>2025-03-20T18:32:42.702Z</time>
      </trkpt>
      <trkpt lat="46.452829" lon="12.887833">
        <ele>808.4126504440101</ele>
        <time>2025-03-20T18:32:44.099Z</time>
      </trkpt>
      <trkpt lat="46.452986" lon="12.888281">
        <ele>818.5808304106488</ele>
        <time>2025-03-20T18:32:50.119Z</time>
      </trkpt>
      <trkpt lat="46.453075" lon="12.888584">
        <ele>823.3054840867584</ele>
        <time>2025-03-20T18:32:54.064Z</time>
      </trkpt>
      <trkpt lat="46.453131" lon="12.888825">
        <ele>827.5919465321126</ele>
        <time>2025-03-20T18:32:57.110Z</time>
      </trkpt>
      <trkpt lat="46.453147" lon="12.888961">
        <ele>829.5983109925885</ele>
        <time>2025-03-20T18:32:58.762Z</time>
      </trkpt>
      <trkpt lat="46.453157" lon="12.889372">
        <ele>831.9611485746233</ele>
        <time>2025-03-20T18:33:03.687Z</time>
      </trkpt>
      <trkpt lat="46.453195" lon="12.889648">
        <ele>835.1989007938658</ele>
        <time>2025-03-20T18:33:07.058Z</time>
      </trkpt>
      <trkpt lat="46.453241" lon="12.889819">
        <ele>838.5774932098527</ele>
        <time>2025-03-20T18:33:09.256Z</time>
      </trkpt>
      <trkpt lat="46.453305" lon="12.889986">
        <ele>842.1928688826977</ele>
        <time>2025-03-20T18:33:11.544Z</time>
      </trkpt>
      <trkpt lat="46.453377" lon="12.890135">
        <ele>845.3592553455103</ele>
        <time>2025-03-20T18:33:13.723Z</time>
      </trkpt>
      <trkpt lat="46.453392" lon="12.890323">
        <ele>845.9234907945881</ele>
        <time>2025-03-20T18:33:15.989Z</time>
      </trkpt>
      <trkpt lat="46.453369" lon="12.890574">
        <ele>846.8138700427821</ele>
        <time>2025-03-20T18:33:19.021Z</time>
      </trkpt>
      <trkpt lat="46.453368" lon="12.890646">
        <ele>847.5535566596687</ele>
        <time>2025-03-20T18:33:19.883Z</time>
      </trkpt>
      <trkpt lat="46.453354" lon="12.891312">
        <ele>859.4007940480337</ele>
        <time>2025-03-20T18:33:27.863Z</time>
      </trkpt>
      <trkpt lat="46.453296" lon="12.891692">
        <ele>865.3486522950566</ele>
        <time>2025-03-20T18:33:32.524Z</time>
      </trkpt>
      <trkpt lat="46.453175" lon="12.892012">
        <ele>864.2934679514728</ele>
        <time>2025-03-20T18:33:36.896Z</time>
      </trkpt>
      <trkpt lat="46.453047" lon="12.89222">
        <ele>862.5625837370966</ele>
        <time>2025-03-20T18:33:40.236Z</time>
      </trkpt>
      <trkpt lat="46.452669" lon="12.892526">
        <ele>870.135561338687</ele>
        <time>2025-03-20T18:33:47.760Z</time>
      </trkpt>
      <trkpt lat="46.452367" lon="12.892709">
        <ele>876.7057681350901</ele>
        <time>2025-03-20T18:33:53.449Z</time>
      </trkpt>
      <trkpt lat="46.452147" lon="12.892928">
        <ele>887.8375813947891</ele>
        <time>2025-03-20T18:33:58.086Z</time>
      </trkpt>
      <trkpt lat="46.452015" lon="12.893009">
        <ele>890.1006601456444</ele>
        <time>2025-03-20T18:34:00.577Z</time>
      </trkpt>
      <trkpt lat="46.451859" lon="12.893046">
        <ele>889.7072743774693</ele>
        <time>2025-03-20T18:34:03.325Z</time>
      </trkpt>
      <trkpt lat="46.451741" lon="12.893137">
        <ele>890.6613006397369</ele>
        <time>2025-03-20T18:34:05.648Z</time>
      </trkpt>
      <trkpt lat="46.451689" lon="12.893298">
        <ele>892.8891572142024</ele>
        <time>2025-03-20T18:34:07.777Z</time>
      </trkpt>
      <trkpt lat="46.451668" lon="12.89347">
        <ele>895.0168017988119</ele>
        <time>2025-03-20T18:34:09.869Z</time>
      </trkpt>
      <trkpt lat="46.45168" lon="12.893738">
        <ele>899.3760572098909</ele>
        <time>2025-03-20T18:34:13.085Z</time>
      </trkpt>
      <trkpt lat="46.451659" lon="12.894074">
        <ele>901.2829957865983</ele>
        <time>2025-03-20T18:34:17.126Z</time>
      </trkpt>
      <trkpt lat="46.451733" lon="12.894741">
        <ele>907.2607550499383</ele>
        <time>2025-03-20T18:34:25.217Z</time>
      </trkpt>
      <trkpt lat="46.451741" lon="12.894811">
        <ele>907.5537828154403</ele>
        <time>2025-03-20T18:34:26.066Z</time>
      </trkpt>
      <trkpt lat="46.451723" lon="12.895005">
        <ele>905.8115570531231</ele>
        <time>2025-03-20T18:34:28.410Z</time>
      </trkpt>
      <trkpt lat="46.451753" lon="12.895447">
        <ele>906.6049936494247</ele>
        <time>2025-03-20T18:34:33.729Z</time>
      </trkpt>
      <trkpt lat="46.451731" lon="12.895933">
        <ele>904.7373253058182</ele>
        <time>2025-03-20T18:34:39.562Z</time>
      </trkpt>
      <trkpt lat="46.451757" lon="12.896151">
        <ele>905.2470582226318</ele>
        <time>2025-03-20T18:34:42.211Z</time>
      </trkpt>
      <trkpt lat="46.451821" lon="12.896368">
        <ele>905.8211970308503</ele>
        <time>2025-03-20T18:34:45.038Z</time>
      </trkpt>
      <trkpt lat="46.451921" lon="12.896662">
        <ele>903.721714866865</ele>
        <time>2025-03-20T18:34:48.965Z</time>
      </trkpt>
      <trkpt lat="46.452001" lon="12.896851">
        <ele>902.5526094953932</ele>
        <time>2025-03-20T18:34:51.621Z</time>
      </trkpt>
      <trkpt lat="46.452062" lon="12.897049">
        <ele>901.8763035221314</ele>
        <time>2025-03-20T18:34:54.218Z</time>
      </trkpt>
      <trkpt lat="46.452117" lon="12.897265">
        <ele>903.1851594828861</ele>
        <time>2025-03-20T18:34:56.976Z</time>
      </trkpt>
      <trkpt lat="46.451958" lon="12.897256">
        <ele>901.6906016637924</ele>
        <time>2025-03-20T18:34:59.742Z</time>
      </trkpt>
      <trkpt lat="46.451851" lon="12.897188">
        <ele>900.4990978786268</ele>
        <time>2025-03-20T18:35:01.772Z</time>
      </trkpt>
      <trkpt lat="46.4517" lon="12.897125">
        <ele>899.8248938847137</ele>
        <time>2025-03-20T18:35:04.503Z</time>
      </trkpt>
      <trkpt lat="46.451482" lon="12.897081">
        <ele>897.8489670078532</ele>
        <time>2025-03-20T18:35:08.329Z</time>
      </trkpt>
      <trkpt lat="46.451454" lon="12.897091">
        <ele>897.6164748912925</ele>
        <time>2025-03-20T18:35:08.830Z</time>
      </trkpt>
      <trkpt lat="46.451263" lon="12.897166">
        <ele>894.3506605393853</ele>
        <time>2025-03-20T18:35:12.269Z</time>
      </trkpt>
      <trkpt lat="46.45123" lon="12.897238">
        <ele>894.1208660459768</ele>
        <time>2025-03-20T18:35:13.304Z</time>
      </trkpt>
      <trkpt lat="46.451196" lon="12.897398">
        <ele>894.9358230337483</ele>
        <time>2025-03-20T18:35:15.309Z</time>
      </trkpt>
      <trkpt lat="46.451244" lon="12.89782">
        <ele>900.0263038106525</ele>
        <time>2025-03-20T18:35:20.431Z</time>
      </trkpt>
      <trkpt lat="46.451151" lon="12.898164">
        <ele>902.9526465262486</ele>
        <time>2025-03-20T18:35:24.857Z</time>
      </trkpt>
      <trkpt lat="46.451034" lon="12.898379">
        <ele>904.3410259695977</ele>
        <time>2025-03-20T18:35:28.138Z</time>
      </trkpt>
      <trkpt lat="46.450889" lon="12.898615">
        <ele>904.2590893266831</ele>
        <time>2025-03-20T18:35:31.925Z</time>
      </trkpt>
      <trkpt lat="46.450729" lon="12.898929">
        <ele>906.3729767548858</ele>
        <time>2025-03-20T18:35:36.602Z</time>
      </trkpt>
      <trkpt lat="46.45066" lon="12.899111">
        <ele>911.7552977299789</ele>
        <time>2025-03-20T18:35:39.090Z</time>
      </trkpt>
      <trkpt lat="46.450582" lon="12.899109">
        <ele>911.7270364944832</ele>
        <time>2025-03-20T18:35:40.446Z</time>
      </trkpt>
      <trkpt lat="46.450456" lon="12.898994">
        <ele>911.6589050578426</ele>
        <time>2025-03-20T18:35:43.033Z</time>
      </trkpt>
      <trkpt lat="46.450274" lon="12.898681">
        <ele>911.597822830558</ele>
        <time>2025-03-20T18:35:47.938Z</time>
      </trkpt>
      <trkpt lat="46.449866" lon="12.898174">
        <ele>910.9081442130407</ele>
        <time>2025-03-20T18:35:57.275Z</time>
      </trkpt>
      <trkpt lat="46.449537" lon="12.89788">
        <ele>910.3489415346794</ele>
        <time>2025-03-20T18:36:03.991Z</time>
      </trkpt>
      <trkpt lat="46.449156" lon="12.897465">
        <ele>910.8742792516337</ele>
        <time>2025-03-20T18:36:12.272Z</time>
      </trkpt>
      <trkpt lat="46.448973" lon="12.897085">
        <ele>913.064940320328</ele>
        <time>2025-03-20T18:36:17.825Z</time>
      </trkpt>
      <trkpt lat="46.448648" lon="12.896136">
        <ele>916.3059985948304</ele>
        <time>2025-03-20T18:36:30.518Z</time>
      </trkpt>
      <trkpt lat="46.448479" lon="12.895484">
        <ele>915.6994203933519</ele>
        <time>2025-03-20T18:36:38.862Z</time>
      </trkpt>
      <trkpt lat="46.448334" lon="12.894867">
        <ele>918.2038586915472</ele>
        <time>2025-03-20T18:36:46.670Z</time>
      </trkpt>
      <trkpt lat="46.448267" lon="12.894428">
        <ele>923.7948247030918</ele>
        <time>2025-03-20T18:36:52.055Z</time>
      </trkpt>
      <trkpt lat="46.448076" lon="12.89378">
        <ele>930.0551502332409</ele>
        <time>2025-03-20T18:37:00.497Z</time>
      </trkpt>
      <trkpt lat="46.447946" lon="12.893236">
        <ele>932.2637075260005</ele>
        <time>2025-03-20T18:37:07.393Z</time>
      </trkpt>
      <trkpt lat="46.447862" lon="12.892927">
        <ele>932.2478941210554</ele>
        <time>2025-03-20T18:37:11.371Z</time>
      </trkpt>
      <trkpt lat="46.447694" lon="12.892617">
        <ele>933.2155661463538</ele>
        <time>2025-03-20T18:37:16.095Z</time>
      </trkpt>
      <trkpt lat="46.447318" lon="12.892587">
        <ele>926.0296414665477</ele>
        <time>2025-03-20T18:37:22.641Z</time>
      </trkpt>
      <trkpt lat="46.447084" lon="12.892673">
        <ele>922.8469078509434</ele>
        <time>2025-03-20T18:37:26.837Z</time>
      </trkpt>
      <trkpt lat="46.446908" lon="12.892665">
        <ele>921.1635959633767</ele>
        <time>2025-03-20T18:37:29.898Z</time>
      </trkpt>
      <trkpt lat="46.446773" lon="12.892573">
        <ele>918.4486491888159</ele>
        <time>2025-03-20T18:37:32.490Z</time>
      </trkpt>
      <trkpt lat="46.446532" lon="12.892523">
        <ele>914.306677689738</ele>
        <time>2025-03-20T18:37:36.722Z</time>
      </trkpt>
      <trkpt lat="46.446249" lon="12.892734">
        <ele>915.0168434912811</ele>
        <time>2025-03-20T18:37:42.253Z</time>
      </trkpt>
      <trkpt lat="46.446035" lon="12.892746">
        <ele>910.6474832176325</ele>
        <time>2025-03-20T18:37:45.976Z</time>
      </trkpt>
      <trkpt lat="46.445817" lon="12.892927">
        <ele>907.5423447691106</ele>
        <time>2025-03-20T18:37:50.342Z</time>
      </trkpt>
      <trkpt lat="46.445582" lon="12.893066">
        <ele>901.6045462096869</ele>
        <time>2025-03-20T18:37:54.753Z</time>
      </trkpt>
      <trkpt lat="46.445377" lon="12.89331">
        <ele>898.9022204490157</ele>
        <time>2025-03-20T18:37:59.362Z</time>
      </trkpt>
      <trkpt lat="46.445078" lon="12.893723">
        <ele>897.5739541463565</ele>
        <time>2025-03-20T18:38:06.537Z</time>
      </trkpt>
      <trkpt lat="46.444865" lon="12.894027">
        <ele>897.7494946179543</ele>
        <time>2025-03-20T18:38:11.730Z</time>
      </trkpt>
      <trkpt lat="46.444681" lon="12.893981">
        <ele>893.4969876071591</ele>
        <time>2025-03-20T18:38:14.975Z</time>
      </trkpt>
      <trkpt lat="46.444528" lon="12.894091">
        <ele>892.3441571237985</ele>
        <time>2025-03-20T18:38:17.943Z</time>
      </trkpt>
      <trkpt lat="46.444404" lon="12.894024">
        <ele>889.2544741880155</ele>
        <time>2025-03-20T18:38:20.243Z</time>
      </trkpt>
      <trkpt lat="46.444998" lon="12.892554">
        <ele>864.9039122264845</ele>
        <time>2025-03-20T18:38:40.656Z</time>
      </trkpt>
      <trkpt lat="46.444495" lon="12.891972">
        <ele>842.4001909233252</ele>
        <time>2025-03-20T18:38:51.839Z</time>
      </trkpt>
      <trkpt lat="46.444115" lon="12.891979">
        <ele>834.5837086058465</ele>
        <time>2025-03-20T18:38:58.445Z</time>
      </trkpt>
      <trkpt lat="46.443627" lon="12.891842">
        <ele>814.6063909843458</ele>
        <time>2025-03-20T18:39:07.085Z</time>
      </trkpt>
      <trkpt lat="46.44324" lon="12.892484">
        <ele>805.4706704619241</ele>
        <time>2025-03-20T18:39:17.302Z</time>
      </trkpt>
      <trkpt lat="46.442909" lon="12.893035">
        <ele>794.5591912108225</ele>
        <time>2025-03-20T18:39:26.058Z</time>
      </trkpt>
      <trkpt lat="46.442865" lon="12.892972">
        <ele>791.859519400558</ele>
        <time>2025-03-20T18:39:27.132Z</time>
      </trkpt>
      <trkpt lat="46.442782" lon="12.893009">
        <ele>788.6710986295717</ele>
        <time>2025-03-20T18:39:28.641Z</time>
      </trkpt>
      <trkpt lat="46.442713" lon="12.893214">
        <ele>787.373643483668</ele>
        <time>2025-03-20T18:39:31.373Z</time>
      </trkpt>
      <trkpt lat="46.442572" lon="12.893554">
        <ele>784.3262888652557</ele>
        <time>2025-03-20T18:39:36.126Z</time>
      </trkpt>
      <trkpt lat="46.442453" lon="12.893703">
        <ele>780.6135397273536</ele>
        <time>2025-03-20T18:39:38.858Z</time>
      </trkpt>
      <trkpt lat="46.44223" lon="12.893853">
        <ele>773.0006788383162</ele>
        <time>2025-03-20T18:39:43.130Z</time>
      </trkpt>
      <trkpt lat="46.442073" lon="12.89419">
        <ele>770.7290047119367</ele>
        <time>2025-03-20T18:39:48.003Z</time>
      </trkpt>
      <trkpt lat="46.441816" lon="12.895171">
        <ele>763.4965189863925</ele>
        <time>2025-03-20T18:40:00.575Z</time>
      </trkpt>
      <trkpt lat="46.441737" lon="12.895632">
        <ele>761.3466724358973</ele>
        <time>2025-03-20T18:40:06.265Z</time>
      </trkpt>
      <trkpt lat="46.441693" lon="12.895937">
        <ele>761.1362572611314</ele>
        <time>2025-03-20T18:40:09.997Z</time>
      </trkpt>
      <trkpt lat="46.441491" lon="12.896593">
        <ele>751.5061173570517</ele>
        <time>2025-03-20T18:40:18.604Z</time>
      </trkpt>
      <trkpt lat="46.441171" lon="12.897239">
        <ele>738.929509227524</ele>
        <time>2025-03-20T18:40:28.134Z</time>
      </trkpt>
      <trkpt lat="46.440774" lon="12.898103">
        <ele>726.6126269404315</ele>
        <time>2025-03-20T18:40:40.574Z</time>
      </trkpt>
      <trkpt lat="46.440659" lon="12.898293">
        <ele>721.7955462754242</ele>
        <time>2025-03-20T18:40:43.603Z</time>
      </trkpt>
      <trkpt lat="46.44054" lon="12.898616">
        <ele>719.3656449914915</ele>
        <time>2025-03-20T18:40:47.990Z</time>
      </trkpt>
      <trkpt lat="46.440426" lon="12.898959">
        <ele>719.5365073090445</ele>
        <time>2025-03-20T18:40:52.551Z</time>
      </trkpt>
      <trkpt lat="46.440386" lon="12.899048">
        <ele>719.0480383526362</ele>
        <time>2025-03-20T18:40:53.823Z</time>
      </trkpt>
      <trkpt lat="46.440332" lon="12.899092">
        <ele>716.4747992417567</ele>
        <time>2025-03-20T18:40:54.899Z</time>
      </trkpt>
      <trkpt lat="46.440084" lon="12.900023">
        <ele>716.646877407044</ele>
        <time>2025-03-20T18:41:06.856Z</time>
      </trkpt>
      <trkpt lat="46.440059" lon="12.900053">
        <ele>716.2603713294505</ele>
        <time>2025-03-20T18:41:07.419Z</time>
      </trkpt>
      <trkpt lat="46.440025" lon="12.900063">
        <ele>715.2056083834968</ele>
        <time>2025-03-20T18:41:08.022Z</time>
      </trkpt>
      <trkpt lat="46.439995" lon="12.900042">
        <ele>713.700065516355</ele>
        <time>2025-03-20T18:41:08.601Z</time>
      </trkpt>
      <trkpt lat="46.439938" lon="12.89993">
        <ele>709.8274508378479</ele>
        <time>2025-03-20T18:41:10.268Z</time>
      </trkpt>
      <trkpt lat="46.439851" lon="12.899822">
        <ele>705.948010106712</ele>
        <time>2025-03-20T18:41:12.258Z</time>
      </trkpt>
      <trkpt lat="46.43972" lon="12.899755">
        <ele>703.0999341548396</ele>
        <time>2025-03-20T18:41:14.672Z</time>
      </trkpt>
      <trkpt lat="46.439545" lon="12.899531">
        <ele>699.3007218048415</ele>
        <time>2025-03-20T18:41:18.728Z</time>
      </trkpt>
      <trkpt lat="46.439531" lon="12.899513">
        <ele>699.0972130823501</ele>
        <time>2025-03-20T18:41:19.053Z</time>
      </trkpt>
      <trkpt lat="46.439447" lon="12.899505">
        <ele>698.8493995109214</ele>
        <time>2025-03-20T18:41:20.516Z</time>
      </trkpt>
      <trkpt lat="46.439178" lon="12.898996">
        <ele>696.4125437634541</ele>
        <time>2025-03-20T18:41:28.200Z</time>
      </trkpt>
      <trkpt lat="46.439082" lon="12.898901">
        <ele>696.813525072258</ele>
        <time>2025-03-20T18:41:30.219Z</time>
      </trkpt>
      <trkpt lat="46.438911" lon="12.898781">
        <ele>697.3618092088968</ele>
        <time>2025-03-20T18:41:33.521Z</time>
      </trkpt>
    </trkseg>
  </trk>
</gpx>
