<?xml version="1.0" encoding="UTF-8"?>
<gpx creator="https://gpx.studio" version="1.1" xmlns="http://www.topografix.com/GPX/1/1" xmlns:xsi="http://www.w3.org/2001/XMLSchema-instance" xsi:schemaLocation="http://www.topografix.com/GPX/1/1 http://www.topografix.com/GPX/1/1/gpx.xsd http://www.garmin.com/xmlschemas/GpxExtensions/v3 http://www.garmin.com/xmlschemas/GpxExtensionsv3.xsd http://www.garmin.com/xmlschemas/TrackPointExtension/v1 http://www.garmin.com/xmlschemas/TrackPointExtensionv1.xsd http://www.garmin.com/xmlschemas/PowerExtension/v1 http://www.garmin.com/xmlschemas/PowerExtensionv1.xsd http://www.topografix.com/GPX/gpx_style/0/2 http://www.topografix.com/GPX/gpx_style/0/2/gpx_style.xsd" xmlns:gpxtpx="http://www.garmin.com/xmlschemas/TrackPointExtension/v1" xmlns:gpxx="http://www.garmin.com/xmlschemas/GpxExtensions/v3" xmlns:gpxpx="http://www.garmin.com/xmlschemas/PowerExtension/v1" xmlns:gpx_style="http://www.topografix.com/GPX/gpx_style/0/2">
  <metadata>
    <name>LAU-MTB-VII</name>
    <author>
      <name>gpx.studio</name>
      <link href="https://gpx.studio"/>
    </author>
  </metadata>
  <trk>
    <name>LAU-MTB-VII</name>
    <trkseg>
      <trkpt lat="46.422708" lon="12.931634">
        <ele>718.9</ele>
      </trkpt>
      <trkpt lat="46.422717" lon="12.931595">
        <ele>718.87</ele>
      </trkpt>
      <trkpt lat="46.422826" lon="12.931669">
        <ele>719.21</ele>
      </trkpt>
      <trkpt lat="46.422958" lon="12.931699">
        <ele>720.31</ele>
      </trkpt>
      <trkpt lat="46.423062" lon="12.931683">
        <ele>721.08</ele>
      </trkpt>
      <trkpt lat="46.423186" lon="12.931686">
        <ele>722.64</ele>
      </trkpt>
      <trkpt lat="46.423203" lon="12.931754">
        <ele>723.18</ele>
      </trkpt>
      <trkpt lat="46.423253" lon="12.931842">
        <ele>724.11</ele>
      </trkpt>
      <trkpt lat="46.423291" lon="12.931924">
        <ele>724.91</ele>
      </trkpt>
      <trkpt lat="46.423317" lon="12.932022">
        <ele>725.7</ele>
      </trkpt>
      <trkpt lat="46.423318" lon="12.932395">
        <ele>727.22</ele>
      </trkpt>
      <trkpt lat="46.4234" lon="12.932635">
        <ele>730.01</ele>
      </trkpt>
      <trkpt lat="46.423405" lon="12.932679">
        <ele>730.53</ele>
      </trkpt>
      <trkpt lat="46.423404" lon="12.932744">
        <ele>731.27</ele>
      </trkpt>
      <trkpt lat="46.423385" lon="12.932815">
        <ele>731.77</ele>
      </trkpt>
      <trkpt lat="46.423358" lon="12.932867">
        <ele>732</ele>
      </trkpt>
      <trkpt lat="46.423293" lon="12.932951">
        <ele>732.45</ele>
      </trkpt>
      <trkpt lat="46.423275" lon="12.932939">
        <ele>732.05</ele>
      </trkpt>
      <trkpt lat="46.423293" lon="12.932951">
        <ele>732.45</ele>
      </trkpt>
      <trkpt lat="46.423072" lon="12.933126">
        <ele>731.27</ele>
      </trkpt>
      <trkpt lat="46.423006" lon="12.933203">
        <ele>730.94</ele>
      </trkpt>
      <trkpt lat="46.42295" lon="12.933293">
        <ele>730.99</ele>
      </trkpt>
      <trkpt lat="46.422919" lon="12.933377">
        <ele>731.22</ele>
      </trkpt>
      <trkpt lat="46.422882" lon="12.933516">
        <ele>731.68</ele>
      </trkpt>
      <trkpt lat="46.42287" lon="12.933606">
        <ele>731.58</ele>
      </trkpt>
      <trkpt lat="46.42288" lon="12.933737">
        <ele>731.87</ele>
      </trkpt>
      <trkpt lat="46.422923" lon="12.933824">
        <ele>732.81</ele>
      </trkpt>
      <trkpt lat="46.422943" lon="12.933853">
        <ele>733.19</ele>
      </trkpt>
      <trkpt lat="46.422984" lon="12.933887">
        <ele>733.35</ele>
      </trkpt>
      <trkpt lat="46.423082" lon="12.93393">
        <ele>733.93</ele>
      </trkpt>
      <trkpt lat="46.423151" lon="12.933925">
        <ele>734.54</ele>
      </trkpt>
      <trkpt lat="46.423226" lon="12.933881">
        <ele>734.93</ele>
      </trkpt>
      <trkpt lat="46.423523" lon="12.93352">
        <ele>738.17</ele>
      </trkpt>
      <trkpt lat="46.423625" lon="12.933446">
        <ele>739.89</ele>
      </trkpt>
      <trkpt lat="46.423891" lon="12.933182">
        <ele>741.19</ele>
      </trkpt>
      <trkpt lat="46.423931" lon="12.933132">
        <ele>741.53</ele>
      </trkpt>
      <trkpt lat="46.423977" lon="12.933038">
        <ele>741.91</ele>
      </trkpt>
      <trkpt lat="46.424035" lon="12.932762">
        <ele>742.4</ele>
      </trkpt>
      <trkpt lat="46.424058" lon="12.932707">
        <ele>742.6</ele>
      </trkpt>
      <trkpt lat="46.424124" lon="12.932671">
        <ele>743.15</ele>
      </trkpt>
      <trkpt lat="46.424378" lon="12.93249">
        <ele>745.3</ele>
      </trkpt>
      <trkpt lat="46.424451" lon="12.932481">
        <ele>745.91</ele>
      </trkpt>
      <trkpt lat="46.424534" lon="12.932496">
        <ele>747.15</ele>
      </trkpt>
      <trkpt lat="46.42467" lon="12.93248">
        <ele>748.76</ele>
      </trkpt>
      <trkpt lat="46.424886" lon="12.932405">
        <ele>750.58</ele>
      </trkpt>
      <trkpt lat="46.425141" lon="12.932374">
        <ele>751.34</ele>
      </trkpt>
      <trkpt lat="46.425257" lon="12.932345">
        <ele>751.94</ele>
      </trkpt>
      <trkpt lat="46.425327" lon="12.932315">
        <ele>752.3</ele>
      </trkpt>
      <trkpt lat="46.425399" lon="12.932268">
        <ele>752.93</ele>
      </trkpt>
      <trkpt lat="46.425649" lon="12.932028">
        <ele>754.02</ele>
      </trkpt>
      <trkpt lat="46.425708" lon="12.931992">
        <ele>754.51</ele>
      </trkpt>
      <trkpt lat="46.425801" lon="12.931986">
        <ele>755.3</ele>
      </trkpt>
      <trkpt lat="46.425844" lon="12.932004">
        <ele>755.66</ele>
      </trkpt>
      <trkpt lat="46.425897" lon="12.932057">
        <ele>756.11</ele>
      </trkpt>
      <trkpt lat="46.42595" lon="12.932152">
        <ele>756.61</ele>
      </trkpt>
      <trkpt lat="46.426019" lon="12.932342">
        <ele>758.5</ele>
      </trkpt>
      <trkpt lat="46.426054" lon="12.93249">
        <ele>759.94</ele>
      </trkpt>
      <trkpt lat="46.426065" lon="12.932578">
        <ele>760.64</ele>
      </trkpt>
      <trkpt lat="46.426065" lon="12.932896">
        <ele>761.78</ele>
      </trkpt>
      <trkpt lat="46.426083" lon="12.932995">
        <ele>762.35</ele>
      </trkpt>
      <trkpt lat="46.426115" lon="12.933073">
        <ele>762.44</ele>
      </trkpt>
      <trkpt lat="46.426175" lon="12.933128">
        <ele>763.13</ele>
      </trkpt>
      <trkpt lat="46.426311" lon="12.933205">
        <ele>765.2</ele>
      </trkpt>
      <trkpt lat="46.426373" lon="12.933263">
        <ele>766.25</ele>
      </trkpt>
      <trkpt lat="46.42642" lon="12.933341">
        <ele>767.07</ele>
      </trkpt>
      <trkpt lat="46.426442" lon="12.933419">
        <ele>768.23</ele>
      </trkpt>
      <trkpt lat="46.426443" lon="12.933516">
        <ele>769.2</ele>
      </trkpt>
      <trkpt lat="46.426397" lon="12.933731">
        <ele>770.85</ele>
      </trkpt>
      <trkpt lat="46.426273" lon="12.934211">
        <ele>772.18</ele>
      </trkpt>
      <trkpt lat="46.426261" lon="12.934285">
        <ele>772.14</ele>
      </trkpt>
      <trkpt lat="46.426261" lon="12.934348">
        <ele>772.44</ele>
      </trkpt>
      <trkpt lat="46.42627" lon="12.934393">
        <ele>772.7</ele>
      </trkpt>
      <trkpt lat="46.426295" lon="12.934447">
        <ele>772.96</ele>
      </trkpt>
      <trkpt lat="46.42631" lon="12.934465">
        <ele>773.12</ele>
      </trkpt>
      <trkpt lat="46.426353" lon="12.934485">
        <ele>773.58</ele>
      </trkpt>
      <trkpt lat="46.426403" lon="12.934493">
        <ele>773.94</ele>
      </trkpt>
      <trkpt lat="46.426755" lon="12.934406">
        <ele>776.92</ele>
      </trkpt>
      <trkpt lat="46.427055" lon="12.934297">
        <ele>779.42</ele>
      </trkpt>
      <trkpt lat="46.427169" lon="12.934274">
        <ele>780.4</ele>
      </trkpt>
      <trkpt lat="46.42753" lon="12.93425">
        <ele>782.54</ele>
      </trkpt>
      <trkpt lat="46.427694" lon="12.934226">
        <ele>784.53</ele>
      </trkpt>
      <trkpt lat="46.42779" lon="12.934236">
        <ele>786.09</ele>
      </trkpt>
      <trkpt lat="46.427839" lon="12.93426">
        <ele>786.67</ele>
      </trkpt>
      <trkpt lat="46.427892" lon="12.934318">
        <ele>787.59</ele>
      </trkpt>
      <trkpt lat="46.428026" lon="12.934558">
        <ele>790.2</ele>
      </trkpt>
      <trkpt lat="46.428136" lon="12.934779">
        <ele>792.6</ele>
      </trkpt>
      <trkpt lat="46.428191" lon="12.934908">
        <ele>792.98</ele>
      </trkpt>
      <trkpt lat="46.428288" lon="12.935189">
        <ele>795.55</ele>
      </trkpt>
      <trkpt lat="46.428379" lon="12.935551">
        <ele>797.08</ele>
      </trkpt>
      <trkpt lat="46.428436" lon="12.935885">
        <ele>800.76</ele>
      </trkpt>
      <trkpt lat="46.428453" lon="12.936079">
        <ele>802.28</ele>
      </trkpt>
      <trkpt lat="46.428447" lon="12.936267">
        <ele>802.9</ele>
      </trkpt>
      <trkpt lat="46.428395" lon="12.936622">
        <ele>805.45</ele>
      </trkpt>
      <trkpt lat="46.428383" lon="12.936819">
        <ele>806.39</ele>
      </trkpt>
      <trkpt lat="46.428394" lon="12.93692">
        <ele>807.16</ele>
      </trkpt>
      <trkpt lat="46.428436" lon="12.937091">
        <ele>809.7</ele>
      </trkpt>
      <trkpt lat="46.428489" lon="12.937224">
        <ele>811.54</ele>
      </trkpt>
      <trkpt lat="46.428531" lon="12.937361">
        <ele>812.92</ele>
      </trkpt>
      <trkpt lat="46.428548" lon="12.937443">
        <ele>813.4</ele>
      </trkpt>
      <trkpt lat="46.428625" lon="12.938124">
        <ele>817.83</ele>
      </trkpt>
      <trkpt lat="46.428646" lon="12.938215">
        <ele>818.36</ele>
      </trkpt>
      <trkpt lat="46.428794" lon="12.93868">
        <ele>822.55</ele>
      </trkpt>
      <trkpt lat="46.4289" lon="12.939003">
        <ele>825.38</ele>
      </trkpt>
      <trkpt lat="46.429353" lon="12.940096">
        <ele>832.45</ele>
      </trkpt>
      <trkpt lat="46.429381" lon="12.940137">
        <ele>832.92</ele>
      </trkpt>
      <trkpt lat="46.429454" lon="12.940197">
        <ele>834.46</ele>
      </trkpt>
      <trkpt lat="46.429685" lon="12.940323">
        <ele>835.82</ele>
      </trkpt>
      <trkpt lat="46.429866" lon="12.940359">
        <ele>836.76</ele>
      </trkpt>
      <trkpt lat="46.430106" lon="12.940358">
        <ele>839.1</ele>
      </trkpt>
      <trkpt lat="46.430522" lon="12.940376">
        <ele>841.15</ele>
      </trkpt>
      <trkpt lat="46.430613" lon="12.94037">
        <ele>841.23</ele>
      </trkpt>
      <trkpt lat="46.431002" lon="12.940271">
        <ele>843.98</ele>
      </trkpt>
      <trkpt lat="46.431091" lon="12.940279">
        <ele>845.16</ele>
      </trkpt>
      <trkpt lat="46.43112" lon="12.940306">
        <ele>845.13</ele>
      </trkpt>
      <trkpt lat="46.431158" lon="12.940391">
        <ele>844.89</ele>
      </trkpt>
      <trkpt lat="46.431166" lon="12.940485">
        <ele>844.65</ele>
      </trkpt>
      <trkpt lat="46.431161" lon="12.940535">
        <ele>844.52</ele>
      </trkpt>
      <trkpt lat="46.431141" lon="12.94061">
        <ele>844.91</ele>
      </trkpt>
      <trkpt lat="46.431109" lon="12.940662">
        <ele>845.25</ele>
      </trkpt>
      <trkpt lat="46.430924" lon="12.94083">
        <ele>847.68</ele>
      </trkpt>
      <trkpt lat="46.430843" lon="12.94094">
        <ele>849.43</ele>
      </trkpt>
      <trkpt lat="46.430672" lon="12.941225">
        <ele>853.72</ele>
      </trkpt>
      <trkpt lat="46.430608" lon="12.941362">
        <ele>855.31</ele>
      </trkpt>
      <trkpt lat="46.430539" lon="12.941574">
        <ele>857.12</ele>
      </trkpt>
      <trkpt lat="46.430484" lon="12.94178">
        <ele>858.96</ele>
      </trkpt>
      <trkpt lat="46.43043" lon="12.941887">
        <ele>859.76</ele>
      </trkpt>
      <trkpt lat="46.430311" lon="12.942027">
        <ele>861.73</ele>
      </trkpt>
      <trkpt lat="46.430098" lon="12.942188">
        <ele>863.62</ele>
      </trkpt>
      <trkpt lat="46.42997" lon="12.94227">
        <ele>865.33</ele>
      </trkpt>
      <trkpt lat="46.429936" lon="12.942278">
        <ele>865.76</ele>
      </trkpt>
      <trkpt lat="46.429829" lon="12.942267">
        <ele>866.48</ele>
      </trkpt>
      <trkpt lat="46.429596" lon="12.942191">
        <ele>867.11</ele>
      </trkpt>
      <trkpt lat="46.429042" lon="12.942121">
        <ele>871.14</ele>
      </trkpt>
      <trkpt lat="46.428968" lon="12.942125">
        <ele>871.18</ele>
      </trkpt>
      <trkpt lat="46.428816" lon="12.94219">
        <ele>871.39</ele>
      </trkpt>
      <trkpt lat="46.428523" lon="12.942314">
        <ele>871.79</ele>
      </trkpt>
      <trkpt lat="46.428446" lon="12.942318">
        <ele>871.95</ele>
      </trkpt>
      <trkpt lat="46.42836" lon="12.942308">
        <ele>872.3</ele>
      </trkpt>
      <trkpt lat="46.428217" lon="12.942226">
        <ele>871.35</ele>
      </trkpt>
      <trkpt lat="46.428124" lon="12.942196">
        <ele>871.01</ele>
      </trkpt>
      <trkpt lat="46.428054" lon="12.942192">
        <ele>870.96</ele>
      </trkpt>
      <trkpt lat="46.427728" lon="12.942242">
        <ele>872.99</ele>
      </trkpt>
      <trkpt lat="46.427592" lon="12.942247">
        <ele>874.2</ele>
      </trkpt>
      <trkpt lat="46.427535" lon="12.942234">
        <ele>874.44</ele>
      </trkpt>
      <trkpt lat="46.427309" lon="12.942146">
        <ele>873.62</ele>
      </trkpt>
      <trkpt lat="46.427184" lon="12.942129">
        <ele>874.19</ele>
      </trkpt>
      <trkpt lat="46.427098" lon="12.942143">
        <ele>873.63</ele>
      </trkpt>
      <trkpt lat="46.426854" lon="12.942309">
        <ele>873.37</ele>
      </trkpt>
      <trkpt lat="46.426777" lon="12.942387">
        <ele>872.68</ele>
      </trkpt>
      <trkpt lat="46.426665" lon="12.942552">
        <ele>871.75</ele>
      </trkpt>
      <trkpt lat="46.426601" lon="12.942731">
        <ele>871.71</ele>
      </trkpt>
      <trkpt lat="46.426536" lon="12.943015">
        <ele>871.26</ele>
      </trkpt>
      <trkpt lat="46.426495" lon="12.943301">
        <ele>871.3</ele>
      </trkpt>
      <trkpt lat="46.426505" lon="12.943606">
        <ele>871.7</ele>
      </trkpt>
      <trkpt lat="46.426547" lon="12.943952">
        <ele>871.48</ele>
      </trkpt>
      <trkpt lat="46.426703" lon="12.944345">
        <ele>871.82</ele>
      </trkpt>
      <trkpt lat="46.426833" lon="12.94452">
        <ele>872.97</ele>
      </trkpt>
      <trkpt lat="46.42739" lon="12.944941">
        <ele>875.1</ele>
      </trkpt>
      <trkpt lat="46.427764" lon="12.945357">
        <ele>875.1</ele>
      </trkpt>
      <trkpt lat="46.42793" lon="12.945575">
        <ele>876.37</ele>
      </trkpt>
      <trkpt lat="46.427268" lon="12.945944">
        <ele>880.16</ele>
      </trkpt>
      <trkpt lat="46.427008" lon="12.946088">
        <ele>881.65</ele>
      </trkpt>
      <trkpt lat="46.426606" lon="12.946559">
        <ele>884.87</ele>
      </trkpt>
      <trkpt lat="46.426167" lon="12.946888">
        <ele>891.39</ele>
      </trkpt>
      <trkpt lat="46.425944" lon="12.947302">
        <ele>895.69</ele>
      </trkpt>
      <trkpt lat="46.425829" lon="12.947393">
        <ele>897.31</ele>
      </trkpt>
      <trkpt lat="46.425727" lon="12.94739">
        <ele>898.65</ele>
      </trkpt>
      <trkpt lat="46.425691" lon="12.947221">
        <ele>899.38</ele>
      </trkpt>
      <trkpt lat="46.425674" lon="12.947146">
        <ele>899.7</ele>
      </trkpt>
      <trkpt lat="46.425687" lon="12.946895">
        <ele>900.78</ele>
      </trkpt>
      <trkpt lat="46.425673" lon="12.946727">
        <ele>901.44</ele>
      </trkpt>
      <trkpt lat="46.425561" lon="12.946768">
        <ele>902.7</ele>
      </trkpt>
      <trkpt lat="46.425355" lon="12.947055">
        <ele>904.81</ele>
      </trkpt>
      <trkpt lat="46.425106" lon="12.947209">
        <ele>908.77</ele>
      </trkpt>
      <trkpt lat="46.424829" lon="12.947781">
        <ele>912</ele>
      </trkpt>
      <trkpt lat="46.424586" lon="12.947956">
        <ele>913</ele>
      </trkpt>
      <trkpt lat="46.424356" lon="12.94807">
        <ele>913</ele>
      </trkpt>
      <trkpt lat="46.424259" lon="12.948108">
        <ele>912.29</ele>
      </trkpt>
      <trkpt lat="46.424195" lon="12.948151">
        <ele>911.51</ele>
      </trkpt>
      <trkpt lat="46.424116" lon="12.948259">
        <ele>910.17</ele>
      </trkpt>
      <trkpt lat="46.423876" lon="12.948202">
        <ele>908.61</ele>
      </trkpt>
      <trkpt lat="46.423664" lon="12.948184">
        <ele>907.28</ele>
      </trkpt>
      <trkpt lat="46.423428" lon="12.948265">
        <ele>905.13</ele>
      </trkpt>
      <trkpt lat="46.42332" lon="12.948332">
        <ele>903.29</ele>
      </trkpt>
      <trkpt lat="46.423118" lon="12.948529">
        <ele>897.66</ele>
      </trkpt>
      <trkpt lat="46.423077" lon="12.948565">
        <ele>897.03</ele>
      </trkpt>
      <trkpt lat="46.423016" lon="12.948671">
        <ele>897</ele>
      </trkpt>
      <trkpt lat="46.422918" lon="12.948873">
        <ele>897.59</ele>
      </trkpt>
      <trkpt lat="46.422798" lon="12.949183">
        <ele>897.62</ele>
      </trkpt>
      <trkpt lat="46.422737" lon="12.949277">
        <ele>898.15</ele>
      </trkpt>
      <trkpt lat="46.422672" lon="12.949358">
        <ele>897.3</ele>
      </trkpt>
      <trkpt lat="46.422603" lon="12.949426">
        <ele>896.75</ele>
      </trkpt>
      <trkpt lat="46.422528" lon="12.94948">
        <ele>895.94</ele>
      </trkpt>
      <trkpt lat="46.422371" lon="12.949567">
        <ele>895.08</ele>
      </trkpt>
      <trkpt lat="46.422321" lon="12.949644">
        <ele>895.62</ele>
      </trkpt>
      <trkpt lat="46.422147" lon="12.949612">
        <ele>895.94</ele>
      </trkpt>
      <trkpt lat="46.422041" lon="12.949608">
        <ele>896.36</ele>
      </trkpt>
      <trkpt lat="46.421962" lon="12.949567">
        <ele>896.36</ele>
      </trkpt>
      <trkpt lat="46.421874" lon="12.94956">
        <ele>896.32</ele>
      </trkpt>
      <trkpt lat="46.42179" lon="12.949594">
        <ele>897.05</ele>
      </trkpt>
      <trkpt lat="46.421707" lon="12.949608">
        <ele>897.69</ele>
      </trkpt>
      <trkpt lat="46.421561" lon="12.949673">
        <ele>898.01</ele>
      </trkpt>
      <trkpt lat="46.421396" lon="12.94976">
        <ele>899.95</ele>
      </trkpt>
      <trkpt lat="46.421162" lon="12.949882">
        <ele>902.69</ele>
      </trkpt>
      <trkpt lat="46.420939" lon="12.950051">
        <ele>905.64</ele>
      </trkpt>
      <trkpt lat="46.420865" lon="12.950098">
        <ele>907.11</ele>
      </trkpt>
      <trkpt lat="46.420786" lon="12.950095">
        <ele>908.43</ele>
      </trkpt>
      <trkpt lat="46.420702" lon="12.950131">
        <ele>909.8</ele>
      </trkpt>
      <trkpt lat="46.420619" lon="12.950111">
        <ele>910.67</ele>
      </trkpt>
      <trkpt lat="46.420834" lon="12.950445">
        <ele>920.65</ele>
      </trkpt>
      <trkpt lat="46.420882" lon="12.950493">
        <ele>922.18</ele>
      </trkpt>
      <trkpt lat="46.420926" lon="12.950537">
        <ele>923.59</ele>
      </trkpt>
      <trkpt lat="46.421037" lon="12.950563">
        <ele>923.09</ele>
      </trkpt>
      <trkpt lat="46.421174" lon="12.950682">
        <ele>927.75</ele>
      </trkpt>
      <trkpt lat="46.421344" lon="12.950746">
        <ele>927.99</ele>
      </trkpt>
      <trkpt lat="46.421496" lon="12.950681">
        <ele>923.53</ele>
      </trkpt>
      <trkpt lat="46.42164" lon="12.950746">
        <ele>921.14</ele>
      </trkpt>
      <trkpt lat="46.421821" lon="12.950971">
        <ele>915.25</ele>
      </trkpt>
      <trkpt lat="46.421988" lon="12.951148">
        <ele>915.93</ele>
      </trkpt>
      <trkpt lat="46.422162" lon="12.951218">
        <ele>914.62</ele>
      </trkpt>
      <trkpt lat="46.422317" lon="12.951218">
        <ele>912</ele>
      </trkpt>
      <trkpt lat="46.422568" lon="12.951341">
        <ele>911.66</ele>
      </trkpt>
      <trkpt lat="46.422746" lon="12.951481">
        <ele>914.86</ele>
      </trkpt>
      <trkpt lat="46.423005" lon="12.951567">
        <ele>915.2</ele>
      </trkpt>
      <trkpt lat="46.423352" lon="12.951669">
        <ele>920.83</ele>
      </trkpt>
      <trkpt lat="46.423674" lon="12.951658">
        <ele>920.99</ele>
      </trkpt>
      <trkpt lat="46.42421" lon="12.951584">
        <ele>920.71</ele>
      </trkpt>
      <trkpt lat="46.424462" lon="12.951561">
        <ele>922.91</ele>
      </trkpt>
      <trkpt lat="46.424584" lon="12.951502">
        <ele>923.25</ele>
      </trkpt>
      <trkpt lat="46.424521" lon="12.951325">
        <ele>921.5</ele>
      </trkpt>
      <trkpt lat="46.424425" lon="12.951046">
        <ele>921.66</ele>
      </trkpt>
      <trkpt lat="46.424351" lon="12.950856">
        <ele>920.48</ele>
      </trkpt>
      <trkpt lat="46.42435" lon="12.950854">
        <ele>920.47</ele>
      </trkpt>
      <trkpt lat="46.424277" lon="12.950665">
        <ele>919.3</ele>
      </trkpt>
      <trkpt lat="46.424199" lon="12.950177">
        <ele>918.58</ele>
      </trkpt>
      <trkpt lat="46.42419" lon="12.949873">
        <ele>917.6646825609059</ele>
      </trkpt>
      <trkpt lat="46.42450455469302" lon="12.950339153969827">
        <ele>923.7011153019866</ele>
      </trkpt>
      <trkpt lat="46.42471288134871" lon="12.950647883420459">
        <ele>925.4655453727167</ele>
      </trkpt>
      <trkpt lat="46.42511944908279" lon="12.95092655158238">
        <ele>927.8411274862011</ele>
      </trkpt>
      <trkpt lat="46.42552601681688" lon="12.9512052197443">
        <ele>931.1528663987896</ele>
      </trkpt>
      <trkpt lat="46.42593033079103" lon="12.951482343142374">
        <ele>934.1700498182024</ele>
      </trkpt>
      <trkpt lat="46.4263772407319" lon="12.951554383617768">
        <ele>937.782924917434</ele>
      </trkpt>
      <trkpt lat="46.426466152221906" lon="12.951568715870025">
        <ele>938.2947341059188</ele>
      </trkpt>
      <trkpt lat="46.42685245597842" lon="12.951902599219036">
        <ele>941.3235938768343</ele>
      </trkpt>
      <trkpt lat="46.427238759734934" lon="12.952236482568047">
        <ele>943.6172356223889</ele>
      </trkpt>
      <trkpt lat="46.4275854066633" lon="12.952536090416572">
        <ele>944.4411518503427</ele>
      </trkpt>
      <trkpt lat="46.42803243613712" lon="12.952606554982268">
        <ele>944.3217953993142</ele>
      </trkpt>
      <trkpt lat="46.42840341423184" lon="12.952665031686507">
        <ele>945.3684830394068</ele>
      </trkpt>
      <trkpt lat="46.42877251948008" lon="12.952475011685891">
        <ele>943.9518555748313</ele>
      </trkpt>
      <trkpt lat="46.429217515668114" lon="12.952568731113379">
        <ele>943.1030573809574</ele>
      </trkpt>
      <trkpt lat="46.42951072247757" lon="12.952630482595879">
        <ele>944.9998271331606</ele>
      </trkpt>
      <trkpt lat="46.42995913574842" lon="12.952581931135958">
        <ele>944.6486589360152</ele>
      </trkpt>
      <trkpt lat="46.43030844673538" lon="12.9525441098682">
        <ele>942.7893153684832</ele>
      </trkpt>
      <trkpt lat="46.43075593730694" lon="12.952608121479539">
        <ele>942.0004503601269</ele>
      </trkpt>
      <trkpt lat="46.43115378358061" lon="12.952665031686507">
        <ele>939.4426577335148</ele>
      </trkpt>
      <trkpt lat="46.431573471935586" lon="12.952899235836062">
        <ele>935.0904526450322</ele>
      </trkpt>
      <trkpt lat="46.431772895205285" lon="12.953010522596173">
        <ele>933.6474006137569</ele>
      </trkpt>
      <trkpt lat="46.431785" lon="12.953004">
        <ele>931.41</ele>
      </trkpt>
      <trkpt lat="46.431692" lon="12.952648">
        <ele>926.12</ele>
      </trkpt>
      <trkpt lat="46.431602" lon="12.952409">
        <ele>925.1</ele>
      </trkpt>
      <trkpt lat="46.431491" lon="12.952146">
        <ele>924.31</ele>
      </trkpt>
      <trkpt lat="46.43136" lon="12.95191">
        <ele>923.76</ele>
      </trkpt>
      <trkpt lat="46.431293" lon="12.95177">
        <ele>922.78</ele>
      </trkpt>
      <trkpt lat="46.431211" lon="12.951665">
        <ele>921.77</ele>
      </trkpt>
      <trkpt lat="46.430905" lon="12.951408">
        <ele>919.15</ele>
      </trkpt>
      <trkpt lat="46.430795" lon="12.951305">
        <ele>918.27</ele>
      </trkpt>
      <trkpt lat="46.430587" lon="12.951117">
        <ele>916.16</ele>
      </trkpt>
      <trkpt lat="46.430552" lon="12.951112">
        <ele>915.93</ele>
      </trkpt>
      <trkpt lat="46.430522" lon="12.951125">
        <ele>915.91</ele>
      </trkpt>
      <trkpt lat="46.430463" lon="12.951179">
        <ele>916.46</ele>
      </trkpt>
      <trkpt lat="46.430432" lon="12.951189">
        <ele>916.59</ele>
      </trkpt>
      <trkpt lat="46.430386" lon="12.951205">
        <ele>916.78</ele>
      </trkpt>
      <trkpt lat="46.430307" lon="12.951209">
        <ele>917.5</ele>
      </trkpt>
      <trkpt lat="46.430243" lon="12.951178">
        <ele>917.74</ele>
      </trkpt>
      <trkpt lat="46.430117" lon="12.951022">
        <ele>917.98</ele>
      </trkpt>
      <trkpt lat="46.430089" lon="12.950955">
        <ele>917.69</ele>
      </trkpt>
      <trkpt lat="46.43007" lon="12.950883">
        <ele>917.39</ele>
      </trkpt>
      <trkpt lat="46.430066" lon="12.950755">
        <ele>915.98</ele>
      </trkpt>
      <trkpt lat="46.429992" lon="12.950578">
        <ele>915.17</ele>
      </trkpt>
      <trkpt lat="46.429969" lon="12.950484">
        <ele>914.47</ele>
      </trkpt>
      <trkpt lat="46.429968" lon="12.950409">
        <ele>913.61</ele>
      </trkpt>
      <trkpt lat="46.43" lon="12.95027">
        <ele>911.46</ele>
      </trkpt>
      <trkpt lat="46.430003" lon="12.9502">
        <ele>910.58</ele>
      </trkpt>
      <trkpt lat="46.429999" lon="12.950112">
        <ele>909.63</ele>
      </trkpt>
      <trkpt lat="46.429965" lon="12.949951">
        <ele>908.34</ele>
      </trkpt>
      <trkpt lat="46.429736" lon="12.949216">
        <ele>900.61</ele>
      </trkpt>
      <trkpt lat="46.429643" lon="12.949012">
        <ele>898.59</ele>
      </trkpt>
      <trkpt lat="46.429499" lon="12.948668">
        <ele>897.64</ele>
      </trkpt>
      <trkpt lat="46.429397" lon="12.9483">
        <ele>895.36</ele>
      </trkpt>
      <trkpt lat="46.429355" lon="12.948044">
        <ele>894.22</ele>
      </trkpt>
      <trkpt lat="46.429328" lon="12.947807">
        <ele>893.07</ele>
      </trkpt>
      <trkpt lat="46.42933" lon="12.947736">
        <ele>892.91</ele>
      </trkpt>
      <trkpt lat="46.429348" lon="12.94766">
        <ele>892.62</ele>
      </trkpt>
      <trkpt lat="46.429373" lon="12.947602">
        <ele>892.1</ele>
      </trkpt>
      <trkpt lat="46.429589" lon="12.947217">
        <ele>886.68</ele>
      </trkpt>
      <trkpt lat="46.429627" lon="12.947149">
        <ele>885.72</ele>
      </trkpt>
      <trkpt lat="46.42959" lon="12.947054">
        <ele>885.55</ele>
      </trkpt>
      <trkpt lat="46.429742" lon="12.946973">
        <ele>885</ele>
      </trkpt>
      <trkpt lat="46.429884" lon="12.946922">
        <ele>885</ele>
      </trkpt>
      <trkpt lat="46.429964" lon="12.946917">
        <ele>885</ele>
      </trkpt>
      <trkpt lat="46.430128" lon="12.946928">
        <ele>885.01</ele>
      </trkpt>
      <trkpt lat="46.430344" lon="12.946956">
        <ele>885.8</ele>
      </trkpt>
      <trkpt lat="46.430475" lon="12.946939">
        <ele>886.75</ele>
      </trkpt>
      <trkpt lat="46.430563" lon="12.946895">
        <ele>886.9</ele>
      </trkpt>
      <trkpt lat="46.430644" lon="12.946827">
        <ele>887.15</ele>
      </trkpt>
      <trkpt lat="46.430776" lon="12.94668">
        <ele>888.27</ele>
      </trkpt>
      <trkpt lat="46.430813" lon="12.946628">
        <ele>888.57</ele>
      </trkpt>
      <trkpt lat="46.430832" lon="12.94658">
        <ele>888.74</ele>
      </trkpt>
      <trkpt lat="46.43084" lon="12.946527">
        <ele>888.81</ele>
      </trkpt>
      <trkpt lat="46.430838" lon="12.946409">
        <ele>888.79</ele>
      </trkpt>
      <trkpt lat="46.430764" lon="12.946082">
        <ele>890.21</ele>
      </trkpt>
      <trkpt lat="46.43074" lon="12.945944">
        <ele>890.65</ele>
      </trkpt>
      <trkpt lat="46.430737" lon="12.945871">
        <ele>891.01</ele>
      </trkpt>
      <trkpt lat="46.430744" lon="12.94577">
        <ele>891.7</ele>
      </trkpt>
      <trkpt lat="46.430762" lon="12.945702">
        <ele>892.42</ele>
      </trkpt>
      <trkpt lat="46.430791" lon="12.945631">
        <ele>892.97</ele>
      </trkpt>
      <trkpt lat="46.430839" lon="12.945558">
        <ele>893.63</ele>
      </trkpt>
      <trkpt lat="46.430921" lon="12.945484">
        <ele>894.59</ele>
      </trkpt>
      <trkpt lat="46.431525" lon="12.945141">
        <ele>898.58</ele>
      </trkpt>
      <trkpt lat="46.431668" lon="12.945027">
        <ele>899</ele>
      </trkpt>
      <trkpt lat="46.431689" lon="12.944847">
        <ele>899.09</ele>
      </trkpt>
      <trkpt lat="46.431727" lon="12.944743">
        <ele>899.49</ele>
      </trkpt>
      <trkpt lat="46.432044" lon="12.944058">
        <ele>900</ele>
      </trkpt>
      <trkpt lat="46.432184" lon="12.943796">
        <ele>899</ele>
      </trkpt>
      <trkpt lat="46.432642" lon="12.943187">
        <ele>896</ele>
      </trkpt>
      <trkpt lat="46.432682" lon="12.943068">
        <ele>895.73</ele>
      </trkpt>
      <trkpt lat="46.432694" lon="12.943031">
        <ele>895.65</ele>
      </trkpt>
      <trkpt lat="46.432706" lon="12.942899">
        <ele>895.32</ele>
      </trkpt>
      <trkpt lat="46.432762" lon="12.94283">
        <ele>895.2</ele>
      </trkpt>
      <trkpt lat="46.432868" lon="12.942725">
        <ele>895.49</ele>
      </trkpt>
      <trkpt lat="46.43302" lon="12.94251">
        <ele>895.65</ele>
      </trkpt>
      <trkpt lat="46.433114" lon="12.942435">
        <ele>896.87</ele>
      </trkpt>
      <trkpt lat="46.433198" lon="12.942402">
        <ele>898.01</ele>
      </trkpt>
      <trkpt lat="46.433304" lon="12.94236">
        <ele>899.46</ele>
      </trkpt>
      <trkpt lat="46.43298" lon="12.942068">
        <ele>892.72</ele>
      </trkpt>
      <trkpt lat="46.432544" lon="12.941834">
        <ele>890.52</ele>
      </trkpt>
      <trkpt lat="46.432236" lon="12.94167">
        <ele>886.96</ele>
      </trkpt>
      <trkpt lat="46.43202" lon="12.941629">
        <ele>884.97</ele>
      </trkpt>
      <trkpt lat="46.431803" lon="12.941588">
        <ele>880.74</ele>
      </trkpt>
      <trkpt lat="46.431457" lon="12.941507">
        <ele>872.99</ele>
      </trkpt>
      <trkpt lat="46.431366" lon="12.941438">
        <ele>869.11</ele>
      </trkpt>
      <trkpt lat="46.431419" lon="12.941123">
        <ele>858.18</ele>
      </trkpt>
      <trkpt lat="46.43137" lon="12.94093">
        <ele>850.92</ele>
      </trkpt>
      <trkpt lat="46.431197" lon="12.940891">
        <ele>849.66</ele>
      </trkpt>
      <trkpt lat="46.430924" lon="12.94083">
        <ele>847.68</ele>
      </trkpt>
      <trkpt lat="46.430754" lon="12.940815">
        <ele>846.94</ele>
      </trkpt>
      <trkpt lat="46.430629" lon="12.940817">
        <ele>845.97</ele>
      </trkpt>
      <trkpt lat="46.430433" lon="12.940737">
        <ele>842</ele>
      </trkpt>
      <trkpt lat="46.430381" lon="12.940683">
        <ele>840.34</ele>
      </trkpt>
      <trkpt lat="46.430306" lon="12.940628">
        <ele>839.07</ele>
      </trkpt>
      <trkpt lat="46.430197" lon="12.940519">
        <ele>838.34</ele>
      </trkpt>
      <trkpt lat="46.430106" lon="12.940358">
        <ele>839.1</ele>
      </trkpt>
      <trkpt lat="46.429866" lon="12.940359">
        <ele>836.76</ele>
      </trkpt>
      <trkpt lat="46.429685" lon="12.940323">
        <ele>835.82</ele>
      </trkpt>
      <trkpt lat="46.429454" lon="12.940197">
        <ele>834.46</ele>
      </trkpt>
      <trkpt lat="46.429381" lon="12.940137">
        <ele>832.92</ele>
      </trkpt>
      <trkpt lat="46.429353" lon="12.940096">
        <ele>832.45</ele>
      </trkpt>
      <trkpt lat="46.4289" lon="12.939003">
        <ele>825.38</ele>
      </trkpt>
      <trkpt lat="46.428827" lon="12.938786">
        <ele>823.5</ele>
      </trkpt>
      <trkpt lat="46.428646" lon="12.938215">
        <ele>818.36</ele>
      </trkpt>
      <trkpt lat="46.428625" lon="12.938124">
        <ele>817.83</ele>
      </trkpt>
      <trkpt lat="46.428575" lon="12.937701">
        <ele>814.62</ele>
      </trkpt>
      <trkpt lat="46.428537" lon="12.937721">
        <ele>814.67</ele>
      </trkpt>
      <trkpt lat="46.428439" lon="12.937732">
        <ele>814.1</ele>
      </trkpt>
      <trkpt lat="46.428223" lon="12.937676">
        <ele>810.95</ele>
      </trkpt>
      <trkpt lat="46.428147" lon="12.937665">
        <ele>810.25</ele>
      </trkpt>
      <trkpt lat="46.428062" lon="12.937668">
        <ele>809.55</ele>
      </trkpt>
      <trkpt lat="46.428003" lon="12.937689">
        <ele>809.09</ele>
      </trkpt>
      <trkpt lat="46.42794" lon="12.937648">
        <ele>807.78</ele>
      </trkpt>
      <trkpt lat="46.427884" lon="12.937593">
        <ele>806.47</ele>
      </trkpt>
      <trkpt lat="46.427776" lon="12.93742">
        <ele>803.65</ele>
      </trkpt>
      <trkpt lat="46.427735" lon="12.937299">
        <ele>802.25</ele>
      </trkpt>
      <trkpt lat="46.427687" lon="12.937134">
        <ele>800.48</ele>
      </trkpt>
      <trkpt lat="46.427574" lon="12.936804">
        <ele>794.07</ele>
      </trkpt>
      <trkpt lat="46.427461" lon="12.936609">
        <ele>788.94</ele>
      </trkpt>
      <trkpt lat="46.427362" lon="12.936484">
        <ele>784.65</ele>
      </trkpt>
      <trkpt lat="46.427238" lon="12.936355">
        <ele>781.5</ele>
      </trkpt>
      <trkpt lat="46.427099" lon="12.936256">
        <ele>779.18</ele>
      </trkpt>
      <trkpt lat="46.426826" lon="12.936085">
        <ele>774.84</ele>
      </trkpt>
      <trkpt lat="46.426616" lon="12.935983">
        <ele>770.73</ele>
      </trkpt>
      <trkpt lat="46.426456" lon="12.935935">
        <ele>767.75</ele>
      </trkpt>
      <trkpt lat="46.426396" lon="12.93585">
        <ele>765.45</ele>
      </trkpt>
      <trkpt lat="46.426418" lon="12.935787">
        <ele>764.71</ele>
      </trkpt>
      <trkpt lat="46.426288" lon="12.9357">
        <ele>761.45</ele>
      </trkpt>
      <trkpt lat="46.42561" lon="12.935981">
        <ele>752.12</ele>
      </trkpt>
      <trkpt lat="46.425397" lon="12.936205">
        <ele>746.3</ele>
      </trkpt>
      <trkpt lat="46.425298" lon="12.936195">
        <ele>743.49</ele>
      </trkpt>
      <trkpt lat="46.425206" lon="12.936186">
        <ele>740.89</ele>
      </trkpt>
      <trkpt lat="46.425125" lon="12.936256">
        <ele>739.19</ele>
      </trkpt>
      <trkpt lat="46.425043" lon="12.936405">
        <ele>736.98</ele>
      </trkpt>
      <trkpt lat="46.424981" lon="12.936591">
        <ele>737.59</ele>
      </trkpt>
      <trkpt lat="46.424798" lon="12.936724">
        <ele>737.9</ele>
      </trkpt>
      <trkpt lat="46.42464" lon="12.936781">
        <ele>737.57</ele>
      </trkpt>
      <trkpt lat="46.42422" lon="12.937108">
        <ele>740.73</ele>
      </trkpt>
      <trkpt lat="46.423811" lon="12.936993">
        <ele>736.77</ele>
      </trkpt>
      <trkpt lat="46.423639" lon="12.93685">
        <ele>733.91</ele>
      </trkpt>
      <trkpt lat="46.423394" lon="12.93677">
        <ele>730.91</ele>
      </trkpt>
      <trkpt lat="46.423073" lon="12.936599">
        <ele>725.57</ele>
      </trkpt>
      <trkpt lat="46.422844" lon="12.936692">
        <ele>727.33</ele>
      </trkpt>
      <trkpt lat="46.422684" lon="12.936603">
        <ele>725.97</ele>
      </trkpt>
      <trkpt lat="46.422302" lon="12.936027">
        <ele>720.41</ele>
      </trkpt>
      <trkpt lat="46.422081" lon="12.935927">
        <ele>720.22</ele>
      </trkpt>
      <trkpt lat="46.422005" lon="12.935908">
        <ele>719.69</ele>
      </trkpt>
      <trkpt lat="46.421786" lon="12.935854">
        <ele>718.17</ele>
      </trkpt>
      <trkpt lat="46.421832" lon="12.935794">
        <ele>717.07</ele>
      </trkpt>
      <trkpt lat="46.421857" lon="12.935715">
        <ele>716.01</ele>
      </trkpt>
      <trkpt lat="46.421851" lon="12.935586">
        <ele>715.97</ele>
      </trkpt>
      <trkpt lat="46.421797" lon="12.935318">
        <ele>717.04</ele>
      </trkpt>
      <trkpt lat="46.421766" lon="12.935267">
        <ele>717.1</ele>
      </trkpt>
      <trkpt lat="46.42171" lon="12.935205">
        <ele>716.54</ele>
      </trkpt>
      <trkpt lat="46.421694" lon="12.935162">
        <ele>716.37</ele>
      </trkpt>
      <trkpt lat="46.421694" lon="12.935084">
        <ele>716.82</ele>
      </trkpt>
      <trkpt lat="46.421709" lon="12.935004">
        <ele>717.66</ele>
      </trkpt>
      <trkpt lat="46.421784" lon="12.934795">
        <ele>719.84</ele>
      </trkpt>
      <trkpt lat="46.421808" lon="12.934706">
        <ele>720.25</ele>
      </trkpt>
      <trkpt lat="46.42188" lon="12.934348">
        <ele>721.43</ele>
      </trkpt>
      <trkpt lat="46.42187" lon="12.934353">
        <ele>721.34</ele>
      </trkpt>
      <trkpt lat="46.42188" lon="12.934348">
        <ele>721.43</ele>
      </trkpt>
      <trkpt lat="46.421988" lon="12.933912">
        <ele>722.14</ele>
      </trkpt>
      <trkpt lat="46.422117" lon="12.933537">
        <ele>722.04</ele>
      </trkpt>
      <trkpt lat="46.422343" lon="12.932845">
        <ele>719.4</ele>
      </trkpt>
      <trkpt lat="46.422478" lon="12.932581">
        <ele>719.27</ele>
      </trkpt>
      <trkpt lat="46.422531" lon="12.932448">
        <ele>719.59</ele>
      </trkpt>
      <trkpt lat="46.422657" lon="12.931869">
        <ele>719.1</ele>
      </trkpt>
    </trkseg>
  </trk>
</gpx>
