<?xml version="1.0" encoding="UTF-8"?>
<gpx creator="https://gpx.studio" version="1.1" schemaLocation="http://www.topografix.com/GPX/1/1 http://www.topografix.com/GPX/1/1/gpx.xsd http://www.garmin.com/xmlschemas/GpxExtensions/v3 http://www.garmin.com/xmlschemas/GpxExtensionsv3.xsd http://www.garmin.com/xmlschemas/TrackPointExtension/v1 http://www.garmin.com/xmlschemas/TrackPointExtensionv1.xsd http://www.garmin.com/xmlschemas/PowerExtension/v1 http://www.garmin.com/xmlschemas/PowerExtensionv1.xsd http://www.topografix.com/GPX/gpx_style/0/2 http://www.topografix.com/GPX/gpx_style/0/2/gpx_style.xsd" xmlns="http://www.topografix.com/GPX/1/1" xmlns:xsi="http://www.w3.org/2001/XMLSchema-instance" xsi:schemaLocation="http://www.topografix.com/GPX/1/1 http://www.topografix.com/GPX/1/1/gpx.xsd http://www.garmin.com/xmlschemas/GpxExtensions/v3 http://www.garmin.com/xmlschemas/GpxExtensionsv3.xsd http://www.garmin.com/xmlschemas/TrackPointExtension/v1 http://www.garmin.com/xmlschemas/TrackPointExtensionv1.xsd http://www.garmin.com/xmlschemas/PowerExtension/v1 http://www.garmin.com/xmlschemas/PowerExtensionv1.xsd http://www.topografix.com/GPX/gpx_style/0/2 http://www.topografix.com/GPX/gpx_style/0/2/gpx_style.xsd" xmlns:gpxtpx="http://www.garmin.com/xmlschemas/TrackPointExtension/v1" xmlns:gpxx="http://www.garmin.com/xmlschemas/GpxExtensions/v3" xmlns:gpxpx="http://www.garmin.com/xmlschemas/PowerExtension/v1" xmlns:gpx_style="http://www.topografix.com/GPX/gpx_style/0/2">
  <metadata>
    <name>LAU-II</name>
    <author>
      <name>gpx.studio</name>
      <link href="https://gpx.studio"/>
    </author>
  </metadata>
  <trk>
    <name>LAU-II</name>
    <trkseg>
      <trkpt lat="46.422707" lon="12.931639">
        <ele>719.0140221050011</ele>
        <time>2026-02-21T16:11:15.629Z</time>
      </trkpt>
      <trkpt lat="46.422531" lon="12.932448">
        <ele>718.6410436997198</ele>
        <time>2026-02-21T16:11:57.118Z</time>
      </trkpt>
      <trkpt lat="46.422478" lon="12.932581">
        <ele>718.9135296632555</ele>
        <time>2026-02-21T16:12:04.631Z</time>
      </trkpt>
      <trkpt lat="46.422343" lon="12.932845">
        <ele>719.9220077954707</ele>
        <time>2026-02-21T16:12:20.707Z</time>
      </trkpt>
      <trkpt lat="46.422117" lon="12.933537">
        <ele>722.0727833786336</ele>
        <time>2026-02-21T16:12:58.156Z</time>
      </trkpt>
      <trkpt lat="46.421988" lon="12.933912">
        <ele>723.0747008012272</ele>
        <time>2026-02-21T16:13:18.653Z</time>
      </trkpt>
      <trkpt lat="46.421874" lon="12.934378">
        <ele>722.3138396954449</ele>
        <time>2026-02-21T16:13:42.836Z</time>
      </trkpt>
      <trkpt lat="46.421808" lon="12.934706">
        <ele>720.7336826132537</ele>
        <time>2026-02-21T16:13:59.547Z</time>
      </trkpt>
      <trkpt lat="46.421784" lon="12.934795">
        <ele>720.3261114455013</ele>
        <time>2026-02-21T16:14:04.220Z</time>
      </trkpt>
      <trkpt lat="46.421709" lon="12.935004">
        <ele>719.3551969376404</ele>
        <time>2026-02-21T16:14:15.743Z</time>
      </trkpt>
      <trkpt lat="46.421694" lon="12.935084">
        <ele>719.1060002714869</ele>
        <time>2026-02-21T16:14:19.797Z</time>
      </trkpt>
      <trkpt lat="46.421694" lon="12.935162">
        <ele>718.9150909572538</ele>
        <time>2026-02-21T16:14:23.611Z</time>
      </trkpt>
      <trkpt lat="46.42171" lon="12.935205">
        <ele>718.9208051399906</ele>
        <time>2026-02-21T16:14:26.000Z</time>
      </trkpt>
      <trkpt lat="46.421766" lon="12.935267">
        <ele>719.2664100022993</ele>
        <time>2026-02-21T16:14:30.998Z</time>
      </trkpt>
      <trkpt lat="46.421797" lon="12.935318">
        <ele>719.4728180253587</ele>
        <time>2026-02-21T16:14:34.323Z</time>
      </trkpt>
      <trkpt lat="46.421851" lon="12.935586">
        <ele>720.0913968536298</ele>
        <time>2026-02-21T16:14:47.978Z</time>
      </trkpt>
      <trkpt lat="46.421857" lon="12.935715">
        <ele>720.6258781082207</ele>
        <time>2026-02-21T16:14:54.301Z</time>
      </trkpt>
      <trkpt lat="46.421832" lon="12.935794">
        <ele>720.9139163997606</ele>
        <time>2026-02-21T16:14:58.552Z</time>
      </trkpt>
      <trkpt lat="46.421786" lon="12.935854">
        <ele>720.8316580760069</ele>
        <time>2026-02-21T16:15:02.940Z</time>
      </trkpt>
      <trkpt lat="46.42168" lon="12.935959">
        <ele>720.6073061505355</ele>
        <time>2026-02-21T16:15:12.046Z</time>
      </trkpt>
      <trkpt lat="46.421637" lon="12.936078">
        <ele>721.6008189216269</ele>
        <time>2026-02-21T16:15:18.617Z</time>
      </trkpt>
      <trkpt lat="46.421644" lon="12.936251">
        <ele>724.6565726198497</ele>
        <time>2026-02-21T16:15:27.092Z</time>
      </trkpt>
      <trkpt lat="46.421709" lon="12.936385">
        <ele>727.721718713874</ele>
        <time>2026-02-21T16:15:35.105Z</time>
      </trkpt>
      <trkpt lat="46.421734" lon="12.936509">
        <ele>729.9693017659006</ele>
        <time>2026-02-21T16:15:41.423Z</time>
      </trkpt>
      <trkpt lat="46.421718" lon="12.936608">
        <ele>731.7580145910613</ele>
        <time>2026-02-21T16:15:46.396Z</time>
      </trkpt>
      <trkpt lat="46.421661" lon="12.936696">
        <ele>733.4578282998465</ele>
        <time>2026-02-21T16:15:52.301Z</time>
      </trkpt>
      <trkpt lat="46.421629" lon="12.936798">
        <ele>735.562363004919</ele>
        <time>2026-02-21T16:15:57.781Z</time>
      </trkpt>
      <trkpt lat="46.421629" lon="12.936908">
        <ele>738.1396866075795</ele>
        <time>2026-02-21T16:16:03.160Z</time>
      </trkpt>
      <trkpt lat="46.421746" lon="12.937083">
        <ele>741.4983600750129</ele>
        <time>2026-02-21T16:16:15.083Z</time>
      </trkpt>
      <trkpt lat="46.421777" lon="12.937203">
        <ele>743.4118690738225</ele>
        <time>2026-02-21T16:16:21.350Z</time>
      </trkpt>
      <trkpt lat="46.421788" lon="12.937431">
        <ele>747.531956763706</ele>
        <time>2026-02-21T16:16:32.528Z</time>
      </trkpt>
      <trkpt lat="46.421588" lon="12.937565">
        <ele>753.287173172218</ele>
        <time>2026-02-21T16:16:48.157Z</time>
      </trkpt>
      <trkpt lat="46.421555" lon="12.93754">
        <ele>753.0780984017009</ele>
        <time>2026-02-21T16:16:50.798Z</time>
      </trkpt>
      <trkpt lat="46.421148" lon="12.937228">
        <ele>753.637447947353</ele>
        <time>2026-02-21T16:17:23.457Z</time>
      </trkpt>
      <trkpt lat="46.420886" lon="12.937099">
        <ele>755.3932298396238</ele>
        <time>2026-02-21T16:17:43.086Z</time>
      </trkpt>
      <trkpt lat="46.420668" lon="12.936922">
        <ele>752.2225661487322</ele>
        <time>2026-02-21T16:18:00.810Z</time>
      </trkpt>
      <trkpt lat="46.420512" lon="12.936755">
        <ele>747.4549663669296</ele>
        <time>2026-02-21T16:18:14.565Z</time>
      </trkpt>
      <trkpt lat="46.42025" lon="12.936616">
        <ele>743.4449734092898</ele>
        <time>2026-02-21T16:18:34.357Z</time>
      </trkpt>
      <trkpt lat="46.419947" lon="12.936648">
        <ele>744.9851551423247</ele>
        <time>2026-02-21T16:18:55.911Z</time>
      </trkpt>
      <trkpt lat="46.419714" lon="12.936659">
        <ele>744.4663154476377</ele>
        <time>2026-02-21T16:19:12.450Z</time>
      </trkpt>
      <trkpt lat="46.419503" lon="12.936766">
        <ele>745.9177692353558</ele>
        <time>2026-02-21T16:19:28.308Z</time>
      </trkpt>
      <trkpt lat="46.419251" lon="12.936943">
        <ele>748.7050057447055</ele>
        <time>2026-02-21T16:19:48.172Z</time>
      </trkpt>
      <trkpt lat="46.418844" lon="12.937126">
        <ele>752.080320273581</ele>
        <time>2026-02-21T16:20:18.403Z</time>
      </trkpt>
      <trkpt lat="46.418626" lon="12.937238">
        <ele>753.2105189664145</ele>
        <time>2026-02-21T16:20:34.811Z</time>
      </trkpt>
      <trkpt lat="46.418279" lon="12.937667">
        <ele>756.8241789758208</ele>
        <time>2026-02-21T16:21:07.158Z</time>
      </trkpt>
      <trkpt lat="46.417857" lon="12.937823">
        <ele>755.2663855619901</ele>
        <time>2026-02-21T16:21:38.054Z</time>
      </trkpt>
      <trkpt lat="46.417517" lon="12.937834">
        <ele>753.49718370503</ele>
        <time>2026-02-21T16:22:02.182Z</time>
      </trkpt>
      <trkpt lat="46.417295" lon="12.937855">
        <ele>754.4673629072504</ele>
        <time>2026-02-21T16:22:17.965Z</time>
      </trkpt>
      <trkpt lat="46.417232" lon="12.937689">
        <ele>753.1268760118638</ele>
        <time>2026-02-21T16:22:27.233Z</time>
      </trkpt>
      <trkpt lat="46.416999" lon="12.937351">
        <ele>745.0023311992417</ele>
        <time>2026-02-21T16:22:50.612Z</time>
      </trkpt>
      <trkpt lat="46.416814" lon="12.937329">
        <ele>739.4103713475407</ele>
        <time>2026-02-21T16:23:03.781Z</time>
      </trkpt>
      <trkpt lat="46.416559" lon="12.937351">
        <ele>719.4035875965878</ele>
        <time>2026-02-21T16:23:21.904Z</time>
      </trkpt>
      <trkpt lat="46.416737" lon="12.937061">
        <ele>729.6285159934607</ele>
        <time>2026-02-21T16:23:40.895Z</time>
      </trkpt>
      <trkpt lat="46.416822" lon="12.93668">
        <ele>723.6053058585903</ele>
        <time>2026-02-21T16:24:00.481Z</time>
      </trkpt>
      <trkpt lat="46.416936" lon="12.936235">
        <ele>714.3932755408349</ele>
        <time>2026-02-21T16:24:23.700Z</time>
      </trkpt>
      <trkpt lat="46.417066" lon="12.936047">
        <ele>712.7148879610941</ele>
        <time>2026-02-21T16:24:36.723Z</time>
      </trkpt>
      <trkpt lat="46.417295" lon="12.935827">
        <ele>712.4435061132542</ele>
        <time>2026-02-21T16:24:56.210Z</time>
      </trkpt>
      <trkpt lat="46.417029" lon="12.935725">
        <ele>703.9321967693824</ele>
        <time>2026-02-21T16:25:15.730Z</time>
      </trkpt>
      <trkpt lat="46.41698" lon="12.935535">
        <ele>699.2274855914816</ele>
        <time>2026-02-21T16:25:25.652Z</time>
      </trkpt>
      <trkpt lat="46.416962" lon="12.935463">
        <ele>697.7789938955608</ele>
        <time>2026-02-21T16:25:29.398Z</time>
      </trkpt>
      <trkpt lat="46.41694" lon="12.935157">
        <ele>693.4818768517075</ele>
        <time>2026-02-21T16:25:44.446Z</time>
      </trkpt>
      <trkpt lat="46.417066" lon="12.934814">
        <ele>690.4721009810476</ele>
        <time>2026-02-21T16:26:03.455Z</time>
      </trkpt>
      <trkpt lat="46.417169" lon="12.934669">
        <ele>687.1481802704163</ele>
        <time>2026-02-21T16:26:13.638Z</time>
      </trkpt>
      <trkpt lat="46.41735" lon="12.934631">
        <ele>684.998406377249</ele>
        <time>2026-02-21T16:26:26.613Z</time>
      </trkpt>
      <trkpt lat="46.417487" lon="12.934578">
        <ele>682.8657129337446</ele>
        <time>2026-02-21T16:26:36.672Z</time>
      </trkpt>
      <trkpt lat="46.417406" lon="12.934433">
        <ele>678.2851004410231</ele>
        <time>2026-02-21T16:26:45.800Z</time>
      </trkpt>
      <trkpt lat="46.417221" lon="12.934223">
        <ele>672.9634734816234</ele>
        <time>2026-02-21T16:27:02.466Z</time>
      </trkpt>
      <trkpt lat="46.416962" lon="12.933875">
        <ele>666.742183062024</ele>
        <time>2026-02-21T16:27:27.513Z</time>
      </trkpt>
      <trkpt lat="46.416914" lon="12.933666">
        <ele>660.7881302689027</ele>
        <time>2026-02-21T16:27:38.287Z</time>
      </trkpt>
      <trkpt lat="46.416862" lon="12.93351">
        <ele>654.3998820257298</ele>
        <time>2026-02-21T16:27:46.762Z</time>
      </trkpt>
      <trkpt lat="46.416855" lon="12.933285">
        <ele>646.2979759361903</ele>
        <time>2026-02-21T16:27:57.778Z</time>
      </trkpt>
      <trkpt lat="46.416907" lon="12.933208">
        <ele>647.7548278797221</ele>
        <time>2026-02-21T16:28:03.050Z</time>
      </trkpt>
      <trkpt lat="46.41703" lon="12.933194">
        <ele>654.8830441836128</ele>
        <time>2026-02-21T16:28:11.803Z</time>
      </trkpt>
      <trkpt lat="46.417144" lon="12.933231">
        <ele>659.1951577412349</ele>
        <time>2026-02-21T16:28:20.091Z</time>
      </trkpt>
      <trkpt lat="46.417151" lon="12.932974">
        <ele>655.3132607276698</ele>
        <time>2026-02-21T16:28:32.671Z</time>
      </trkpt>
      <trkpt lat="46.417188" lon="12.932861">
        <ele>654.8234018097526</ele>
        <time>2026-02-21T16:28:38.789Z</time>
      </trkpt>
      <trkpt lat="46.417269" lon="12.93273">
        <ele>656.1802913348694</ele>
        <time>2026-02-21T16:28:47.396Z</time>
      </trkpt>
      <trkpt lat="46.417306" lon="12.932495">
        <ele>654.6463061180194</ele>
        <time>2026-02-21T16:28:59.186Z</time>
      </trkpt>
      <trkpt lat="46.417339" lon="12.932334">
        <ele>653.3208573455216</ele>
        <time>2026-02-21T16:29:07.401Z</time>
      </trkpt>
      <trkpt lat="46.417356" lon="12.932253">
        <ele>652.4211545247623</ele>
        <time>2026-02-21T16:29:11.542Z</time>
      </trkpt>
      <trkpt lat="46.417397" lon="12.932191">
        <ele>653.0973223344047</ele>
        <time>2026-02-21T16:29:15.744Z</time>
      </trkpt>
      <trkpt lat="46.417466" lon="12.932032">
        <ele>653.4071758048796</ele>
        <time>2026-02-21T16:29:24.933Z</time>
      </trkpt>
      <trkpt lat="46.41755" lon="12.931596">
        <ele>652.983881751159</ele>
        <time>2026-02-21T16:29:47.075Z</time>
      </trkpt>
      <trkpt lat="46.417506" lon="12.931528">
        <ele>650.4900682781832</ele>
        <time>2026-02-21T16:29:51.636Z</time>
      </trkpt>
      <trkpt lat="46.417472" lon="12.931351">
        <ele>646.6024755385479</ele>
        <time>2026-02-21T16:30:00.623Z</time>
      </trkpt>
      <trkpt lat="46.417491" lon="12.931237">
        <ele>646.4080601973156</ele>
        <time>2026-02-21T16:30:06.359Z</time>
      </trkpt>
      <trkpt lat="46.417516" lon="12.931173">
        <ele>647.0526357918122</ele>
        <time>2026-02-21T16:30:09.956Z</time>
      </trkpt>
      <trkpt lat="46.41754" lon="12.931052">
        <ele>646.9974458750498</ele>
        <time>2026-02-21T16:30:16.114Z</time>
      </trkpt>
      <trkpt lat="46.417565" lon="12.930864">
        <ele>646.1379847247849</ele>
        <time>2026-02-21T16:30:25.478Z</time>
      </trkpt>
      <trkpt lat="46.417529" lon="12.930807">
        <ele>643.1807111015894</ele>
        <time>2026-02-21T16:30:29.259Z</time>
      </trkpt>
      <trkpt lat="46.417401" lon="12.930689">
        <ele>627.3896483198267</ele>
        <time>2026-02-21T16:30:40.019Z</time>
      </trkpt>
      <trkpt lat="46.417377" lon="12.930563">
        <ele>618.522473436195</ele>
        <time>2026-02-21T16:30:46.412Z</time>
      </trkpt>
      <trkpt lat="46.417536" lon="12.930174">
        <ele>628.236706720632</ele>
        <time>2026-02-21T16:31:08.531Z</time>
      </trkpt>
      <trkpt lat="46.417597" lon="12.930082">
        <ele>632.2938753402335</ele>
        <time>2026-02-21T16:31:14.774Z</time>
      </trkpt>
      <trkpt lat="46.417634" lon="12.929951">
        <ele>631.9584513459956</ele>
        <time>2026-02-21T16:31:21.698Z</time>
      </trkpt>
      <trkpt lat="46.417645" lon="12.929913">
        <ele>631.8053333555831</ele>
        <time>2026-02-21T16:31:23.713Z</time>
      </trkpt>
      <trkpt lat="46.417659" lon="12.929787">
        <ele>628.8680939152445</ele>
        <time>2026-02-21T16:31:29.955Z</time>
      </trkpt>
      <trkpt lat="46.41767239911874" lon="12.929787110046021">
        <ele>630.6020099852607</ele>
        <time>2026-02-21T16:31:30.000Z</time>
      </trkpt>
      <trkpt lat="46.41772532463074" lon="12.92977523803711">
        <ele>635.981976773665</ele>
        <time>2026-02-21T16:31:33.790Z</time>
      </trkpt>
      <trkpt lat="46.41777503490448" lon="12.929768085479736">
        <ele>640.3617890458081</ele>
        <time>2026-02-21T16:31:37.325Z</time>
      </trkpt>
      <trkpt lat="46.41785418987274" lon="12.929766654968262">
        <ele>645.8473750545521</ele>
        <time>2026-02-21T16:31:40.325Z</time>
      </trkpt>
      <trkpt lat="46.41791617870331" lon="12.929765462875366">
        <ele>648.8481714338599</ele>
        <time>2026-02-21T16:31:44.325Z</time>
      </trkpt>
      <trkpt lat="46.417951345443726" lon="12.92976999282837">
        <ele>650.099135737931</ele>
        <time>2026-02-21T16:31:47.325Z</time>
      </trkpt>
      <trkpt lat="46.41797125339508" lon="12.929784893989563">
        <ele>650.8879313150642</ele>
        <time>2026-02-21T16:31:50.325Z</time>
      </trkpt>
      <trkpt lat="46.41798293590546" lon="12.929786562919617">
        <ele>651.2442796910409</ele>
        <time>2026-02-21T16:31:52.325Z</time>
      </trkpt>
      <trkpt lat="46.41800546646118" lon="12.929801225662231">
        <ele>651.9424821341939</ele>
        <time>2026-02-21T16:31:54.325Z</time>
      </trkpt>
      <trkpt lat="46.41804051399231" lon="12.929831624031067">
        <ele>653.0187213517337</ele>
        <time>2026-02-21T16:31:57.325Z</time>
      </trkpt>
      <trkpt lat="46.41805338859558" lon="12.92986512184143">
        <ele>653.4940473226177</ele>
        <time>2026-02-21T16:31:59.325Z</time>
      </trkpt>
      <trkpt lat="46.418063163757324" lon="12.92991030216217">
        <ele>653.9876890818134</ele>
        <time>2026-02-21T16:32:01.325Z</time>
      </trkpt>
      <trkpt lat="46.41808533668518" lon="12.929967403411865">
        <ele>654.7912774908825</ele>
        <time>2026-02-21T16:32:04.325Z</time>
      </trkpt>
      <trkpt lat="46.418100476264954" lon="12.93000316619873">
        <ele>655.2393923136179</ele>
        <time>2026-02-21T16:32:06.325Z</time>
      </trkpt>
      <trkpt lat="46.41810429096222" lon="12.930018901824951">
        <ele>655.383641730017</ele>
        <time>2026-02-21T16:32:07.325Z</time>
      </trkpt>
      <trkpt lat="46.41810476779938" lon="12.930031538009644">
        <ele>655.451395129786</ele>
        <time>2026-02-21T16:32:08.325Z</time>
      </trkpt>
      <trkpt lat="46.4181045293808" lon="12.930044412612915">
        <ele>655.5069628745796</ele>
        <time>2026-02-21T16:32:09.325Z</time>
      </trkpt>
      <trkpt lat="46.41811966896057" lon="12.930073261260986">
        <ele>655.9331002038357</ele>
        <time>2026-02-21T16:32:12.325Z</time>
      </trkpt>
      <trkpt lat="46.418129205703735" lon="12.930103540420532">
        <ele>656.2748511100484</ele>
        <time>2026-02-21T16:32:15.325Z</time>
      </trkpt>
      <trkpt lat="46.418137311935425" lon="12.930172443389893">
        <ele>656.7238133767943</ele>
        <time>2026-02-21T16:32:21.325Z</time>
      </trkpt>
      <trkpt lat="46.41813886165619" lon="12.930185794830322">
        <ele>656.798373287916</ele>
        <time>2026-02-21T16:32:22.325Z</time>
      </trkpt>
      <trkpt lat="46.41814684867859" lon="12.930208444595337">
        <ele>657.0430565132617</ele>
        <time>2026-02-21T16:32:23.325Z</time>
      </trkpt>
      <trkpt lat="46.4181489944458" lon="12.930240154266357">
        <ele>657.174081172666</ele>
        <time>2026-02-21T16:32:24.325Z</time>
      </trkpt>
      <trkpt lat="46.41815185546875" lon="12.930267691612244">
        <ele>657.2995956673354</ele>
        <time>2026-02-21T16:32:25.325Z</time>
      </trkpt>
      <trkpt lat="46.41817045211792" lon="12.93029510974884">
        <ele>657.8199027948017</ele>
        <time>2026-02-21T16:32:28.325Z</time>
      </trkpt>
      <trkpt lat="46.41817581653595" lon="12.930298089981079">
        <ele>657.9626694283197</ele>
        <time>2026-02-21T16:32:29.325Z</time>
      </trkpt>
      <trkpt lat="46.41818451881409" lon="12.930297493934631">
        <ele>658.1799650260015</ele>
        <time>2026-02-21T16:32:30.325Z</time>
      </trkpt>
      <trkpt lat="46.418214321136475" lon="12.930280089378357">
        <ele>658.8693120737552</ele>
        <time>2026-02-21T16:32:32.325Z</time>
      </trkpt>
      <trkpt lat="46.418251156806946" lon="12.93026316165924">
        <ele>659.9209028589594</ele>
        <time>2026-02-21T16:32:34.325Z</time>
      </trkpt>
      <trkpt lat="46.418264746665955" lon="12.930254220962524">
        <ele>660.2851070349168</ele>
        <time>2026-02-21T16:32:35.325Z</time>
      </trkpt>
      <trkpt lat="46.41827654838562" lon="12.930251479148865">
        <ele>660.6305338051693</ele>
        <time>2026-02-21T16:32:36.325Z</time>
      </trkpt>
      <trkpt lat="46.41828954219818" lon="12.930245876312256">
        <ele>661.0431341562473</ele>
        <time>2026-02-21T16:32:37.325Z</time>
      </trkpt>
      <trkpt lat="46.41830909252167" lon="12.930242776870728">
        <ele>661.6931655263458</ele>
        <time>2026-02-21T16:32:38.325Z</time>
      </trkpt>
      <trkpt lat="46.41838252544403" lon="12.930242538452148">
        <ele>664.5314962197398</ele>
        <time>2026-02-21T16:32:41.325Z</time>
      </trkpt>
      <trkpt lat="46.418399691581726" lon="12.930257320404053">
        <ele>665.3853908994241</ele>
        <time>2026-02-21T16:32:43.325Z</time>
      </trkpt>
      <trkpt lat="46.418439865112305" lon="12.93028438091278">
        <ele>667.4392364701727</ele>
        <time>2026-02-21T16:32:47.325Z</time>
      </trkpt>
      <trkpt lat="46.41844284534454" lon="12.930289149284363">
        <ele>667.6141158517921</ele>
        <time>2026-02-21T16:32:48.325Z</time>
      </trkpt>
      <trkpt lat="46.418456077575684" lon="12.93030560016632">
        <ele>668.3703413940469</ele>
        <time>2026-02-21T16:32:49.325Z</time>
      </trkpt>
      <trkpt lat="46.418477177619934" lon="12.930365562438965">
        <ele>669.8616409695717</ele>
        <time>2026-02-21T16:32:52.325Z</time>
      </trkpt>
      <trkpt lat="46.41848576068878" lon="12.930377006530762">
        <ele>670.3768108679924</ele>
        <time>2026-02-21T16:32:53.325Z</time>
      </trkpt>
      <trkpt lat="46.418501019477844" lon="12.93046236038208">
        <ele>671.7327145740103</ele>
        <time>2026-02-21T16:32:57.325Z</time>
      </trkpt>
      <trkpt lat="46.41849994659424" lon="12.930487394332886">
        <ele>671.8169489058132</ele>
        <time>2026-02-21T16:32:58.325Z</time>
      </trkpt>
      <trkpt lat="46.41850280761719" lon="12.930511713027954">
        <ele>672.0481028403011</ele>
        <time>2026-02-21T16:32:59.325Z</time>
      </trkpt>
      <trkpt lat="46.4185049533844" lon="12.93060290813446">
        <ele>672.4244190996343</ele>
        <time>2026-02-21T16:33:02.325Z</time>
      </trkpt>
      <trkpt lat="46.41850697994232" lon="12.930628538131714">
        <ele>672.5929278047219</ele>
        <time>2026-02-21T16:33:03.325Z</time>
      </trkpt>
      <trkpt lat="46.418500661849976" lon="12.930652499198914">
        <ele>672.2922957605695</ele>
        <time>2026-02-21T16:33:04.325Z</time>
      </trkpt>
      <trkpt lat="46.41850566864014" lon="12.930671215057373">
        <ele>672.593335446344</ele>
        <time>2026-02-21T16:33:05.325Z</time>
      </trkpt>
      <trkpt lat="46.41849172115326" lon="12.93070137500763">
        <ele>671.8506078949436</ele>
        <time>2026-02-21T16:33:07.325Z</time>
      </trkpt>
      <trkpt lat="46.418490052223206" lon="12.93074095249176">
        <ele>671.8036409836498</ele>
        <time>2026-02-21T16:33:09.325Z</time>
      </trkpt>
      <trkpt lat="46.41850304603577" lon="12.93077278137207">
        <ele>672.5654032803143</ele>
        <time>2026-02-21T16:33:10.325Z</time>
      </trkpt>
      <trkpt lat="46.41852867603302" lon="12.930819392204285">
        <ele>673.9923913017617</ele>
        <time>2026-02-21T16:33:12.325Z</time>
      </trkpt>
      <trkpt lat="46.41852653026581" lon="12.930838346481323">
        <ele>673.8871396870248</ele>
        <time>2026-02-21T16:33:14.325Z</time>
      </trkpt>
      <trkpt lat="46.41855454444885" lon="12.930883646011353">
        <ele>675.4019525136367</ele>
        <time>2026-02-21T16:33:16.325Z</time>
      </trkpt>
      <trkpt lat="46.41856586933136" lon="12.930903911590576">
        <ele>676.030595888935</ele>
        <time>2026-02-21T16:33:17.325Z</time>
      </trkpt>
      <trkpt lat="46.4185665845871" lon="12.93091082572937">
        <ele>676.0742957977454</ele>
        <time>2026-02-21T16:33:18.325Z</time>
      </trkpt>
      <trkpt lat="46.41856825351715" lon="12.930917143821716">
        <ele>676.1650061689829</ele>
        <time>2026-02-21T16:33:19.325Z</time>
      </trkpt>
      <trkpt lat="46.418567419052124" lon="12.930956363677979">
        <ele>676.1253405654072</ele>
        <time>2026-02-21T16:33:22.325Z</time>
      </trkpt>
      <trkpt lat="46.418566823005676" lon="12.930967569351196">
        <ele>676.0959761624312</ele>
        <time>2026-02-21T16:33:23.325Z</time>
      </trkpt>
      <trkpt lat="46.418566942214966" lon="12.930979132652283">
        <ele>676.1038856800923</ele>
        <time>2026-02-21T16:33:24.325Z</time>
      </trkpt>
      <trkpt lat="46.41857123374939" lon="12.931018471717834">
        <ele>676.3517369294043</ele>
        <time>2026-02-21T16:33:27.325Z</time>
      </trkpt>
      <trkpt lat="46.41858518123627" lon="12.931043028831482">
        <ele>677.0601369675517</ele>
        <time>2026-02-21T16:33:29.325Z</time>
      </trkpt>
      <trkpt lat="46.41859269142151" lon="12.931061387062073">
        <ele>677.431958501332</ele>
        <time>2026-02-21T16:33:30.325Z</time>
      </trkpt>
      <trkpt lat="46.41859686374664" lon="12.931079387664795">
        <ele>677.6349052812163</ele>
        <time>2026-02-21T16:33:31.325Z</time>
      </trkpt>
      <trkpt lat="46.418606638908386" lon="12.931129693984985">
        <ele>678.1555968294861</ele>
        <time>2026-02-21T16:33:33.325Z</time>
      </trkpt>
      <trkpt lat="46.41861653327942" lon="12.931165099143982">
        <ele>678.6650585233708</ele>
        <time>2026-02-21T16:33:35.325Z</time>
      </trkpt>
      <trkpt lat="46.41862142086029" lon="12.931177377700806">
        <ele>678.9009559768816</ele>
        <time>2026-02-21T16:33:36.325Z</time>
      </trkpt>
      <trkpt lat="46.41862618923187" lon="12.931190013885498">
        <ele>679.1262711019187</ele>
        <time>2026-02-21T16:33:37.325Z</time>
      </trkpt>
      <trkpt lat="46.41863262653351" lon="12.931204676628113">
        <ele>679.4206909068403</ele>
        <time>2026-02-21T16:33:38.325Z</time>
      </trkpt>
      <trkpt lat="46.41864085197449" lon="12.931247234344482">
        <ele>679.7805654672813</ele>
        <time>2026-02-21T16:33:41.325Z</time>
      </trkpt>
      <trkpt lat="46.418643951416016" lon="12.931265830993652">
        <ele>679.9246068781172</ele>
        <time>2026-02-21T16:33:42.325Z</time>
      </trkpt>
      <trkpt lat="46.41864800453186" lon="12.931286096572876">
        <ele>680.1096128012632</ele>
        <time>2026-02-21T16:33:43.325Z</time>
      </trkpt>
      <trkpt lat="46.41865348815918" lon="12.93130338191986">
        <ele>680.3472101686465</ele>
        <time>2026-02-21T16:33:44.325Z</time>
      </trkpt>
      <trkpt lat="46.418667793273926" lon="12.931342840194702">
        <ele>680.9314233014743</ele>
        <time>2026-02-21T16:33:46.325Z</time>
      </trkpt>
      <trkpt lat="46.41867768764496" lon="12.931385397911072">
        <ele>681.2916652319415</ele>
        <time>2026-02-21T16:33:48.325Z</time>
      </trkpt>
      <trkpt lat="46.41868317127228" lon="12.931399941444397">
        <ele>681.4936542139751</ele>
        <time>2026-02-21T16:33:49.325Z</time>
      </trkpt>
      <trkpt lat="46.41869759559631" lon="12.93142020702362">
        <ele>682.0200957589182</ele>
        <time>2026-02-21T16:33:50.325Z</time>
      </trkpt>
      <trkpt lat="46.41871464252472" lon="12.931435823440552">
        <ele>682.6283709057896</ele>
        <time>2026-02-21T16:33:51.325Z</time>
      </trkpt>
      <trkpt lat="46.418726325035095" lon="12.931457757949829">
        <ele>683.0181999499259</ele>
        <time>2026-02-21T16:33:52.325Z</time>
      </trkpt>
      <trkpt lat="46.41875171661377" lon="12.93149471282959">
        <ele>683.8457250838469</ele>
        <time>2026-02-21T16:33:54.325Z</time>
      </trkpt>
      <trkpt lat="46.41880512237549" lon="12.931549906730652">
        <ele>685.2432648788374</ele>
        <time>2026-02-21T16:33:57.325Z</time>
      </trkpt>
      <trkpt lat="46.418816685676575" lon="12.931562185287476">
        <ele>685.4840958638533</ele>
        <time>2026-02-21T16:33:58.325Z</time>
      </trkpt>
      <trkpt lat="46.41882681846619" lon="12.931578040122986">
        <ele>685.6477295052609</ele>
        <time>2026-02-21T16:33:59.325Z</time>
      </trkpt>
      <trkpt lat="46.41884195804596" lon="12.931610345840454">
        <ele>685.8323941786372</ele>
        <time>2026-02-21T16:34:01.325Z</time>
      </trkpt>
      <trkpt lat="46.41885781288147" lon="12.931633353233337">
        <ele>686.0994371481086</ele>
        <time>2026-02-21T16:34:03.325Z</time>
      </trkpt>
      <trkpt lat="46.41887879371643" lon="12.931654334068298">
        <ele>686.4231698735935</ele>
        <time>2026-02-21T16:34:05.325Z</time>
      </trkpt>
      <trkpt lat="46.41889262199402" lon="12.931672811508179">
        <ele>686.5465018366172</ele>
        <time>2026-02-21T16:34:07.325Z</time>
      </trkpt>
      <trkpt lat="46.41890025138855" lon="12.93167781829834">
        <ele>686.6490682286754</ele>
        <time>2026-02-21T16:34:08.325Z</time>
      </trkpt>
      <trkpt lat="46.4189076423645" lon="12.931684255599976">
        <ele>686.7293472588997</ele>
        <time>2026-02-21T16:34:09.325Z</time>
      </trkpt>
      <trkpt lat="46.41893935203552" lon="12.931708455085754">
        <ele>687.0784526924715</ele>
        <time>2026-02-21T16:34:11.325Z</time>
      </trkpt>
      <trkpt lat="46.41895127296448" lon="12.931715607643127">
        <ele>687.2131839518665</ele>
        <time>2026-02-21T16:34:12.325Z</time>
      </trkpt>
      <trkpt lat="46.418970823287964" lon="12.931728482246399">
        <ele>687.4069089361699</ele>
        <time>2026-02-21T16:34:13.325Z</time>
      </trkpt>
      <trkpt lat="46.41899275779724" lon="12.931739091873169">
        <ele>687.6380974168897</ele>
        <time>2026-02-21T16:34:14.325Z</time>
      </trkpt>
      <trkpt lat="46.419010639190674" lon="12.931745529174805">
        <ele>687.8350811984396</ele>
        <time>2026-02-21T16:34:15.325Z</time>
      </trkpt>
      <trkpt lat="46.41903328895569" lon="12.931758761405945">
        <ele>688.025427450892</ele>
        <time>2026-02-21T16:34:16.325Z</time>
      </trkpt>
      <trkpt lat="46.419055104255676" lon="12.93177318572998">
        <ele>688.1969701451718</ele>
        <time>2026-02-21T16:34:17.325Z</time>
      </trkpt>
      <trkpt lat="46.41907322406769" lon="12.931779980659485">
        <ele>688.4013306934855</ele>
        <time>2026-02-21T16:34:18.325Z</time>
      </trkpt>
      <trkpt lat="46.41908812522888" lon="12.931784868240356">
        <ele>688.576734173205</ele>
        <time>2026-02-21T16:34:19.325Z</time>
      </trkpt>
      <trkpt lat="46.419109582901" lon="12.931789636611938">
        <ele>688.8686380227317</ele>
        <time>2026-02-21T16:34:20.325Z</time>
      </trkpt>
      <trkpt lat="46.419134974479675" lon="12.93179202079773">
        <ele>689.2895823631667</ele>
        <time>2026-02-21T16:34:21.325Z</time>
      </trkpt>
      <trkpt lat="46.41915214061737" lon="12.931797742843628">
        <ele>689.5204585070503</ele>
        <time>2026-02-21T16:34:22.325Z</time>
      </trkpt>
      <trkpt lat="46.41916882991791" lon="12.931806445121765">
        <ele>689.7172484392303</ele>
        <time>2026-02-21T16:34:23.325Z</time>
      </trkpt>
      <trkpt lat="46.41919565200806" lon="12.93181836605072">
        <ele>690.1084400265948</ele>
        <time>2026-02-21T16:34:25.325Z</time>
      </trkpt>
      <trkpt lat="46.41922152042389" lon="12.931828737258911">
        <ele>690.5001518452083</ele>
        <time>2026-02-21T16:34:27.325Z</time>
      </trkpt>
      <trkpt lat="46.419229388237" lon="12.93183171749115">
        <ele>690.6409191656584</ele>
        <time>2026-02-21T16:34:28.325Z</time>
      </trkpt>
      <trkpt lat="46.419238448143005" lon="12.931841015815735">
        <ele>690.7220071524798</ele>
        <time>2026-02-21T16:34:29.325Z</time>
      </trkpt>
      <trkpt lat="46.419256925582886" lon="12.93185019493103">
        <ele>691.0058152209488</ele>
        <time>2026-02-21T16:34:32.325Z</time>
      </trkpt>
      <trkpt lat="46.419270157814026" lon="12.931851387023926">
        <ele>691.2800995470438</ele>
        <time>2026-02-21T16:34:34.325Z</time>
      </trkpt>
      <trkpt lat="46.41927695274353" lon="12.931854724884033">
        <ele>691.390525516424</ele>
        <time>2026-02-21T16:34:35.325Z</time>
      </trkpt>
      <trkpt lat="46.419318199157715" lon="12.93184781074524">
        <ele>692.5797609129459</ele>
        <time>2026-02-21T16:34:39.325Z</time>
      </trkpt>
      <trkpt lat="46.41933214664459" lon="12.931846261024475">
        <ele>692.9803862164266</ele>
        <time>2026-02-21T16:34:40.325Z</time>
      </trkpt>
      <trkpt lat="46.419379234313965" lon="12.93183720111847">
        <ele>694.3479606227463</ele>
        <time>2026-02-21T16:34:43.325Z</time>
      </trkpt>
      <trkpt lat="46.41939651966095" lon="12.931840538978577">
        <ele>694.7384773688511</ele>
        <time>2026-02-21T16:34:45.325Z</time>
      </trkpt>
      <trkpt lat="46.4194061756134" lon="12.931846261024475">
        <ele>694.8972086724052</ele>
        <time>2026-02-21T16:34:46.325Z</time>
      </trkpt>
      <trkpt lat="46.419426798820496" lon="12.931857347488403">
        <ele>695.272336112523</ele>
        <time>2026-02-21T16:34:48.325Z</time>
      </trkpt>
      <trkpt lat="46.41946351528168" lon="12.931865811347961">
        <ele>696.1195366045191</ele>
        <time>2026-02-21T16:34:51.325Z</time>
      </trkpt>
      <trkpt lat="46.419517993927" lon="12.931901097297668">
        <ele>696.9603608950006</ele>
        <time>2026-02-21T16:34:54.325Z</time>
      </trkpt>
      <trkpt lat="46.419565200805664" lon="12.93193507194519">
        <ele>697.486108413225</ele>
        <time>2026-02-21T16:34:57.325Z</time>
      </trkpt>
      <trkpt lat="46.41958272457123" lon="12.931946516036987">
        <ele>697.7054712082191</ele>
        <time>2026-02-21T16:34:58.325Z</time>
      </trkpt>
      <trkpt lat="46.41965293884277" lon="12.931980967521667">
        <ele>698.5410870485017</ele>
        <time>2026-02-21T16:35:02.325Z</time>
      </trkpt>
      <trkpt lat="46.41966927051544" lon="12.931987404823303">
        <ele>698.7196035580253</ele>
        <time>2026-02-21T16:35:03.325Z</time>
      </trkpt>
      <trkpt lat="46.41970670223236" lon="12.93200421333313">
        <ele>699.0428294463911</ele>
        <time>2026-02-21T16:35:05.325Z</time>
      </trkpt>
      <trkpt lat="46.41974449157715" lon="12.932051539421082">
        <ele>698.923701243943</ele>
        <time>2026-02-21T16:35:08.325Z</time>
      </trkpt>
      <trkpt lat="46.419758439064026" lon="12.932060241699219">
        <ele>699.0128387366893</ele>
        <time>2026-02-21T16:35:09.325Z</time>
      </trkpt>
      <trkpt lat="46.419811725616455" lon="12.93209958076477">
        <ele>699.2765790926996</ele>
        <time>2026-02-21T16:35:12.325Z</time>
      </trkpt>
      <trkpt lat="46.419838547706604" lon="12.932119846343994">
        <ele>699.3830743371739</ele>
        <time>2026-02-21T16:35:14.325Z</time>
      </trkpt>
      <trkpt lat="46.41985583305359" lon="12.932132482528687">
        <ele>699.4989590935992</ele>
        <time>2026-02-21T16:35:15.692Z</time>
      </trkpt>
      <trkpt lat="46.419926" lon="12.932131">
        <ele>700.0569610634034</ele>
        <time>2026-02-21T16:35:20.667Z</time>
      </trkpt>
      <trkpt lat="46.419962" lon="12.932117">
        <ele>700.2580733222005</ele>
        <time>2026-02-21T16:35:23.309Z</time>
      </trkpt>
      <trkpt lat="46.420162" lon="12.9321">
        <ele>701.1461573277288</ele>
        <time>2026-02-21T16:35:37.513Z</time>
      </trkpt>
      <trkpt lat="46.420298" lon="12.932114">
        <ele>702.0317157019277</ele>
        <time>2026-02-21T16:35:47.179Z</time>
      </trkpt>
      <trkpt lat="46.420357" lon="12.932138">
        <ele>702.6459529682759</ele>
        <time>2026-02-21T16:35:51.523Z</time>
      </trkpt>
      <trkpt lat="46.420421" lon="12.932148">
        <ele>703.1744482064786</ele>
        <time>2026-02-21T16:35:56.086Z</time>
      </trkpt>
      <trkpt lat="46.42053" lon="12.932192">
        <ele>704.0761176409371</ele>
        <time>2026-02-21T16:36:04.107Z</time>
      </trkpt>
      <trkpt lat="46.420679" lon="12.932202">
        <ele>705.731438557759</ele>
        <time>2026-02-21T16:36:14.682Z</time>
      </trkpt>
      <trkpt lat="46.420808" lon="12.932248">
        <ele>706.7667632931096</ele>
        <time>2026-02-21T16:36:24.100Z</time>
      </trkpt>
      <trkpt lat="46.420878" lon="12.932264">
        <ele>707.3233728648981</ele>
        <time>2026-02-21T16:36:29.124Z</time>
      </trkpt>
      <trkpt lat="46.420932" lon="12.932294">
        <ele>707.2750384741744</ele>
        <time>2026-02-21T16:36:33.223Z</time>
      </trkpt>
      <trkpt lat="46.421021" lon="12.932306">
        <ele>708.0215892050476</ele>
        <time>2026-02-21T16:36:39.560Z</time>
      </trkpt>
      <trkpt lat="46.421308" lon="12.932402">
        <ele>708.3756536672737</ele>
        <time>2026-02-21T16:37:00.442Z</time>
      </trkpt>
      <trkpt lat="46.421369" lon="12.932406">
        <ele>708.8575077321094</ele>
        <time>2026-02-21T16:37:04.771Z</time>
      </trkpt>
      <trkpt lat="46.421445" lon="12.932402">
        <ele>709.601710516774</ele>
        <time>2026-02-21T16:37:10.163Z</time>
      </trkpt>
      <trkpt lat="46.421539" lon="12.93237">
        <ele>710.8878406496262</ele>
        <time>2026-02-21T16:37:17.008Z</time>
      </trkpt>
      <trkpt lat="46.421699" lon="12.932272">
        <ele>713.6358773584435</ele>
        <time>2026-02-21T16:37:29.322Z</time>
      </trkpt>
      <trkpt lat="46.421737" lon="12.932261">
        <ele>714.1098814353338</ele>
        <time>2026-02-21T16:37:32.069Z</time>
      </trkpt>
      <trkpt lat="46.42178" lon="12.932263">
        <ele>714.5104979182906</ele>
        <time>2026-02-21T16:37:35.119Z</time>
      </trkpt>
      <trkpt lat="46.421842" lon="12.93229">
        <ele>714.8966200560176</ele>
        <time>2026-02-21T16:37:39.708Z</time>
      </trkpt>
      <trkpt lat="46.421882" lon="12.932323">
        <ele>715.0861224804811</ele>
        <time>2026-02-21T16:37:42.970Z</time>
      </trkpt>
      <trkpt lat="46.42193" lon="12.932387">
        <ele>715.34146489217</ele>
        <time>2026-02-21T16:37:47.592Z</time>
      </trkpt>
      <trkpt lat="46.422065" lon="12.9327">
        <ele>717.424296848057</ele>
        <time>2026-02-21T16:38:05.637Z</time>
      </trkpt>
      <trkpt lat="46.422119" lon="12.932719">
        <ele>717.7712119155467</ele>
        <time>2026-02-21T16:38:09.576Z</time>
      </trkpt>
      <trkpt lat="46.422238" lon="12.932584">
        <ele>717.209525293071</ele>
        <time>2026-02-21T16:38:20.286Z</time>
      </trkpt>
      <trkpt lat="46.422271" lon="12.932562">
        <ele>717.2220899141869</ele>
        <time>2026-02-21T16:38:22.860Z</time>
      </trkpt>
      <trkpt lat="46.422347" lon="12.932528">
        <ele>717.4647557003894</ele>
        <time>2026-02-21T16:38:28.498Z</time>
      </trkpt>
      <trkpt lat="46.422394" lon="12.93253">
        <ele>717.8557812043236</ele>
        <time>2026-02-21T16:38:31.831Z</time>
      </trkpt>
      <trkpt lat="46.422478" lon="12.932581">
        <ele>718.9135296632555</ele>
        <time>2026-02-21T16:38:38.287Z</time>
      </trkpt>
      <trkpt lat="46.422531" lon="12.932448">
        <ele>718.6410436997198</ele>
        <time>2026-02-21T16:38:45.795Z</time>
      </trkpt>
      <trkpt lat="46.422695" lon="12.931695">
        <ele>719.0216190424994</ele>
        <time>2026-02-21T16:39:24.390Z</time>
      </trkpt>
    </trkseg>
  </trk>
</gpx>
