<?xml version="1.0" encoding="UTF-8"?>
<gpx creator="Garmin Explore App" version="1.1" schemaLocation="http://www.topografix.com/GPX/1/1 http://www.topografix.com/GPX/1/1/gpx.xsd http://www.garmin.com/xmlschemas/GpxExtensions/v3 http://www.garmin.com/xmlschemas/GpxExtensionsv3.xsd http://www.garmin.com/xmlschemas/TrackPointExtension/v1 http://www.garmin.com/xmlschemas/TrackPointExtensionv1.xsd http://www.garmin.com/xmlschemas/PowerExtension/v1 http://www.garmin.com/xmlschemas/PowerExtensionv1.xsd http://www.topografix.com/GPX/gpx_style/0/2 http://www.topografix.com/GPX/gpx_style/0/2/gpx_style.xsd" xmlns="http://www.topografix.com/GPX/1/1" xmlns:xsi="http://www.w3.org/2001/XMLSchema-instance" xsi:schemaLocation="http://www.topografix.com/GPX/1/1 http://www.topografix.com/GPX/1/1/gpx.xsd http://www.garmin.com/xmlschemas/GpxExtensions/v3 http://www.garmin.com/xmlschemas/GpxExtensionsv3.xsd http://www.garmin.com/xmlschemas/TrackPointExtension/v1 http://www.garmin.com/xmlschemas/TrackPointExtensionv1.xsd http://www.garmin.com/xmlschemas/PowerExtension/v1 http://www.garmin.com/xmlschemas/PowerExtensionv1.xsd http://www.topografix.com/GPX/gpx_style/0/2 http://www.topografix.com/GPX/gpx_style/0/2/gpx_style.xsd" xmlns:gpxtpx="http://www.garmin.com/xmlschemas/TrackPointExtension/v1" xmlns:gpxx="http://www.garmin.com/xmlschemas/GpxExtensions/v3" xmlns:gpxpx="http://www.garmin.com/xmlschemas/PowerExtension/v1" xmlns:gpx_style="http://www.topografix.com/GPX/gpx_style/0/2">
  <metadata>
    <name>VAS-II</name>
    <author>
      <name>gpx.studio</name>
      <link href="https://gpx.studio"/>
    </author>
    <link href="http://www.garmin.com">
      <text>Garmin International</text>
    </link>
    <time>2026-02-18T10:02:41.000Z</time>
  </metadata>
  <trk>
    <name>VAS-II</name>
    <trkseg>
      <trkpt lat="46.443909" lon="12.963433">
        <ele>1076.4</ele>
        <time>2025-03-30T13:40:58.753Z</time>
      </trkpt>
      <trkpt lat="46.443944" lon="12.963551">
        <ele>1076.53</ele>
        <time>2025-03-30T13:41:08.558Z</time>
      </trkpt>
      <trkpt lat="46.443961" lon="12.963562">
        <ele>1076.88</ele>
        <time>2025-03-30T13:41:10.619Z</time>
      </trkpt>
      <trkpt lat="46.444016" lon="12.963596">
        <ele>1077.98</ele>
        <time>2025-03-30T13:41:17.240Z</time>
      </trkpt>
      <trkpt lat="46.444066" lon="12.963669">
        <ele>1078.75</ele>
        <time>2025-03-30T13:41:25.093Z</time>
      </trkpt>
      <trkpt lat="46.444178" lon="12.963578">
        <ele>1082</ele>
        <time>2025-03-30T13:41:39.306Z</time>
      </trkpt>
      <trkpt lat="46.444236" lon="12.963698">
        <ele>1082.65</ele>
        <time>2025-03-30T13:41:50.490Z</time>
      </trkpt>
      <trkpt lat="46.444396" lon="12.963889">
        <ele>1084.9905523846865</ele>
        <time>2025-03-30T13:42:13.431Z</time>
      </trkpt>
      <trkpt lat="46.444509" lon="12.964087">
        <ele>1087.8590873208154</ele>
        <time>2025-03-30T13:42:32.205Z</time>
      </trkpt>
      <trkpt lat="46.444561" lon="12.964212">
        <ele>1087.7482404133832</ele>
        <time>2025-03-30T13:42:42.867Z</time>
      </trkpt>
      <trkpt lat="46.444589" lon="12.964278">
        <ele>1087.7794836692065</ele>
        <time>2025-03-30T13:42:48.526Z</time>
      </trkpt>
      <trkpt lat="46.444687" lon="12.964401">
        <ele>1089.7291671231396</ele>
        <time>2025-03-30T13:43:02.257Z</time>
      </trkpt>
      <trkpt lat="46.444773" lon="12.964642">
        <ele>1088.3279747346655</ele>
        <time>2025-03-30T13:43:22.076Z</time>
      </trkpt>
      <trkpt lat="46.44493" lon="12.964827">
        <ele>1091.9212138452624</ele>
        <time>2025-03-30T13:43:43.508Z</time>
      </trkpt>
      <trkpt lat="46.444971" lon="12.964905">
        <ele>1091.8161162863234</ele>
        <time>2025-03-30T13:43:50.672Z</time>
      </trkpt>
      <trkpt lat="46.445142" lon="12.965095">
        <ele>1095.6885433980995</ele>
        <time>2025-03-30T13:44:13.496Z</time>
      </trkpt>
      <trkpt lat="46.44534182548523" lon="12.965259432792664">
        <ele>1102.2999172103137</ele>
        <time>2025-03-30T13:44:13.722Z</time>
      </trkpt>
      <trkpt lat="46.445481181144714" lon="12.965510606765747">
        <ele>1105.0843532597655</ele>
        <time>2025-03-30T13:44:36.722Z</time>
      </trkpt>
      <trkpt lat="46.445555686950684" lon="12.965214371681213">
        <ele>1116.436731992774</ele>
        <time>2025-03-30T13:44:53.722Z</time>
      </trkpt>
      <trkpt lat="46.445555567741394" lon="12.964996218681335">
        <ele>1121.8790045162327</ele>
        <time>2025-03-30T13:45:07.722Z</time>
      </trkpt>
      <trkpt lat="46.445417404174805" lon="12.964870691299438">
        <ele>1118.4830883311113</ele>
        <time>2025-03-30T13:45:20.722Z</time>
      </trkpt>
      <trkpt lat="46.445271492004395" lon="12.964473009109497">
        <ele>1122.8673123327285</ele>
        <time>2025-03-30T13:45:40.722Z</time>
      </trkpt>
      <trkpt lat="46.445188999176025" lon="12.964417934417725">
        <ele>1120.055450704665</ele>
        <time>2025-03-30T13:45:50.722Z</time>
      </trkpt>
      <trkpt lat="46.44514524936676" lon="12.96433687210083">
        <ele>1119.6966773095667</ele>
        <time>2025-03-30T13:45:58.722Z</time>
      </trkpt>
      <trkpt lat="46.44511020183563" lon="12.964236855506897">
        <ele>1119.8968857585692</ele>
        <time>2025-03-30T13:46:05.722Z</time>
      </trkpt>
      <trkpt lat="46.44514608383179" lon="12.964044213294983">
        <ele>1126.3043848697682</ele>
        <time>2025-03-30T13:46:19.722Z</time>
      </trkpt>
      <trkpt lat="46.44517147541046" lon="12.964033007621765">
        <ele>1128.1451498611837</ele>
        <time>2025-03-30T13:46:24.722Z</time>
      </trkpt>
      <trkpt lat="46.4452258348465" lon="12.964252948760986">
        <ele>1126.537924254963</ele>
        <time>2025-03-30T13:46:50.722Z</time>
      </trkpt>
      <trkpt lat="46.44532883167267" lon="12.964483261108398">
        <ele>1125.5719355132624</ele>
        <time>2025-03-30T13:47:14.722Z</time>
      </trkpt>
      <trkpt lat="46.44543015956879" lon="12.964566826820374">
        <ele>1128.6475741794814</ele>
        <time>2025-03-30T13:47:25.722Z</time>
      </trkpt>
      <trkpt lat="46.44544792175293" lon="12.964630246162415">
        <ele>1127.641290403438</ele>
        <time>2025-03-30T13:47:29.722Z</time>
      </trkpt>
      <trkpt lat="46.44570600986481" lon="12.964642524719238">
        <ele>1139.6292322981626</ele>
        <time>2025-03-30T13:47:58.722Z</time>
      </trkpt>
      <trkpt lat="46.44574689865112" lon="12.964802503585815">
        <ele>1137.462725620654</ele>
        <time>2025-03-30T13:48:11.722Z</time>
      </trkpt>
      <trkpt lat="46.445842146873474" lon="12.964934587478638">
        <ele>1139.0903096483094</ele>
        <time>2025-03-30T13:48:28.722Z</time>
      </trkpt>
      <trkpt lat="46.44593393802643" lon="12.96479845046997">
        <ele>1148.1836194361777</ele>
        <time>2025-03-30T13:48:38.722Z</time>
      </trkpt>
      <trkpt lat="46.44599962234497" lon="12.964618682861328">
        <ele>1157.591901700527</ele>
        <time>2025-03-30T13:48:56.722Z</time>
      </trkpt>
      <trkpt lat="46.44596862792969" lon="12.964458227157593">
        <ele>1161.5775356987965</ele>
        <time>2025-03-30T13:49:15.722Z</time>
      </trkpt>
      <trkpt lat="46.44598424434662" lon="12.964363813400269">
        <ele>1165.8387108452348</ele>
        <time>2025-03-30T13:49:24.722Z</time>
      </trkpt>
      <trkpt lat="46.44595158100128" lon="12.964130401611328">
        <ele>1170.2966383667674</ele>
        <time>2025-03-30T13:49:50.722Z</time>
      </trkpt>
      <trkpt lat="46.44575536251068" lon="12.963468670845032">
        <ele>1166.2533894813162</ele>
        <time>2025-03-30T13:50:37.722Z</time>
      </trkpt>
      <trkpt lat="46.44572830200195" lon="12.963190793991089">
        <ele>1167.6541859985207</ele>
        <time>2025-03-30T13:50:55.722Z</time>
      </trkpt>
      <trkpt lat="46.44574272632599" lon="12.96269142627716">
        <ele>1173.1435122239413</ele>
        <time>2025-03-30T13:51:27.722Z</time>
      </trkpt>
      <trkpt lat="46.445855259895325" lon="12.962355494499207">
        <ele>1179.4445503280679</ele>
        <time>2025-03-30T13:51:50.722Z</time>
      </trkpt>
      <trkpt lat="46.44596517086029" lon="12.962232828140259">
        <ele>1182.4544324587343</ele>
        <time>2025-03-30T13:52:05.722Z</time>
      </trkpt>
      <trkpt lat="46.44595503807068" lon="12.962349534034729">
        <ele>1183.2229648607558</ele>
        <time>2025-03-30T13:52:23.722Z</time>
      </trkpt>
      <trkpt lat="46.44607937335968" lon="12.962254047393799">
        <ele>1186.7271579361711</ele>
        <time>2025-03-30T13:52:41.722Z</time>
      </trkpt>
      <trkpt lat="46.44622611999512" lon="12.962034940719604">
        <ele>1188.0207234574182</ele>
        <time>2025-03-30T13:53:02.722Z</time>
      </trkpt>
      <trkpt lat="46.44625997543335" lon="12.961930990219116">
        <ele>1186.0014431220723</ele>
        <time>2025-03-30T13:53:13.722Z</time>
      </trkpt>
      <trkpt lat="46.4463711977005" lon="12.96185040473938">
        <ele>1187.7587979942682</ele>
        <time>2025-03-30T13:53:28.722Z</time>
      </trkpt>
      <trkpt lat="46.446386098861694" lon="12.961903095245361">
        <ele>1189.5903256754366</ele>
        <time>2025-03-30T13:53:34.722Z</time>
      </trkpt>
      <trkpt lat="46.44632065296173" lon="12.962060689926147">
        <ele>1191.2805692637335</ele>
        <time>2025-03-30T13:53:55.722Z</time>
      </trkpt>
      <trkpt lat="46.4462913274765" lon="12.962267637252808">
        <ele>1192.9197168035384</ele>
        <time>2025-03-30T13:54:16.722Z</time>
      </trkpt>
      <trkpt lat="46.44630825519562" lon="12.962555527687073">
        <ele>1195.2425330224285</ele>
        <time>2025-03-30T13:54:39.722Z</time>
      </trkpt>
      <trkpt lat="46.44628202915192" lon="12.962739109992981">
        <ele>1194.6918160357588</ele>
        <time>2025-03-30T13:54:50.722Z</time>
      </trkpt>
      <trkpt lat="46.446362376213074" lon="12.96324360370636">
        <ele>1197.391548932531</ele>
        <time>2025-03-30T13:55:20.722Z</time>
      </trkpt>
      <trkpt lat="46.44644796848297" lon="12.96332311630249">
        <ele>1200.6797391139908</ele>
        <time>2025-03-30T13:55:38.722Z</time>
      </trkpt>
      <trkpt lat="46.44646179676056" lon="12.963523864746094">
        <ele>1199.8242543220756</ele>
        <time>2025-03-30T13:55:53.722Z</time>
      </trkpt>
      <trkpt lat="46.446539878845215" lon="12.963614106178284">
        <ele>1202.0207936157826</ele>
        <time>2025-03-30T13:56:05.722Z</time>
      </trkpt>
      <trkpt lat="46.446638226509094" lon="12.963856816291809">
        <ele>1204.280154855247</ele>
        <time>2025-03-30T13:56:22.722Z</time>
      </trkpt>
      <trkpt lat="46.44683027267456" lon="12.964023232460022">
        <ele>1207.0572510060647</ele>
        <time>2025-03-30T13:56:45.722Z</time>
      </trkpt>
      <trkpt lat="46.44689691066742" lon="12.964019656181335">
        <ele>1209.9815869841289</ele>
        <time>2025-03-30T13:56:54.722Z</time>
      </trkpt>
      <trkpt lat="46.44705390930176" lon="12.96413254737854">
        <ele>1213.8824989825494</ele>
        <time>2025-03-30T13:57:16.722Z</time>
      </trkpt>
      <trkpt lat="46.44724667072296" lon="12.964169979095459">
        <ele>1221.8390206114866</ele>
        <time>2025-03-30T13:57:48.722Z</time>
      </trkpt>
      <trkpt lat="46.44750094413757" lon="12.964352488517761">
        <ele>1228.378921832518</ele>
        <time>2025-03-30T13:58:30.722Z</time>
      </trkpt>
      <trkpt lat="46.447539925575256" lon="12.9643394947052">
        <ele>1230.7499829407793</ele>
        <time>2025-03-30T13:58:36.722Z</time>
      </trkpt>
      <trkpt lat="46.44788932800293" lon="12.964503407478333">
        <ele>1248.2632279757647</ele>
        <time>2025-03-30T13:59:36.722Z</time>
      </trkpt>
      <trkpt lat="46.44789183139801" lon="12.964383721351624">
        <ele>1252.6916572700468</ele>
        <time>2025-03-30T13:59:48.722Z</time>
      </trkpt>
      <trkpt lat="46.44780898094177" lon="12.963956594467163">
        <ele>1259.5046560325209</ele>
        <time>2025-03-30T14:00:28.722Z</time>
      </trkpt>
      <trkpt lat="46.447755217552185" lon="12.963767170906067">
        <ele>1260.878554648814</ele>
        <time>2025-03-30T14:00:49.722Z</time>
      </trkpt>
      <trkpt lat="46.447620034217834" lon="12.963518381118774">
        <ele>1259.1165325060492</ele>
        <time>2025-03-30T14:01:13.722Z</time>
      </trkpt>
      <trkpt lat="46.44764566421509" lon="12.963159799575806">
        <ele>1271.114442250244</ele>
        <time>2025-03-30T14:01:47.722Z</time>
      </trkpt>
      <trkpt lat="46.447598457336426" lon="12.96298086643219">
        <ele>1272.3373465823124</ele>
        <time>2025-03-30T14:02:01.722Z</time>
      </trkpt>
      <trkpt lat="46.447657227516174" lon="12.962948441505432">
        <ele>1275.5101564137397</ele>
        <time>2025-03-30T14:02:08.722Z</time>
      </trkpt>
      <trkpt lat="46.44784104824066" lon="12.963063836097717">
        <ele>1283.4938200511142</ele>
        <time>2025-03-30T14:02:43.722Z</time>
      </trkpt>
      <trkpt lat="46.4479945898056" lon="12.963130474090576">
        <ele>1289.9919241545306</ele>
        <time>2025-03-30T14:03:15.722Z</time>
      </trkpt>
      <trkpt lat="46.44816863536835" lon="12.963112354278564">
        <ele>1299.1579241852278</ele>
        <time>2025-03-30T14:03:56.722Z</time>
      </trkpt>
      <trkpt lat="46.44833600521088" lon="12.96320128440857">
        <ele>1308.915996408985</ele>
        <time>2025-03-30T14:04:40.722Z</time>
      </trkpt>
      <trkpt lat="46.44844210147858" lon="12.963229775428772">
        <ele>1315.7000636284736</ele>
        <time>2025-03-30T14:05:03.722Z</time>
      </trkpt>
      <trkpt lat="46.44869077205658" lon="12.963252305984497">
        <ele>1330.5434803900146</ele>
        <time>2025-03-30T14:05:52.722Z</time>
      </trkpt>
      <trkpt lat="46.44870436191559" lon="12.963290572166443">
        <ele>1330.5874643181844</ele>
        <time>2025-03-30T14:06:03.722Z</time>
      </trkpt>
      <trkpt lat="46.44885718822479" lon="12.963333010673523">
        <ele>1337.3179727819638</ele>
        <time>2025-03-30T14:06:31.722Z</time>
      </trkpt>
      <trkpt lat="46.44887864589691" lon="12.963392734527588">
        <ele>1336.6983903979885</ele>
        <time>2025-03-30T14:06:38.722Z</time>
      </trkpt>
      <trkpt lat="46.448959946632385" lon="12.9634028673172">
        <ele>1339.9658642835452</ele>
        <time>2025-03-30T14:06:54.722Z</time>
      </trkpt>
      <trkpt lat="46.44906985759735" lon="12.963294744491577">
        <ele>1345.9597156815255</ele>
        <time>2025-03-30T14:07:13.722Z</time>
      </trkpt>
      <trkpt lat="46.44921803474426" lon="12.963309168815613">
        <ele>1349.965198528351</ele>
        <time>2025-03-30T14:07:39.722Z</time>
      </trkpt>
      <trkpt lat="46.44940650463104" lon="12.963298082351685">
        <ele>1357.6769258597349</ele>
        <time>2025-03-30T14:08:10.722Z</time>
      </trkpt>
      <trkpt lat="46.44947564601898" lon="12.96334993839264">
        <ele>1360.2044996548548</ele>
        <time>2025-03-30T14:08:19.722Z</time>
      </trkpt>
      <trkpt lat="46.449501514434814" lon="12.963416814804077">
        <ele>1359.8648492278028</ele>
        <time>2025-03-30T14:08:25.722Z</time>
      </trkpt>
      <trkpt lat="46.44957625865936" lon="12.963423252105713">
        <ele>1362.3738525484068</ele>
        <time>2025-03-30T14:08:33.722Z</time>
      </trkpt>
      <trkpt lat="46.44971489906311" lon="12.963552594184875">
        <ele>1364.926485002572</ele>
        <time>2025-03-30T14:08:49.722Z</time>
      </trkpt>
      <trkpt lat="46.44987332820892" lon="12.96363890171051">
        <ele>1369.1205746262071</ele>
        <time>2025-03-30T14:09:06.722Z</time>
      </trkpt>
      <trkpt lat="46.449954867362976" lon="12.963642239570618">
        <ele>1371.8694955657536</ele>
        <time>2025-03-30T14:09:14.722Z</time>
      </trkpt>
      <trkpt lat="46.44997692108154" lon="12.963714241981506">
        <ele>1372.269261141924</ele>
        <time>2025-03-30T14:09:21.722Z</time>
      </trkpt>
      <trkpt lat="46.45034694671631" lon="12.963852524757385">
        <ele>1382.5296088915331</ele>
        <time>2025-03-30T14:10:01.722Z</time>
      </trkpt>
      <trkpt lat="46.45044195652008" lon="12.963952779769897">
        <ele>1384.9609468080416</ele>
        <time>2025-03-30T14:10:11.722Z</time>
      </trkpt>
      <trkpt lat="46.45059633255005" lon="12.964272499084473">
        <ele>1387.1240023027788</ele>
        <time>2025-03-30T14:10:33.722Z</time>
      </trkpt>
      <trkpt lat="46.45072305202484" lon="12.964500308036804">
        <ele>1387.839448763539</ele>
        <time>2025-03-30T14:10:50.722Z</time>
      </trkpt>
      <trkpt lat="46.450907826423645" lon="12.964754223823547">
        <ele>1390.6594777437042</ele>
        <time>2025-03-30T14:11:12.722Z</time>
      </trkpt>
      <trkpt lat="46.45099925994873" lon="12.964845061302185">
        <ele>1391.9132820614955</ele>
        <time>2025-03-30T14:11:21.722Z</time>
      </trkpt>
      <trkpt lat="46.45112490653992" lon="12.964881777763367">
        <ele>1392.6792514057165</ele>
        <time>2025-03-30T14:11:39.722Z</time>
      </trkpt>
      <trkpt lat="46.45129370689392" lon="12.964831352233887">
        <ele>1392.4933784452267</ele>
        <time>2025-03-30T14:11:56.722Z</time>
      </trkpt>
      <trkpt lat="46.45140016078949" lon="12.96487808227539">
        <ele>1389.4507871834567</ele>
        <time>2025-03-30T14:12:05.722Z</time>
      </trkpt>
      <trkpt lat="46.45153033733368" lon="12.964872598648071">
        <ele>1386.0627674162179</ele>
        <time>2025-03-30T14:12:15.722Z</time>
      </trkpt>
      <trkpt lat="46.45169520378113" lon="12.964810013771057">
        <ele>1382.6503552547047</ele>
        <time>2025-03-30T14:12:23.722Z</time>
      </trkpt>
      <trkpt lat="46.45188915729523" lon="12.96480143070221">
        <ele>1376.5786047640186</ele>
        <time>2025-03-30T14:12:40.722Z</time>
      </trkpt>
      <trkpt lat="46.452091336250305" lon="12.964709281921387">
        <ele>1371.2594324253512</ele>
        <time>2025-03-30T14:12:54.722Z</time>
      </trkpt>
      <trkpt lat="46.45256686210632" lon="12.964938998222351">
        <ele>1363.2281985318907</ele>
        <time>2025-03-30T14:13:32.722Z</time>
      </trkpt>
      <trkpt lat="46.4527884721756" lon="12.964888095855713">
        <ele>1369.4577272651027</ele>
        <time>2025-03-30T14:13:53.722Z</time>
      </trkpt>
      <trkpt lat="46.452924489974976" lon="12.964892268180847">
        <ele>1370.6388708976235</ele>
        <time>2025-03-30T14:15:29.722Z</time>
      </trkpt>
      <trkpt lat="46.45283234119415" lon="12.96491289138794">
        <ele>1369.3856589072857</ele>
        <time>2025-03-30T14:16:29.722Z</time>
      </trkpt>
      <trkpt lat="46.452882170677185" lon="12.964881777763367">
        <ele>1370.6181203499536</ele>
        <time>2025-03-30T14:16:46.722Z</time>
      </trkpt>
      <trkpt lat="46.45318901538849" lon="12.96491539478302">
        <ele>1369.5914476724347</ele>
        <time>2025-03-30T14:17:26.722Z</time>
      </trkpt>
      <trkpt lat="46.453431844711304" lon="12.964882254600525">
        <ele>1368.0928683683287</ele>
        <time>2025-03-30T14:17:45.722Z</time>
      </trkpt>
      <trkpt lat="46.453524589538574" lon="12.964922904968262">
        <ele>1366.8342645961795</ele>
        <time>2025-03-30T14:17:53.722Z</time>
      </trkpt>
      <trkpt lat="46.45376920700073" lon="12.964750528335571">
        <ele>1373.3907756787826</ele>
        <time>2025-03-30T14:18:22.722Z</time>
      </trkpt>
      <trkpt lat="46.45401048660278" lon="12.964791417121887">
        <ele>1373.2906073936595</ele>
        <time>2025-03-30T14:18:55.722Z</time>
      </trkpt>
      <trkpt lat="46.4544438123703" lon="12.964783787727356">
        <ele>1367.8684012673802</ele>
        <time>2025-03-30T14:19:33.722Z</time>
      </trkpt>
      <trkpt lat="46.45466697216034" lon="12.964708924293518">
        <ele>1360.7262679413025</ele>
        <time>2025-03-30T14:19:50.722Z</time>
      </trkpt>
      <trkpt lat="46.4547244310379" lon="12.96475338935852">
        <ele>1357.761762828584</ele>
        <time>2025-03-30T14:19:57.722Z</time>
      </trkpt>
      <trkpt lat="46.455182909965515" lon="12.964660167694092">
        <ele>1343.0526237409945</ele>
        <time>2025-03-30T14:20:27.722Z</time>
      </trkpt>
      <trkpt lat="46.455373644828796" lon="12.964673280715942">
        <ele>1337.7217822463476</ele>
        <time>2025-03-30T14:20:44.722Z</time>
      </trkpt>
      <trkpt lat="46.45612859725952" lon="12.96445083618164">
        <ele>1326.4644462316303</ele>
        <time>2025-03-30T14:21:36.722Z</time>
      </trkpt>
      <trkpt lat="46.456236243247986" lon="12.964288353919983">
        <ele>1329.3819408874242</ele>
        <time>2025-03-30T14:21:51.722Z</time>
      </trkpt>
      <trkpt lat="46.45643222332001" lon="12.964207530021667">
        <ele>1331.2813036574057</ele>
        <time>2025-03-30T14:22:08.722Z</time>
      </trkpt>
      <trkpt lat="46.456433057785034" lon="12.964257597923279">
        <ele>1331.4012575045376</ele>
        <time>2025-03-30T14:22:16.722Z</time>
      </trkpt>
      <trkpt lat="46.456502199172974" lon="12.964439392089844">
        <ele>1329.6646955098076</ele>
        <time>2025-03-30T14:22:33.722Z</time>
      </trkpt>
      <trkpt lat="46.4566935300827" lon="12.964473605155945">
        <ele>1331.5283746259493</ele>
        <time>2025-03-30T14:22:59.722Z</time>
      </trkpt>
      <trkpt lat="46.45673620700836" lon="12.964405059814453">
        <ele>1333.761108144558</ele>
        <time>2025-03-30T14:23:09.722Z</time>
      </trkpt>
      <trkpt lat="46.4568567276001" lon="12.964343190193176">
        <ele>1335.5293254699186</ele>
        <time>2025-03-30T14:23:28.722Z</time>
      </trkpt>
      <trkpt lat="46.45706796646118" lon="12.96445095539093">
        <ele>1334.5935391923465</ele>
        <time>2025-03-30T14:23:58.722Z</time>
      </trkpt>
      <trkpt lat="46.45804762840271" lon="12.964303970336914">
        <ele>1345.1740353510384</ele>
        <time>2025-03-30T14:25:23.722Z</time>
      </trkpt>
      <trkpt lat="46.45815813541412" lon="12.964152693748474">
        <ele>1345.9996703053002</ele>
        <time>2025-03-30T14:25:36.722Z</time>
      </trkpt>
      <trkpt lat="46.45826208591461" lon="12.964078664779663">
        <ele>1348.1654226260162</ele>
        <time>2025-03-30T14:25:44.722Z</time>
      </trkpt>
      <trkpt lat="46.45842909812927" lon="12.963819146156311">
        <ele>1350.1330777893784</ele>
        <time>2025-03-30T14:25:59.722Z</time>
      </trkpt>
      <trkpt lat="46.45866668224335" lon="12.963571667671204">
        <ele>1349.1478388829344</ele>
        <time>2025-03-30T14:26:25.722Z</time>
      </trkpt>
      <trkpt lat="46.45888662338257" lon="12.963433980941772">
        <ele>1348.7688336926092</ele>
        <time>2025-03-30T14:26:41.722Z</time>
      </trkpt>
      <trkpt lat="46.45911681652069" lon="12.96338140964508">
        <ele>1348.4951380127798</ele>
        <time>2025-03-30T14:27:02.722Z</time>
      </trkpt>
      <trkpt lat="46.45938241481781" lon="12.963044047355652">
        <ele>1346.4838885617942</ele>
        <time>2025-03-30T14:27:26.722Z</time>
      </trkpt>
      <trkpt lat="46.459572553634644" lon="12.962963223457336">
        <ele>1347.427165545382</ele>
        <time>2025-03-30T14:27:55.722Z</time>
      </trkpt>
      <trkpt lat="46.45975875854492" lon="12.962721943855286">
        <ele>1351.0591478265524</ele>
        <time>2025-03-30T14:28:19.722Z</time>
      </trkpt>
      <trkpt lat="46.45989179611206" lon="12.962320327758789">
        <ele>1358.1562755433247</ele>
        <time>2025-03-30T14:28:58.722Z</time>
      </trkpt>
      <trkpt lat="46.45994806289673" lon="12.962244391441345">
        <ele>1360.6949736679123</ele>
        <time>2025-03-30T14:29:14.722Z</time>
      </trkpt>
      <trkpt lat="46.46010971069336" lon="12.962265253067017">
        <ele>1366.4111507496086</ele>
        <time>2025-03-30T14:29:35.722Z</time>
      </trkpt>
      <trkpt lat="46.46019649505615" lon="12.962222456932068">
        <ele>1368.6611395093169</ele>
        <time>2025-03-30T14:29:45.722Z</time>
      </trkpt>
      <trkpt lat="46.460243225097656" lon="12.962254643440247">
        <ele>1368.912570990192</ele>
        <time>2025-03-30T14:29:50.722Z</time>
      </trkpt>
      <trkpt lat="46.46082401275635" lon="12.962145566940308">
        <ele>1357.681149055208</ele>
        <time>2025-03-30T14:30:39.722Z</time>
      </trkpt>
      <trkpt lat="46.46124470233917" lon="12.962168097496033">
        <ele>1350.0304163308354</ele>
        <time>2025-03-30T14:31:08.722Z</time>
      </trkpt>
      <trkpt lat="46.4613299369812" lon="12.962208032608032">
        <ele>1348.0441954325431</ele>
        <time>2025-03-30T14:31:14.722Z</time>
      </trkpt>
      <trkpt lat="46.4615364074707" lon="12.962168216705322">
        <ele>1346.2184300032313</ele>
        <time>2025-03-30T14:31:34.722Z</time>
      </trkpt>
      <trkpt lat="46.46163809299469" lon="12.962212562561035">
        <ele>1343.2603798891687</ele>
        <time>2025-03-30T14:31:43.722Z</time>
      </trkpt>
      <trkpt lat="46.461989879608154" lon="12.96221137046814">
        <ele>1335.7017790915452</ele>
        <time>2025-03-30T14:32:09.722Z</time>
      </trkpt>
      <trkpt lat="46.46214985847473" lon="12.962149620056152">
        <ele>1334.783931815392</ele>
        <time>2025-03-30T14:32:21.722Z</time>
      </trkpt>
      <trkpt lat="46.4622722864151" lon="12.962183594703674">
        <ele>1332.9354242218665</ele>
        <time>2025-03-30T14:32:30.722Z</time>
      </trkpt>
      <trkpt lat="46.46264684200287" lon="12.962151050567627">
        <ele>1326.4481964496902</ele>
        <time>2025-03-30T14:32:53.722Z</time>
      </trkpt>
      <trkpt lat="46.46283173561096" lon="12.962076663970947">
        <ele>1324.5706305935735</ele>
        <time>2025-03-30T14:33:07.722Z</time>
      </trkpt>
      <trkpt lat="46.4629430770874" lon="12.9620863199234">
        <ele>1323.3753490758486</ele>
        <time>2025-03-30T14:33:15.722Z</time>
      </trkpt>
      <trkpt lat="46.46299076080322" lon="12.961989760398865">
        <ele>1324.2531724810615</ele>
        <time>2025-03-30T14:33:26.722Z</time>
      </trkpt>
      <trkpt lat="46.46313405036926" lon="12.961888194084167">
        <ele>1324.871491251071</ele>
        <time>2025-03-30T14:33:42.722Z</time>
      </trkpt>
      <trkpt lat="46.46314096450806" lon="12.961948037147522">
        <ele>1324.1835684606554</ele>
        <time>2025-03-30T14:33:47.369Z</time>
      </trkpt>
      <trkpt lat="46.463261" lon="12.961965">
        <ele>1319.43</ele>
        <time>2025-03-30T14:34:00.777Z</time>
      </trkpt>
      <trkpt lat="46.463258" lon="12.962014">
        <ele>1320.81</ele>
        <time>2025-03-30T14:34:04.544Z</time>
      </trkpt>
      <trkpt lat="46.463111" lon="12.962351">
        <ele>1326</ele>
        <time>2025-03-30T14:34:35.092Z</time>
      </trkpt>
      <trkpt lat="46.463074" lon="12.962616">
        <ele>1325.36</ele>
        <time>2025-03-30T14:34:55.799Z</time>
      </trkpt>
      <trkpt lat="46.463055" lon="12.962823">
        <ele>1324.67</ele>
        <time>2025-03-30T14:35:11.792Z</time>
      </trkpt>
      <trkpt lat="46.463086" lon="12.963607">
        <ele>1314.43</ele>
        <time>2025-03-30T14:36:11.932Z</time>
      </trkpt>
      <trkpt lat="46.463144" lon="12.963919">
        <ele>1309.97</ele>
        <time>2025-03-30T14:36:36.681Z</time>
      </trkpt>
      <trkpt lat="46.463276" lon="12.964208">
        <ele>1305.84</ele>
        <time>2025-03-30T14:37:03.237Z</time>
      </trkpt>
      <trkpt lat="46.463493" lon="12.964478">
        <ele>1304.29</ele>
        <time>2025-03-30T14:37:35.011Z</time>
      </trkpt>
      <trkpt lat="46.463644" lon="12.964634">
        <ele>1304.83</ele>
        <time>2025-03-30T14:37:55.616Z</time>
      </trkpt>
      <trkpt lat="46.46367" lon="12.964679">
        <ele>1304.57</ele>
        <time>2025-03-30T14:38:00.114Z</time>
      </trkpt>
      <trkpt lat="46.463636" lon="12.964704">
        <ele>1302.69</ele>
        <time>2025-03-30T14:38:04.351Z</time>
      </trkpt>
      <trkpt lat="46.463544" lon="12.964731">
        <ele>1299.12</ele>
        <time>2025-03-30T14:38:14.786Z</time>
      </trkpt>
      <trkpt lat="46.462995" lon="12.964376">
        <ele>1295.71</ele>
        <time>2025-03-30T14:39:21.605Z</time>
      </trkpt>
      <trkpt lat="46.462881" lon="12.964258">
        <ele>1296.13</ele>
        <time>2025-03-30T14:39:37.171Z</time>
      </trkpt>
      <trkpt lat="46.462787" lon="12.964198">
        <ele>1295.6</ele>
        <time>2025-03-30T14:39:48.587Z</time>
      </trkpt>
      <trkpt lat="46.462751" lon="12.964175">
        <ele>1295.4</ele>
        <time>2025-03-30T14:39:52.959Z</time>
      </trkpt>
      <trkpt lat="46.462605" lon="12.964164">
        <ele>1295.52</ele>
        <time>2025-03-30T14:40:09.213Z</time>
      </trkpt>
      <trkpt lat="46.46253" lon="12.964115">
        <ele>1296.89</ele>
        <time>2025-03-30T14:40:18.357Z</time>
      </trkpt>
      <trkpt lat="46.462475" lon="12.964093">
        <ele>1297.58</ele>
        <time>2025-03-30T14:40:24.699Z</time>
      </trkpt>
      <trkpt lat="46.462403" lon="12.964107">
        <ele>1297.23</ele>
        <time>2025-03-30T14:40:32.775Z</time>
      </trkpt>
      <trkpt lat="46.462191" lon="12.964222">
        <ele>1293.55</ele>
        <time>2025-03-30T14:40:57.937Z</time>
      </trkpt>
      <trkpt lat="46.46192" lon="12.964302">
        <ele>1290.37</ele>
        <time>2025-03-30T14:41:28.683Z</time>
      </trkpt>
      <trkpt lat="46.461773" lon="12.964314">
        <ele>1293.16</ele>
        <time>2025-03-30T14:41:45.052Z</time>
      </trkpt>
      <trkpt lat="46.461635" lon="12.964384">
        <ele>1293.89</ele>
        <time>2025-03-30T14:42:01.304Z</time>
      </trkpt>
      <trkpt lat="46.461572" lon="12.964494">
        <ele>1291.49</ele>
        <time>2025-03-30T14:42:12.259Z</time>
      </trkpt>
      <trkpt lat="46.461522" lon="12.964535">
        <ele>1291.26</ele>
        <time>2025-03-30T14:42:18.643Z</time>
      </trkpt>
      <trkpt lat="46.461456" lon="12.964577">
        <ele>1291.4</ele>
        <time>2025-03-30T14:42:26.655Z</time>
      </trkpt>
      <trkpt lat="46.46134" lon="12.964613">
        <ele>1293.06</ele>
        <time>2025-03-30T14:42:39.843Z</time>
      </trkpt>
      <trkpt lat="46.461251" lon="12.964682">
        <ele>1292.99</ele>
        <time>2025-03-30T14:42:51.060Z</time>
      </trkpt>
      <trkpt lat="46.461148" lon="12.964867">
        <ele>1289.84</ele>
        <time>2025-03-30T14:43:09.277Z</time>
      </trkpt>
      <trkpt lat="46.461027" lon="12.964985">
        <ele>1289.06</ele>
        <time>2025-03-30T14:43:25.483Z</time>
      </trkpt>
      <trkpt lat="46.460897" lon="12.96508">
        <ele>1289.04</ele>
        <time>2025-03-30T14:43:41.664Z</time>
      </trkpt>
      <trkpt lat="46.460751" lon="12.965127">
        <ele>1290.77</ele>
        <time>2025-03-30T14:43:58.290Z</time>
      </trkpt>
      <trkpt lat="46.459938" lon="12.965436">
        <ele>1297.06</ele>
        <time>2025-03-30T14:45:31.727Z</time>
      </trkpt>
      <trkpt lat="46.4598" lon="12.965518">
        <ele>1297.3</ele>
        <time>2025-03-30T14:45:48.305Z</time>
      </trkpt>
      <trkpt lat="46.459564" lon="12.965801">
        <ele>1293.11</ele>
        <time>2025-03-30T14:46:22.338Z</time>
      </trkpt>
      <trkpt lat="46.459443" lon="12.965931">
        <ele>1291.57</ele>
        <time>2025-03-30T14:46:39.074Z</time>
      </trkpt>
      <trkpt lat="46.45917" lon="12.966452">
        <ele>1277.24</ele>
        <time>2025-03-30T14:47:29.209Z</time>
      </trkpt>
      <trkpt lat="46.459069" lon="12.966614">
        <ele>1272.2</ele>
        <time>2025-03-30T14:47:45.943Z</time>
      </trkpt>
      <trkpt lat="46.458997" lon="12.966695">
        <ele>1269.6</ele>
        <time>2025-03-30T14:47:56.070Z</time>
      </trkpt>
      <trkpt lat="46.458888" lon="12.966769">
        <ele>1267.22</ele>
        <time>2025-03-30T14:48:09.448Z</time>
      </trkpt>
      <trkpt lat="46.458807" lon="12.966797">
        <ele>1266.4</ele>
        <time>2025-03-30T14:48:18.705Z</time>
      </trkpt>
      <trkpt lat="46.458612" lon="12.966802">
        <ele>1266.83</ele>
        <time>2025-03-30T14:48:40.388Z</time>
      </trkpt>
      <trkpt lat="46.458481" lon="12.966783">
        <ele>1267.08</ele>
        <time>2025-03-30T14:48:55.025Z</time>
      </trkpt>
      <trkpt lat="46.458346" lon="12.966712">
        <ele>1269.29</ele>
        <time>2025-03-30T14:49:10.989Z</time>
      </trkpt>
      <trkpt lat="46.458175" lon="12.96665">
        <ele>1270.9</ele>
        <time>2025-03-30T14:49:30.585Z</time>
      </trkpt>
      <trkpt lat="46.458012" lon="12.966605">
        <ele>1271.84</ele>
        <time>2025-03-30T14:49:49.032Z</time>
      </trkpt>
      <trkpt lat="46.457882" lon="12.966542">
        <ele>1273.9</ele>
        <time>2025-03-30T14:50:04.269Z</time>
      </trkpt>
      <trkpt lat="46.457747" lon="12.966496">
        <ele>1275.15</ele>
        <time>2025-03-30T14:50:19.686Z</time>
      </trkpt>
      <trkpt lat="46.457601" lon="12.966484">
        <ele>1276.14</ele>
        <time>2025-03-30T14:50:35.944Z</time>
      </trkpt>
      <trkpt lat="46.457564" lon="12.96651">
        <ele>1275.06</ele>
        <time>2025-03-30T14:50:40.514Z</time>
      </trkpt>
      <trkpt lat="46.457436" lon="12.9666">
        <ele>1271.34</ele>
        <time>2025-03-30T14:50:56.326Z</time>
      </trkpt>
      <trkpt lat="46.457102" lon="12.966767">
        <ele>1265.2</ele>
        <time>2025-03-30T14:51:35.601Z</time>
      </trkpt>
      <trkpt lat="46.457006" lon="12.966777">
        <ele>1265.17</ele>
        <time>2025-03-30T14:51:46.301Z</time>
      </trkpt>
      <trkpt lat="46.456677" lon="12.966871">
        <ele>1264.03</ele>
        <time>2025-03-30T14:52:23.581Z</time>
      </trkpt>
      <trkpt lat="46.456516" lon="12.966888">
        <ele>1265.07</ele>
        <time>2025-03-30T14:52:41.528Z</time>
      </trkpt>
      <trkpt lat="46.456318" lon="12.966925">
        <ele>1265.69</ele>
        <time>2025-03-30T14:53:03.723Z</time>
      </trkpt>
      <trkpt lat="46.455678" lon="12.9671">
        <ele>1269.3</ele>
        <time>2025-03-30T14:54:16.130Z</time>
      </trkpt>
      <trkpt lat="46.455566" lon="12.96708">
        <ele>1272.45</ele>
        <time>2025-03-30T14:54:28.676Z</time>
      </trkpt>
      <trkpt lat="46.455359" lon="12.967171">
        <ele>1272.25</ele>
        <time>2025-03-30T14:54:52.722Z</time>
      </trkpt>
      <trkpt lat="46.45523" lon="12.9673">
        <ele>1267.83</ele>
        <time>2025-03-30T14:55:10.138Z</time>
      </trkpt>
      <trkpt lat="46.454963" lon="12.967371">
        <ele>1267.52</ele>
        <time>2025-03-30T14:55:40.317Z</time>
      </trkpt>
      <trkpt lat="46.454722" lon="12.96753">
        <ele>1261.68</ele>
        <time>2025-03-30T14:56:09.749Z</time>
      </trkpt>
      <trkpt lat="46.454509" lon="12.96758">
        <ele>1261.26</ele>
        <time>2025-03-30T14:56:33.738Z</time>
      </trkpt>
      <trkpt lat="46.454059" lon="12.967838">
        <ele>1246.99</ele>
        <time>2025-03-30T14:57:27.530Z</time>
      </trkpt>
      <trkpt lat="46.453929" lon="12.967878">
        <ele>1244.59</ele>
        <time>2025-03-30T14:57:42.304Z</time>
      </trkpt>
      <trkpt lat="46.453483" lon="12.967943">
        <ele>1241.46</ele>
        <time>2025-03-30T14:58:32.139Z</time>
      </trkpt>
      <trkpt lat="46.453327" lon="12.968001">
        <ele>1239.51</ele>
        <time>2025-03-30T14:58:50.043Z</time>
      </trkpt>
      <trkpt lat="46.453102" lon="12.967978">
        <ele>1242.24</ele>
        <time>2025-03-30T14:59:15.120Z</time>
      </trkpt>
      <trkpt lat="46.452879" lon="12.968059">
        <ele>1240.43</ele>
        <time>2025-03-30T14:59:40.677Z</time>
      </trkpt>
      <trkpt lat="46.452744" lon="12.96819">
        <ele>1236.48</ele>
        <time>2025-03-30T14:59:58.731Z</time>
      </trkpt>
      <trkpt lat="46.452647" lon="12.96823">
        <ele>1238.59</ele>
        <time>2025-03-30T15:00:09.942Z</time>
      </trkpt>
      <trkpt lat="46.452477" lon="12.968263">
        <ele>1243.8</ele>
        <time>2025-03-30T15:00:29.011Z</time>
      </trkpt>
      <trkpt lat="46.452276" lon="12.968409">
        <ele>1245.46</ele>
        <time>2025-03-30T15:00:54.000Z</time>
      </trkpt>
      <trkpt lat="46.452118" lon="12.968555">
        <ele>1245.21</ele>
        <time>2025-03-30T15:01:14.824Z</time>
      </trkpt>
      <trkpt lat="46.451895" lon="12.968785">
        <ele>1243.15</ele>
        <time>2025-03-30T15:01:45.239Z</time>
      </trkpt>
      <trkpt lat="46.45152" lon="12.969125">
        <ele>1239.57</ele>
        <time>2025-03-30T15:02:34.397Z</time>
      </trkpt>
      <trkpt lat="46.451434" lon="12.969289">
        <ele>1234.28</ele>
        <time>2025-03-30T15:02:50.184Z</time>
      </trkpt>
      <trkpt lat="46.451343" lon="12.969389">
        <ele>1231.9</ele>
        <time>2025-03-30T15:03:02.874Z</time>
      </trkpt>
      <trkpt lat="46.451274" lon="12.969417">
        <ele>1232.35</ele>
        <time>2025-03-30T15:03:10.839Z</time>
      </trkpt>
      <trkpt lat="46.451095" lon="12.969547">
        <ele>1230.4</ele>
        <time>2025-03-30T15:03:33.092Z</time>
      </trkpt>
      <trkpt lat="46.450949" lon="12.969585">
        <ele>1233.02</ele>
        <time>2025-03-30T15:03:49.583Z</time>
      </trkpt>
      <trkpt lat="46.450874" lon="12.969694">
        <ele>1229.94</ele>
        <time>2025-03-30T15:04:01.383Z</time>
      </trkpt>
      <trkpt lat="46.450771" lon="12.969908">
        <ele>1222.61</ele>
        <time>2025-03-30T15:04:21.379Z</time>
      </trkpt>
      <trkpt lat="46.450286" lon="12.970435">
        <ele>1211.67</ele>
        <time>2025-03-30T15:05:28.738Z</time>
      </trkpt>
      <trkpt lat="46.449981" lon="12.97101">
        <ele>1184.09</ele>
        <time>2025-03-30T15:06:24.325Z</time>
      </trkpt>
      <trkpt lat="46.449907" lon="12.971115">
        <ele>1178.63</ele>
        <time>2025-03-30T15:06:35.830Z</time>
      </trkpt>
      <trkpt lat="46.449832" lon="12.971187">
        <ele>1174.75</ele>
        <time>2025-03-30T15:06:45.827Z</time>
      </trkpt>
      <trkpt lat="46.44963" lon="12.971412">
        <ele>1162.83</ele>
        <time>2025-03-30T15:07:14.136Z</time>
      </trkpt>
      <trkpt lat="46.449482" lon="12.971458">
        <ele>1160.08</ele>
        <time>2025-03-30T15:07:30.963Z</time>
      </trkpt>
      <trkpt lat="46.449377" lon="12.971468">
        <ele>1158.4</ele>
        <time>2025-03-30T15:07:42.662Z</time>
      </trkpt>
      <trkpt lat="46.447639" lon="12.971217">
        <ele>1107.64</ele>
        <time>2025-03-30T15:10:56.848Z</time>
      </trkpt>
      <trkpt lat="46.44753" lon="12.971196">
        <ele>1102.71</ele>
        <time>2025-03-30T15:11:09.072Z</time>
      </trkpt>
      <trkpt lat="46.447453" lon="12.971164">
        <ele>1099.65</ele>
        <time>2025-03-30T15:11:17.976Z</time>
      </trkpt>
      <trkpt lat="46.447369" lon="12.971025">
        <ele>1098.66</ele>
        <time>2025-03-30T15:11:32.139Z</time>
      </trkpt>
      <trkpt lat="46.447238" lon="12.970445">
        <ele>1105.21</ele>
        <time>2025-03-30T15:12:18.896Z</time>
      </trkpt>
      <trkpt lat="46.447157" lon="12.970292">
        <ele>1104.44</ele>
        <time>2025-03-30T15:12:33.676Z</time>
      </trkpt>
      <trkpt lat="46.446955" lon="12.970082">
        <ele>1098</ele>
        <time>2025-03-30T15:13:01.301Z</time>
      </trkpt>
      <trkpt lat="46.44685" lon="12.970002">
        <ele>1094.11</ele>
        <time>2025-03-30T15:13:14.485Z</time>
      </trkpt>
      <trkpt lat="46.446729" lon="12.969946">
        <ele>1089.06</ele>
        <time>2025-03-30T15:13:28.605Z</time>
      </trkpt>
      <trkpt lat="46.446667" lon="12.9699">
        <ele>1086.73</ele>
        <time>2025-03-30T15:13:36.346Z</time>
      </trkpt>
      <trkpt lat="46.446192" lon="12.969313">
        <ele>1067.81</ele>
        <time>2025-03-30T15:14:45.708Z</time>
      </trkpt>
      <trkpt lat="46.446141" lon="12.969217">
        <ele>1065.73</ele>
        <time>2025-03-30T15:14:54.994Z</time>
      </trkpt>
      <trkpt lat="46.446118" lon="12.969121">
        <ele>1065.19</ele>
        <time>2025-03-30T15:15:02.780Z</time>
      </trkpt>
      <trkpt lat="46.446087" lon="12.968632">
        <ele>1067.33</ele>
        <time>2025-03-30T15:15:40.399Z</time>
      </trkpt>
      <trkpt lat="46.446072" lon="12.968556">
        <ele>1067.2</ele>
        <time>2025-03-30T15:15:46.455Z</time>
      </trkpt>
      <trkpt lat="46.446039" lon="12.968492">
        <ele>1066.54</ele>
        <time>2025-03-30T15:15:52.578Z</time>
      </trkpt>
      <trkpt lat="46.445948" lon="12.968449">
        <ele>1063.76</ele>
        <time>2025-03-30T15:16:03.218Z</time>
      </trkpt>
      <trkpt lat="46.445922" lon="12.968415">
        <ele>1063.26</ele>
        <time>2025-03-30T15:16:07.109Z</time>
      </trkpt>
      <trkpt lat="46.445856" lon="12.96829">
        <ele>1062.64</ele>
        <time>2025-03-30T15:16:19.173Z</time>
      </trkpt>
      <trkpt lat="46.445829" lon="12.968269">
        <ele>1062.06</ele>
        <time>2025-03-30T15:16:22.578Z</time>
      </trkpt>
      <trkpt lat="46.445747" lon="12.968259">
        <ele>1059.68</ele>
        <time>2025-03-30T15:16:31.726Z</time>
      </trkpt>
      <trkpt lat="46.445678" lon="12.968268">
        <ele>1057.36</ele>
        <time>2025-03-30T15:16:39.428Z</time>
      </trkpt>
      <trkpt lat="46.44564" lon="12.968257">
        <ele>1056.38</ele>
        <time>2025-03-30T15:16:43.736Z</time>
      </trkpt>
      <trkpt lat="46.445613" lon="12.96822">
        <ele>1056.24</ele>
        <time>2025-03-30T15:16:47.864Z</time>
      </trkpt>
      <trkpt lat="46.445537" lon="12.967865">
        <ele>1061.43</ele>
        <time>2025-03-30T15:17:16.342Z</time>
      </trkpt>
      <trkpt lat="46.445512" lon="12.967773">
        <ele>1062.89</ele>
        <time>2025-03-30T15:17:23.918Z</time>
      </trkpt>
      <trkpt lat="46.445513" lon="12.967677">
        <ele>1065.09</ele>
        <time>2025-03-30T15:17:31.273Z</time>
      </trkpt>
      <trkpt lat="46.445562" lon="12.96753">
        <ele>1069.77</ele>
        <time>2025-03-30T15:17:43.782Z</time>
      </trkpt>
      <trkpt lat="46.445553" lon="12.967475">
        <ele>1070.8</ele>
        <time>2025-03-30T15:17:48.112Z</time>
      </trkpt>
      <trkpt lat="46.445523" lon="12.967415">
        <ele>1071.33</ele>
        <time>2025-03-30T15:17:53.791Z</time>
      </trkpt>
      <trkpt lat="46.445394" lon="12.967338">
        <ele>1069.48</ele>
        <time>2025-03-30T15:18:09.298Z</time>
      </trkpt>
      <trkpt lat="46.445245" lon="12.967292">
        <ele>1066.29</ele>
        <time>2025-03-30T15:18:26.234Z</time>
      </trkpt>
      <trkpt lat="46.444869" lon="12.967266">
        <ele>1056.99</ele>
        <time>2025-03-30T15:19:08.085Z</time>
      </trkpt>
      <trkpt lat="46.444826" lon="12.967232">
        <ele>1056.4</ele>
        <time>2025-03-30T15:19:13.529Z</time>
      </trkpt>
      <trkpt lat="46.444789" lon="12.967187">
        <ele>1056.13</ele>
        <time>2025-03-30T15:19:18.896Z</time>
      </trkpt>
      <trkpt lat="46.44476" lon="12.967128">
        <ele>1056.13</ele>
        <time>2025-03-30T15:19:24.448Z</time>
      </trkpt>
      <trkpt lat="46.444743" lon="12.967066">
        <ele>1056.41</ele>
        <time>2025-03-30T15:19:29.560Z</time>
      </trkpt>
      <trkpt lat="46.444717" lon="12.966795">
        <ele>1058.94</ele>
        <time>2025-03-30T15:19:50.521Z</time>
      </trkpt>
      <trkpt lat="46.444607" lon="12.966215">
        <ele>1063.02</ele>
        <time>2025-03-30T15:20:36.606Z</time>
      </trkpt>
      <trkpt lat="46.444587" lon="12.966034">
        <ele>1064.76</ele>
        <time>2025-03-30T15:20:50.649Z</time>
      </trkpt>
      <trkpt lat="46.444576" lon="12.965849">
        <ele>1066.74</ele>
        <time>2025-03-30T15:21:04.874Z</time>
      </trkpt>
      <trkpt lat="46.444578" lon="12.965759">
        <ele>1068</ele>
        <time>2025-03-30T15:21:11.772Z</time>
      </trkpt>
      <trkpt lat="46.444561" lon="12.965718">
        <ele>1067.83</ele>
        <time>2025-03-30T15:21:15.437Z</time>
      </trkpt>
      <trkpt lat="46.444564" lon="12.965609">
        <ele>1069.32</ele>
        <time>2025-03-30T15:21:23.794Z</time>
      </trkpt>
      <trkpt lat="46.444553" lon="12.965546">
        <ele>1069.63</ele>
        <time>2025-03-30T15:21:28.772Z</time>
      </trkpt>
      <trkpt lat="46.444522" lon="12.965545">
        <ele>1068.36</ele>
        <time>2025-03-30T15:21:32.219Z</time>
      </trkpt>
      <trkpt lat="46.444505" lon="12.965377">
        <ele>1070.58</ele>
        <time>2025-03-30T15:21:45.227Z</time>
      </trkpt>
      <trkpt lat="46.444443" lon="12.964935">
        <ele>1076.43</ele>
        <time>2025-03-30T15:22:19.782Z</time>
      </trkpt>
      <trkpt lat="46.444348" lon="12.964605">
        <ele>1079.32</ele>
        <time>2025-03-30T15:22:47.180Z</time>
      </trkpt>
      <trkpt lat="46.444343" lon="12.964471">
        <ele>1080.11</ele>
        <time>2025-03-30T15:22:57.460Z</time>
      </trkpt>
      <trkpt lat="46.444334" lon="12.964213">
        <ele>1081.65</ele>
        <time>2025-03-30T15:23:17.250Z</time>
      </trkpt>
      <trkpt lat="46.444236" lon="12.963698">
        <ele>1082.65</ele>
        <time>2025-03-30T15:23:58.180Z</time>
      </trkpt>
      <trkpt lat="46.444178" lon="12.963578">
        <ele>1082</ele>
        <time>2025-03-30T15:24:09.409Z</time>
      </trkpt>
      <trkpt lat="46.444066" lon="12.963669">
        <ele>1078.75</ele>
        <time>2025-03-30T15:24:23.679Z</time>
      </trkpt>
      <trkpt lat="46.444016" lon="12.963596">
        <ele>1077.98</ele>
        <time>2025-03-30T15:24:31.564Z</time>
      </trkpt>
      <trkpt lat="46.443944" lon="12.963551">
        <ele>1076.53</ele>
        <time>2025-03-30T15:24:40.279Z</time>
      </trkpt>
      <trkpt lat="46.443914" lon="12.963451">
        <ele>1076.42</ele>
        <time>2025-03-30T15:24:48.634Z</time>
      </trkpt>
    </trkseg>
  </trk>
</gpx>
