<?xml version="1.0" encoding="UTF-8"?>
<gpx creator="https://gpx.studio" version="1.1" schemaLocation="http://www.topografix.com/GPX/1/1 http://www.topografix.com/GPX/1/1/gpx.xsd http://www.garmin.com/xmlschemas/GpxExtensions/v3 http://www.garmin.com/xmlschemas/GpxExtensionsv3.xsd http://www.garmin.com/xmlschemas/TrackPointExtension/v1 http://www.garmin.com/xmlschemas/TrackPointExtensionv1.xsd http://www.garmin.com/xmlschemas/PowerExtension/v1 http://www.garmin.com/xmlschemas/PowerExtensionv1.xsd http://www.topografix.com/GPX/gpx_style/0/2 http://www.topografix.com/GPX/gpx_style/0/2/gpx_style.xsd" xmlns="http://www.topografix.com/GPX/1/1" xmlns:xsi="http://www.w3.org/2001/XMLSchema-instance" xsi:schemaLocation="http://www.topografix.com/GPX/1/1 http://www.topografix.com/GPX/1/1/gpx.xsd http://www.garmin.com/xmlschemas/GpxExtensions/v3 http://www.garmin.com/xmlschemas/GpxExtensionsv3.xsd http://www.garmin.com/xmlschemas/TrackPointExtension/v1 http://www.garmin.com/xmlschemas/TrackPointExtensionv1.xsd http://www.garmin.com/xmlschemas/PowerExtension/v1 http://www.garmin.com/xmlschemas/PowerExtensionv1.xsd http://www.topografix.com/GPX/gpx_style/0/2 http://www.topografix.com/GPX/gpx_style/0/2/gpx_style.xsd" xmlns:gpxtpx="http://www.garmin.com/xmlschemas/TrackPointExtension/v1" xmlns:gpxx="http://www.garmin.com/xmlschemas/GpxExtensions/v3" xmlns:gpxpx="http://www.garmin.com/xmlschemas/PowerExtension/v1" xmlns:gpx_style="http://www.topografix.com/GPX/gpx_style/0/2">
  <metadata>
    <name>LAU-IV</name>
    <author>
      <name>gpx.studio</name>
      <link href="https://gpx.studio"/>
    </author>
  </metadata>
  <trk>
    <name>LAU-IV</name>
    <trkseg>
      <trkpt lat="46.422715" lon="12.931605">
        <ele>719.0253132814781</ele>
        <time>2025-03-30T08:48:51.199Z</time>
      </trkpt>
      <trkpt lat="46.422531" lon="12.932448">
        <ele>718.6410436997198</ele>
        <time>2025-03-30T08:49:52.819Z</time>
      </trkpt>
      <trkpt lat="46.422478" lon="12.932581">
        <ele>718.9135296632555</ele>
        <time>2025-03-30T08:50:03.524Z</time>
      </trkpt>
      <trkpt lat="46.422343" lon="12.932845">
        <ele>719.9220077954707</ele>
        <time>2025-03-30T08:50:26.430Z</time>
      </trkpt>
      <trkpt lat="46.422117" lon="12.933537">
        <ele>722.0727833786336</ele>
        <time>2025-03-30T08:51:19.792Z</time>
      </trkpt>
      <trkpt lat="46.421988" lon="12.933912">
        <ele>723.0747008012272</ele>
        <time>2025-03-30T08:51:48.998Z</time>
      </trkpt>
      <trkpt lat="46.42188" lon="12.934348">
        <ele>722.4480596414248</ele>
        <time>2025-03-30T08:52:21.283Z</time>
      </trkpt>
      <trkpt lat="46.421808" lon="12.934706">
        <ele>720.7336826132537</ele>
        <time>2025-03-30T08:52:47.271Z</time>
      </trkpt>
      <trkpt lat="46.421784" lon="12.934795">
        <ele>720.3261114455013</ele>
        <time>2025-03-30T08:52:53.930Z</time>
      </trkpt>
      <trkpt lat="46.421709" lon="12.935004">
        <ele>719.3551969376404</ele>
        <time>2025-03-30T08:53:10.350Z</time>
      </trkpt>
      <trkpt lat="46.421694" lon="12.935084">
        <ele>719.1060002714869</ele>
        <time>2025-03-30T08:53:16.127Z</time>
      </trkpt>
      <trkpt lat="46.421694" lon="12.935162">
        <ele>718.9150909572538</ele>
        <time>2025-03-30T08:53:21.562Z</time>
      </trkpt>
      <trkpt lat="46.42171" lon="12.935205">
        <ele>718.9208051399906</ele>
        <time>2025-03-30T08:53:24.967Z</time>
      </trkpt>
      <trkpt lat="46.421766" lon="12.935267">
        <ele>719.2664100022993</ele>
        <time>2025-03-30T08:53:32.088Z</time>
      </trkpt>
      <trkpt lat="46.421797" lon="12.935318">
        <ele>719.4728180253587</ele>
        <time>2025-03-30T08:53:36.826Z</time>
      </trkpt>
      <trkpt lat="46.421851" lon="12.935586">
        <ele>720.0913968536298</ele>
        <time>2025-03-30T08:53:56.287Z</time>
      </trkpt>
      <trkpt lat="46.421857" lon="12.935715">
        <ele>720.6258781082207</ele>
        <time>2025-03-30T08:54:05.298Z</time>
      </trkpt>
      <trkpt lat="46.421832" lon="12.935794">
        <ele>720.9139163997606</ele>
        <time>2025-03-30T08:54:11.356Z</time>
      </trkpt>
      <trkpt lat="46.421786" lon="12.935854">
        <ele>720.8316580760069</ele>
        <time>2025-03-30T08:54:17.610Z</time>
      </trkpt>
      <trkpt lat="46.42168" lon="12.935959">
        <ele>720.6073061505355</ele>
        <time>2025-03-30T08:54:30.588Z</time>
      </trkpt>
      <trkpt lat="46.421637" lon="12.936078">
        <ele>721.6008189216269</ele>
        <time>2025-03-30T08:54:40.134Z</time>
      </trkpt>
      <trkpt lat="46.421644" lon="12.936251">
        <ele>724.6565726198497</ele>
        <time>2025-03-30T08:54:52.447Z</time>
      </trkpt>
      <trkpt lat="46.421709" lon="12.936385">
        <ele>727.721718713874</ele>
        <time>2025-03-30T08:55:04.089Z</time>
      </trkpt>
      <trkpt lat="46.421734" lon="12.936509">
        <ele>729.9693017659006</ele>
        <time>2025-03-30T08:55:13.268Z</time>
      </trkpt>
      <trkpt lat="46.421718" lon="12.936608">
        <ele>731.7580145910613</ele>
        <time>2025-03-30T08:55:20.493Z</time>
      </trkpt>
      <trkpt lat="46.421661" lon="12.936696">
        <ele>733.4578282998465</ele>
        <time>2025-03-30T08:55:29.073Z</time>
      </trkpt>
      <trkpt lat="46.421629" lon="12.936798">
        <ele>735.562363004919</ele>
        <time>2025-03-30T08:55:37.035Z</time>
      </trkpt>
      <trkpt lat="46.421629" lon="12.936908">
        <ele>738.1396866075795</ele>
        <time>2025-03-30T08:55:44.851Z</time>
      </trkpt>
      <trkpt lat="46.421746" lon="12.937083">
        <ele>741.4983600750129</ele>
        <time>2025-03-30T08:56:02.173Z</time>
      </trkpt>
      <trkpt lat="46.421777" lon="12.937203">
        <ele>743.4118690738225</ele>
        <time>2025-03-30T08:56:11.278Z</time>
      </trkpt>
      <trkpt lat="46.421788" lon="12.937431">
        <ele>747.531956763706</ele>
        <time>2025-03-30T08:56:27.518Z</time>
      </trkpt>
      <trkpt lat="46.421768" lon="12.937549">
        <ele>750.3474374586237</ele>
        <time>2025-03-30T08:56:36.152Z</time>
      </trkpt>
      <trkpt lat="46.42175900936127" lon="12.937558770179749">
        <ele>750.7223121705006</ele>
        <time>2025-03-30T08:56:36.159Z</time>
      </trkpt>
      <trkpt lat="46.42175328731537" lon="12.937585592269897">
        <ele>751.4656013777019</ele>
        <time>2025-03-30T08:56:39.159Z</time>
      </trkpt>
      <trkpt lat="46.42174959182739" lon="12.937591671943665">
        <ele>751.6705641940475</ele>
        <time>2025-03-30T08:56:40.159Z</time>
      </trkpt>
      <trkpt lat="46.42174732685089" lon="12.937593936920166">
        <ele>751.7604338751646</ele>
        <time>2025-03-30T08:56:41.159Z</time>
      </trkpt>
      <trkpt lat="46.421746373176575" lon="12.937611937522888">
        <ele>752.2326396448558</ele>
        <time>2025-03-30T08:56:43.159Z</time>
      </trkpt>
      <trkpt lat="46.42175269126892" lon="12.937615990638733">
        <ele>752.2403021093846</ele>
        <time>2025-03-30T08:56:46.159Z</time>
      </trkpt>
      <trkpt lat="46.42175590991974" lon="12.937617421150208">
        <ele>752.2269233941859</ele>
        <time>2025-03-30T08:56:47.159Z</time>
      </trkpt>
      <trkpt lat="46.4217574596405" lon="12.937624454498291">
        <ele>752.3850779913141</ele>
        <time>2025-03-30T08:56:49.159Z</time>
      </trkpt>
      <trkpt lat="46.42175900936127" lon="12.937626838684082">
        <ele>752.4219507823548</ele>
        <time>2025-03-30T08:56:50.159Z</time>
      </trkpt>
      <trkpt lat="46.42175781726837" lon="12.9376300573349">
        <ele>752.5247243539636</ele>
        <time>2025-03-30T08:56:51.159Z</time>
      </trkpt>
      <trkpt lat="46.421746492385864" lon="12.937660098075867">
        <ele>753.5019870323731</ele>
        <time>2025-03-30T08:56:54.159Z</time>
      </trkpt>
      <trkpt lat="46.42174446582794" lon="12.937674760818481">
        <ele>753.9255656075023</ele>
        <time>2025-03-30T08:56:55.159Z</time>
      </trkpt>
      <trkpt lat="46.42175245285034" lon="12.937724709510803">
        <ele>755.1623048922904</ele>
        <time>2025-03-30T08:56:58.159Z</time>
      </trkpt>
      <trkpt lat="46.421756982803345" lon="12.937739729881287">
        <ele>755.4975149879955</ele>
        <time>2025-03-30T08:56:59.159Z</time>
      </trkpt>
      <trkpt lat="46.42176008224487" lon="12.937753677368164">
        <ele>755.8283753572366</ele>
        <time>2025-03-30T08:57:00.159Z</time>
      </trkpt>
      <trkpt lat="46.421767711639404" lon="12.937798857688904">
        <ele>756.9926448512601</ele>
        <time>2025-03-30T08:57:02.159Z</time>
      </trkpt>
      <trkpt lat="46.42178738117218" lon="12.937849640846252">
        <ele>758.0988041741783</ele>
        <time>2025-03-30T08:57:05.159Z</time>
      </trkpt>
      <trkpt lat="46.42179298400879" lon="12.937905550003052">
        <ele>759.7502544784329</ele>
        <time>2025-03-30T08:57:07.159Z</time>
      </trkpt>
      <trkpt lat="46.421802401542664" lon="12.937938690185547">
        <ele>760.5922512998767</ele>
        <time>2025-03-30T08:57:09.159Z</time>
      </trkpt>
      <trkpt lat="46.421818017959595" lon="12.937965154647827">
        <ele>761.1218674109017</ele>
        <time>2025-03-30T08:57:11.159Z</time>
      </trkpt>
      <trkpt lat="46.42182278633118" lon="12.937980890274048">
        <ele>761.560109121438</ele>
        <time>2025-03-30T08:57:12.159Z</time>
      </trkpt>
      <trkpt lat="46.42182016372681" lon="12.93800139427185">
        <ele>762.3350777224116</ele>
        <time>2025-03-30T08:57:13.159Z</time>
      </trkpt>
      <trkpt lat="46.42182469367981" lon="12.938039302825928">
        <ele>763.5742605210758</ele>
        <time>2025-03-30T08:57:15.159Z</time>
      </trkpt>
      <trkpt lat="46.42181885242462" lon="12.938074111938477">
        <ele>765.0003809883732</ele>
        <time>2025-03-30T08:57:17.159Z</time>
      </trkpt>
      <trkpt lat="46.421818017959595" lon="12.938088059425354">
        <ele>765.5387156560555</ele>
        <time>2025-03-30T08:57:18.159Z</time>
      </trkpt>
      <trkpt lat="46.42182123661041" lon="12.938137531280518">
        <ele>767.3778461129197</ele>
        <time>2025-03-30T08:57:21.159Z</time>
      </trkpt>
      <trkpt lat="46.421836733818054" lon="12.938171029090881">
        <ele>768.4062451607549</ele>
        <time>2025-03-30T08:57:23.159Z</time>
      </trkpt>
      <trkpt lat="46.42184269428253" lon="12.938183069229126">
        <ele>768.7662554119249</ele>
        <time>2025-03-30T08:57:24.159Z</time>
      </trkpt>
      <trkpt lat="46.42184388637543" lon="12.93819272518158">
        <ele>769.1338130158374</ele>
        <time>2025-03-30T08:57:25.159Z</time>
      </trkpt>
      <trkpt lat="46.421875" lon="12.938243508338928">
        <ele>770.5528819974996</ele>
        <time>2025-03-30T08:57:29.159Z</time>
      </trkpt>
      <trkpt lat="46.42187786102295" lon="12.938258171081543">
        <ele>771.105829012408</ele>
        <time>2025-03-30T08:57:30.159Z</time>
      </trkpt>
      <trkpt lat="46.421886563301086" lon="12.938270330429077">
        <ele>771.445279772177</ele>
        <time>2025-03-30T08:57:31.159Z</time>
      </trkpt>
      <trkpt lat="46.42189419269562" lon="12.938284397125244">
        <ele>771.8933026716413</ele>
        <time>2025-03-30T08:57:32.159Z</time>
      </trkpt>
      <trkpt lat="46.42190432548523" lon="12.938297033309937">
        <ele>772.2331954093631</ele>
        <time>2025-03-30T08:57:33.159Z</time>
      </trkpt>
      <trkpt lat="46.42191004753113" lon="12.938326120376587">
        <ele>773.3441928780101</ele>
        <time>2025-03-30T08:57:35.159Z</time>
      </trkpt>
      <trkpt lat="46.42192614078522" lon="12.938351392745972">
        <ele>774.1404078711937</ele>
        <time>2025-03-30T08:57:37.159Z</time>
      </trkpt>
      <trkpt lat="46.42193937301636" lon="12.93836510181427">
        <ele>774.515392878527</ele>
        <time>2025-03-30T08:57:38.159Z</time>
      </trkpt>
      <trkpt lat="46.42196547985077" lon="12.938387393951416">
        <ele>774.9151556550737</ele>
        <time>2025-03-30T08:57:40.159Z</time>
      </trkpt>
      <trkpt lat="46.42198932170868" lon="12.93841004371643">
        <ele>775.3285261708932</ele>
        <time>2025-03-30T08:57:42.159Z</time>
      </trkpt>
      <trkpt lat="46.421998620033264" lon="12.93843936920166">
        <ele>776.3056735403921</ele>
        <time>2025-03-30T08:57:44.159Z</time>
      </trkpt>
      <trkpt lat="46.422009110450745" lon="12.938456654548645">
        <ele>776.7819622984331</ele>
        <time>2025-03-30T08:57:47.159Z</time>
      </trkpt>
      <trkpt lat="46.422022342681885" lon="12.938482642173767">
        <ele>777.502234965813</ele>
        <time>2025-03-30T08:57:50.159Z</time>
      </trkpt>
      <trkpt lat="46.4220290184021" lon="12.93848717212677">
        <ele>777.540895888351</ele>
        <time>2025-03-30T08:57:51.159Z</time>
      </trkpt>
      <trkpt lat="46.42203664779663" lon="12.938493251800537">
        <ele>777.6207951265084</ele>
        <time>2025-03-30T08:57:52.159Z</time>
      </trkpt>
      <trkpt lat="46.42203617095947" lon="12.938515186309814">
        <ele>778.4624702548593</ele>
        <time>2025-03-30T08:57:54.159Z</time>
      </trkpt>
      <trkpt lat="46.422043561935425" lon="12.938526153564453">
        <ele>778.7381588896881</ele>
        <time>2025-03-30T08:57:55.159Z</time>
      </trkpt>
      <trkpt lat="46.422057151794434" lon="12.93858289718628">
        <ele>780.3647985492466</ele>
        <time>2025-03-30T08:57:58.159Z</time>
      </trkpt>
      <trkpt lat="46.422078013420105" lon="12.93861472606659">
        <ele>780.9109034871688</ele>
        <time>2025-03-30T08:58:01.159Z</time>
      </trkpt>
      <trkpt lat="46.422091007232666" lon="12.938634157180786">
        <ele>781.2390567038216</ele>
        <time>2025-03-30T08:58:03.159Z</time>
      </trkpt>
      <trkpt lat="46.42209804058075" lon="12.938640475273132">
        <ele>781.2730748953303</ele>
        <time>2025-03-30T08:58:04.159Z</time>
      </trkpt>
      <trkpt lat="46.42210853099823" lon="12.938654780387878">
        <ele>781.4603110346948</ele>
        <time>2025-03-30T08:58:06.159Z</time>
      </trkpt>
      <trkpt lat="46.422109603881836" lon="12.938663363456726">
        <ele>781.6785510912542</ele>
        <time>2025-03-30T08:58:07.159Z</time>
      </trkpt>
      <trkpt lat="46.42211663722992" lon="12.938669919967651">
        <ele>781.7192359009761</ele>
        <time>2025-03-30T08:58:08.159Z</time>
      </trkpt>
      <trkpt lat="46.4221054315567" lon="12.938690662384033">
        <ele>782.5265064217153</ele>
        <time>2025-03-30T08:58:10.159Z</time>
      </trkpt>
      <trkpt lat="46.4220826625824" lon="12.938717007637024">
        <ele>783.7249672992159</ele>
        <time>2025-03-30T08:58:12.159Z</time>
      </trkpt>
      <trkpt lat="46.42207646369934" lon="12.938721776008606">
        <ele>783.968395677053</ele>
        <time>2025-03-30T08:58:13.159Z</time>
      </trkpt>
      <trkpt lat="46.422067046165466" lon="12.938724279403687">
        <ele>784.2142372901509</ele>
        <time>2025-03-30T08:58:14.159Z</time>
      </trkpt>
      <trkpt lat="46.422064423561096" lon="12.938734650611877">
        <ele>784.4975551007062</ele>
        <time>2025-03-30T08:58:16.159Z</time>
      </trkpt>
      <trkpt lat="46.4220689535141" lon="12.938746929168701">
        <ele>784.6838185830081</ele>
        <time>2025-03-30T08:58:17.159Z</time>
      </trkpt>
      <trkpt lat="46.42208552360535" lon="12.938769698143005">
        <ele>784.8914931905945</ele>
        <time>2025-03-30T08:58:20.159Z</time>
      </trkpt>
      <trkpt lat="46.42208993434906" lon="12.938772439956665">
        <ele>784.8746204611965</ele>
        <time>2025-03-30T08:58:21.159Z</time>
      </trkpt>
      <trkpt lat="46.42208015918732" lon="12.93877398967743">
        <ele>785.0876576400888</ele>
        <time>2025-03-30T08:58:23.159Z</time>
      </trkpt>
      <trkpt lat="46.4220666885376" lon="12.938781023025513">
        <ele>785.4886588579343</ele>
        <time>2025-03-30T08:58:25.159Z</time>
      </trkpt>
      <trkpt lat="46.42204928398132" lon="12.938778758049011">
        <ele>785.7163181794346</ele>
        <time>2025-03-30T08:58:28.159Z</time>
      </trkpt>
      <trkpt lat="46.42204821109772" lon="12.938771367073059">
        <ele>785.5690270076511</ele>
        <time>2025-03-30T08:58:29.159Z</time>
      </trkpt>
      <trkpt lat="46.42204666137695" lon="12.93876838684082">
        <ele>785.5266280301851</ele>
        <time>2025-03-30T08:58:30.159Z</time>
      </trkpt>
      <trkpt lat="46.42204451560974" lon="12.938766479492188">
        <ele>785.5170456839263</ele>
        <time>2025-03-30T08:58:31.159Z</time>
      </trkpt>
      <trkpt lat="46.422035694122314" lon="12.938765168190002">
        <ele>785.6222040492114</ele>
        <time>2025-03-30T08:58:32.159Z</time>
      </trkpt>
      <trkpt lat="46.422030448913574" lon="12.938765168190002">
        <ele>785.7019903943412</ele>
        <time>2025-03-30T08:58:33.159Z</time>
      </trkpt>
      <trkpt lat="46.42201888561249" lon="12.938767671585083">
        <ele>785.93329965896</ele>
        <time>2025-03-30T08:58:34.159Z</time>
      </trkpt>
      <trkpt lat="46.42200481891632" lon="12.93876326084137">
        <ele>786.0496331575562</ele>
        <time>2025-03-30T08:58:36.159Z</time>
      </trkpt>
      <trkpt lat="46.42197942733765" lon="12.938769102096558">
        <ele>786.52611400527</ele>
        <time>2025-03-30T08:58:39.159Z</time>
      </trkpt>
      <trkpt lat="46.42193269729614" lon="12.938775181770325">
        <ele>787.2322204973808</ele>
        <time>2025-03-30T08:58:44.159Z</time>
      </trkpt>
      <trkpt lat="46.42192625999451" lon="12.938783288002014">
        <ele>787.4650638238656</ele>
        <time>2025-03-30T08:58:45.159Z</time>
      </trkpt>
      <trkpt lat="46.42191696166992" lon="12.938791990280151">
        <ele>787.7368988301548</ele>
        <time>2025-03-30T08:58:46.159Z</time>
      </trkpt>
      <trkpt lat="46.42187988758087" lon="12.938809394836426">
        <ele>788.4411177075575</ele>
        <time>2025-03-30T08:58:49.159Z</time>
      </trkpt>
      <trkpt lat="46.42186903953552" lon="12.938815832138062">
        <ele>788.670338684244</ele>
        <time>2025-03-30T08:58:50.159Z</time>
      </trkpt>
      <trkpt lat="46.42185866832733" lon="12.938824534416199">
        <ele>788.9565608385667</ele>
        <time>2025-03-30T08:58:51.159Z</time>
      </trkpt>
      <trkpt lat="46.42184793949127" lon="12.938829779624939">
        <ele>789.1672193319806</ele>
        <time>2025-03-30T08:58:52.159Z</time>
      </trkpt>
      <trkpt lat="46.4218213558197" lon="12.938839793205261">
        <ele>789.6251671438657</ele>
        <time>2025-03-30T08:58:54.159Z</time>
      </trkpt>
      <trkpt lat="46.421812295913696" lon="12.938843488693237">
        <ele>789.7802291611101</ele>
        <time>2025-03-30T08:58:55.159Z</time>
      </trkpt>
      <trkpt lat="46.42176282405853" lon="12.938883543014526">
        <ele>791.2320123886051</ele>
        <time>2025-03-30T08:59:01.159Z</time>
      </trkpt>
      <trkpt lat="46.42175102233887" lon="12.938895344734192">
        <ele>791.6749779654488</ele>
        <time>2025-03-30T08:59:02.159Z</time>
      </trkpt>
      <trkpt lat="46.42172169685364" lon="12.938915848731995">
        <ele>792.56456741329</ele>
        <time>2025-03-30T08:59:05.159Z</time>
      </trkpt>
      <trkpt lat="46.42167830467224" lon="12.938960194587708">
        <ele>794.363756340507</ele>
        <time>2025-03-30T08:59:09.159Z</time>
      </trkpt>
      <trkpt lat="46.42167115211487" lon="12.93896484375">
        <ele>794.5845153574473</ele>
        <time>2025-03-30T08:59:10.159Z</time>
      </trkpt>
      <trkpt lat="46.42166554927826" lon="12.93896996974945">
        <ele>794.8083658049648</ele>
        <time>2025-03-30T08:59:11.159Z</time>
      </trkpt>
      <trkpt lat="46.42164206504822" lon="12.938974499702454">
        <ele>795.1860302179666</ele>
        <time>2025-03-30T08:59:15.159Z</time>
      </trkpt>
      <trkpt lat="46.42163562774658" lon="12.938968181610107">
        <ele>795.0286658917564</ele>
        <time>2025-03-30T08:59:16.159Z</time>
      </trkpt>
      <trkpt lat="46.42160952091217" lon="12.938952922821045">
        <ele>794.7493203162288</ele>
        <time>2025-03-30T08:59:19.159Z</time>
      </trkpt>
      <trkpt lat="46.42158329486847" lon="12.938931941986084">
        <ele>794.3089605677866</ele>
        <time>2025-03-30T08:59:21.159Z</time>
      </trkpt>
      <trkpt lat="46.421568632125854" lon="12.938929319381714">
        <ele>794.383055032107</ele>
        <time>2025-03-30T08:59:22.159Z</time>
      </trkpt>
      <trkpt lat="46.421536684036255" lon="12.938939929008484">
        <ele>795.0883910058601</ele>
        <time>2025-03-30T08:59:25.159Z</time>
      </trkpt>
      <trkpt lat="46.42152488231659" lon="12.938941955566406">
        <ele>795.3013594544402</ele>
        <time>2025-03-30T08:59:27.159Z</time>
      </trkpt>
      <trkpt lat="46.42151653766632" lon="12.93894636631012">
        <ele>795.5677566078074</ele>
        <time>2025-03-30T08:59:28.159Z</time>
      </trkpt>
      <trkpt lat="46.42149746417999" lon="12.938943266868591">
        <ele>795.7341023642364</ele>
        <time>2025-03-30T08:59:31.159Z</time>
      </trkpt>
      <trkpt lat="46.42149043083191" lon="12.938944339752197">
        <ele>795.8692044347318</ele>
        <time>2025-03-30T08:59:32.159Z</time>
      </trkpt>
      <trkpt lat="46.42146623134613" lon="12.93894338607788">
        <ele>796.1870222289721</ele>
        <time>2025-03-30T08:59:34.159Z</time>
      </trkpt>
      <trkpt lat="46.42143392562866" lon="12.938940644264221">
        <ele>796.6118638048144</ele>
        <time>2025-03-30T08:59:37.159Z</time>
      </trkpt>
      <trkpt lat="46.42142617702484" lon="12.938940405845642">
        <ele>796.727595346865</ele>
        <time>2025-03-30T08:59:38.159Z</time>
      </trkpt>
      <trkpt lat="46.42139983177185" lon="12.93893313407898">
        <ele>796.9664721276812</ele>
        <time>2025-03-30T08:59:41.159Z</time>
      </trkpt>
      <trkpt lat="46.421390771865845" lon="12.93892753124237">
        <ele>796.9784901353182</ele>
        <time>2025-03-30T08:59:42.159Z</time>
      </trkpt>
      <trkpt lat="46.42137396335602" lon="12.938920974731445">
        <ele>797.1265378067227</ele>
        <time>2025-03-30T08:59:44.159Z</time>
      </trkpt>
      <trkpt lat="46.421351075172424" lon="12.938921928405762">
        <ele>797.6314049337578</ele>
        <time>2025-03-30T08:59:46.159Z</time>
      </trkpt>
      <trkpt lat="46.421342968940735" lon="12.938926339149475">
        <ele>797.9480386627534</ele>
        <time>2025-03-30T08:59:47.159Z</time>
      </trkpt>
      <trkpt lat="46.421321868896484" lon="12.938924312591553">
        <ele>798.3827811617742</ele>
        <time>2025-03-30T08:59:49.159Z</time>
      </trkpt>
      <trkpt lat="46.42130887508392" lon="12.93892526626587">
        <ele>798.7115754074795</ele>
        <time>2025-03-30T08:59:50.159Z</time>
      </trkpt>
      <trkpt lat="46.42128050327301" lon="12.938929557800293">
        <ele>799.4997953605657</ele>
        <time>2025-03-30T08:59:53.159Z</time>
      </trkpt>
      <trkpt lat="46.42125415802002" lon="12.938933968544006">
        <ele>800.2544239925978</ele>
        <time>2025-03-30T08:59:55.159Z</time>
      </trkpt>
      <trkpt lat="46.421245098114014" lon="12.938931584358215">
        <ele>800.42170356615</ele>
        <time>2025-03-30T08:59:56.159Z</time>
      </trkpt>
      <trkpt lat="46.42122721672058" lon="12.938918948173523">
        <ele>800.5797307398191</ele>
        <time>2025-03-30T08:59:58.159Z</time>
      </trkpt>
      <trkpt lat="46.421215295791626" lon="12.938914895057678">
        <ele>800.7817338203082</ele>
        <time>2025-03-30T08:59:59.159Z</time>
      </trkpt>
      <trkpt lat="46.4211927652359" lon="12.93891716003418">
        <ele>801.3777559311251</ele>
        <time>2025-03-30T09:00:01.159Z</time>
      </trkpt>
      <trkpt lat="46.42118549346924" lon="12.93891429901123">
        <ele>801.4965215671016</ele>
        <time>2025-03-30T09:00:02.159Z</time>
      </trkpt>
      <trkpt lat="46.42116069793701" lon="12.938920021057129">
        <ele>802.2271001242518</ele>
        <time>2025-03-30T09:00:05.159Z</time>
      </trkpt>
      <trkpt lat="46.421138644218445" lon="12.938937067985535">
        <ele>803.0867905572477</ele>
        <time>2025-03-30T09:00:07.159Z</time>
      </trkpt>
      <trkpt lat="46.421127915382385" lon="12.938945889472961">
        <ele>803.4979786619889</ele>
        <time>2025-03-30T09:00:08.159Z</time>
      </trkpt>
      <trkpt lat="46.42110896110535" lon="12.938964128494263">
        <ele>804.2365201399234</ele>
        <time>2025-03-30T09:00:10.159Z</time>
      </trkpt>
      <trkpt lat="46.42110323905945" lon="12.938976049423218">
        <ele>804.5552880371719</ele>
        <time>2025-03-30T09:00:11.159Z</time>
      </trkpt>
      <trkpt lat="46.42109656333923" lon="12.938996434211731">
        <ele>805.035899638685</ele>
        <time>2025-03-30T09:00:13.159Z</time>
      </trkpt>
      <trkpt lat="46.42108678817749" lon="12.939009189605713">
        <ele>805.44067493663</ele>
        <time>2025-03-30T09:00:14.159Z</time>
      </trkpt>
      <trkpt lat="46.421071" lon="12.939004">
        <ele>805.6796820884387</ele>
        <time>2025-03-30T09:00:15.822Z</time>
      </trkpt>
      <trkpt lat="46.420989" lon="12.939149">
        <ele>808.9055961613058</ele>
        <time>2025-03-30T09:00:29.105Z</time>
      </trkpt>
      <trkpt lat="46.420841" lon="12.939541">
        <ele>815.4797460849468</ele>
        <time>2025-03-30T09:01:00.760Z</time>
      </trkpt>
      <trkpt lat="46.420735" lon="12.939858">
        <ele>819.0919728391776</ele>
        <time>2025-03-30T09:01:25.714Z</time>
      </trkpt>
      <trkpt lat="46.420592" lon="12.940115">
        <ele>820.6523993927296</ele>
        <time>2025-03-30T09:01:49.106Z</time>
      </trkpt>
      <trkpt lat="46.420467" lon="12.940447">
        <ele>823.0683417909792</ele>
        <time>2025-03-30T09:02:15.899Z</time>
      </trkpt>
      <trkpt lat="46.42039" lon="12.940714">
        <ele>825.2880963467628</ele>
        <time>2025-03-30T09:02:36.398Z</time>
      </trkpt>
      <trkpt lat="46.420218" lon="12.941221">
        <ele>827.624920019018</ele>
        <time>2025-03-30T09:03:16.420Z</time>
      </trkpt>
      <trkpt lat="46.420091" lon="12.941667">
        <ele>828.6073669298844</ele>
        <time>2025-03-30T09:03:50.598Z</time>
      </trkpt>
      <trkpt lat="46.420069" lon="12.941873">
        <ele>829.4758003407159</ele>
        <time>2025-03-30T09:04:05.362Z</time>
      </trkpt>
      <trkpt lat="46.419948" lon="12.942444">
        <ele>830.9780980516234</ele>
        <time>2025-03-30T09:04:47.672Z</time>
      </trkpt>
      <trkpt lat="46.419834" lon="12.942742">
        <ele>829.6738990771914</ele>
        <time>2025-03-30T09:05:11.810Z</time>
      </trkpt>
      <trkpt lat="46.419821" lon="12.942925">
        <ele>830.1616773945041</ele>
        <time>2025-03-30T09:05:24.840Z</time>
      </trkpt>
      <trkpt lat="46.41985" lon="12.943381">
        <ele>832.7168193251651</ele>
        <time>2025-03-30T09:05:57.274Z</time>
      </trkpt>
      <trkpt lat="46.419787" lon="12.944003">
        <ele>832.9617826904666</ele>
        <time>2025-03-30T09:06:41.802Z</time>
      </trkpt>
      <trkpt lat="46.419787" lon="12.944389">
        <ele>833.4808426315333</ele>
        <time>2025-03-30T09:07:09.141Z</time>
      </trkpt>
      <trkpt lat="46.41985" lon="12.944593">
        <ele>836.1381901789703</ele>
        <time>2025-03-30T09:07:24.973Z</time>
      </trkpt>
      <trkpt lat="46.41991" lon="12.944829">
        <ele>838.2597467321912</ele>
        <time>2025-03-30T09:07:42.788Z</time>
      </trkpt>
      <trkpt lat="46.420043" lon="12.945076">
        <ele>842.4876818641862</ele>
        <time>2025-03-30T09:08:04.986Z</time>
      </trkpt>
      <trkpt lat="46.420043" lon="12.945349">
        <ele>842.8848132112067</ele>
        <time>2025-03-30T09:08:24.322Z</time>
      </trkpt>
      <trkpt lat="46.419972" lon="12.945542">
        <ele>841.7685389681096</ele>
        <time>2025-03-30T09:08:39.816Z</time>
      </trkpt>
      <trkpt lat="46.419969" lon="12.945671">
        <ele>842.3567216545721</ele>
        <time>2025-03-30T09:08:48.958Z</time>
      </trkpt>
      <trkpt lat="46.420034" lon="12.945727">
        <ele>844.2298198470562</ele>
        <time>2025-03-30T09:08:56.725Z</time>
      </trkpt>
      <trkpt lat="46.42003" lon="12.945727">
        <ele>844.1395796792244</ele>
        <time>2025-03-30T09:08:57.135Z</time>
      </trkpt>
      <trkpt lat="46.420018672943115" lon="12.945759654045105">
        <ele>844.1356498281964</ele>
        <time>2025-03-30T09:08:59.683Z</time>
      </trkpt>
      <trkpt lat="46.420035004615784" lon="12.945773482322693">
        <ele>844.6104542757002</ele>
        <time>2025-03-30T09:09:00.683Z</time>
      </trkpt>
      <trkpt lat="46.42005467414856" lon="12.945810794830322">
        <ele>845.3578074538618</ele>
        <time>2025-03-30T09:09:02.683Z</time>
      </trkpt>
      <trkpt lat="46.420053243637085" lon="12.945824265480042">
        <ele>845.431403360516</ele>
        <time>2025-03-30T09:09:03.683Z</time>
      </trkpt>
      <trkpt lat="46.42004382610321" lon="12.94583809375763">
        <ele>845.3361991810167</ele>
        <time>2025-03-30T09:09:04.683Z</time>
      </trkpt>
      <trkpt lat="46.42000341415405" lon="12.945903301239014">
        <ele>845.2606439198375</ele>
        <time>2025-03-30T09:09:08.683Z</time>
      </trkpt>
      <trkpt lat="46.419981598854065" lon="12.945934653282166">
        <ele>845.2742689152258</ele>
        <time>2025-03-30T09:09:10.683Z</time>
      </trkpt>
      <trkpt lat="46.41995453834534" lon="12.945963382720947">
        <ele>845.3770049879336</ele>
        <time>2025-03-30T09:09:12.683Z</time>
      </trkpt>
      <trkpt lat="46.419936776161194" lon="12.946001052856445">
        <ele>845.7512936685247</ele>
        <time>2025-03-30T09:09:15.683Z</time>
      </trkpt>
      <trkpt lat="46.419928312301636" lon="12.946017026901245">
        <ele>845.9324906873097</ele>
        <time>2025-03-30T09:09:16.683Z</time>
      </trkpt>
      <trkpt lat="46.419934034347534" lon="12.9461190700531">
        <ele>848.1141224788378</ele>
        <time>2025-03-30T09:09:20.683Z</time>
      </trkpt>
      <trkpt lat="46.41993737220764" lon="12.94614040851593">
        <ele>848.5861938153748</ele>
        <time>2025-03-30T09:09:21.683Z</time>
      </trkpt>
      <trkpt lat="46.41993701457977" lon="12.946160435676575">
        <ele>849.0013460186934</ele>
        <time>2025-03-30T09:09:22.683Z</time>
      </trkpt>
      <trkpt lat="46.41993582248688" lon="12.946178555488586">
        <ele>849.3712030278258</ele>
        <time>2025-03-30T09:09:23.683Z</time>
      </trkpt>
      <trkpt lat="46.419936180114746" lon="12.94621479511261">
        <ele>850.1973979282793</ele>
        <time>2025-03-30T09:09:25.683Z</time>
      </trkpt>
      <trkpt lat="46.4199333190918" lon="12.946232914924622">
        <ele>850.6013079928325</ele>
        <time>2025-03-30T09:09:27.683Z</time>
      </trkpt>
      <trkpt lat="46.419931054115295" lon="12.946242809295654">
        <ele>850.8218708730836</ele>
        <time>2025-03-30T09:09:28.683Z</time>
      </trkpt>
      <trkpt lat="46.419925689697266" lon="12.94626522064209">
        <ele>851.3436586516927</ele>
        <time>2025-03-30T09:09:31.683Z</time>
      </trkpt>
      <trkpt lat="46.41991639137268" lon="12.946290373802185">
        <ele>851.9361135831334</ele>
        <time>2025-03-30T09:09:33.683Z</time>
      </trkpt>
      <trkpt lat="46.41990530490875" lon="12.946332097053528">
        <ele>852.9340280936855</ele>
        <time>2025-03-30T09:09:36.683Z</time>
      </trkpt>
      <trkpt lat="46.419894099235535" lon="12.946359515190125">
        <ele>853.6072433477967</ele>
        <time>2025-03-30T09:09:39.683Z</time>
      </trkpt>
      <trkpt lat="46.419886350631714" lon="12.946378111839294">
        <ele>854.0753390759</ele>
        <time>2025-03-30T09:09:40.683Z</time>
      </trkpt>
      <trkpt lat="46.41988003253937" lon="12.946394324302673">
        <ele>854.4826837977864</ele>
        <time>2025-03-30T09:09:41.683Z</time>
      </trkpt>
      <trkpt lat="46.41987407207489" lon="12.946410655975342">
        <ele>854.8923407659174</ele>
        <time>2025-03-30T09:09:42.683Z</time>
      </trkpt>
      <trkpt lat="46.41987073421478" lon="12.946423053741455">
        <ele>855.2065669690975</ele>
        <time>2025-03-30T09:09:43.683Z</time>
      </trkpt>
      <trkpt lat="46.41986656188965" lon="12.946465373039246">
        <ele>856.2130173006567</ele>
        <time>2025-03-30T09:09:46.683Z</time>
      </trkpt>
      <trkpt lat="46.41986930370331" lon="12.946479558944702">
        <ele>856.5131434641784</ele>
        <time>2025-03-30T09:09:47.683Z</time>
      </trkpt>
      <trkpt lat="46.419870376586914" lon="12.946496844291687">
        <ele>856.8903425901203</ele>
        <time>2025-03-30T09:09:49.683Z</time>
      </trkpt>
      <trkpt lat="46.419867515563965" lon="12.946510195732117">
        <ele>857.2004041782119</ele>
        <time>2025-03-30T09:09:50.683Z</time>
      </trkpt>
      <trkpt lat="46.41985869407654" lon="12.946533679962158">
        <ele>857.7649922177667</ele>
        <time>2025-03-30T09:09:52.683Z</time>
      </trkpt>
      <trkpt lat="46.419856548309326" lon="12.946544528007507">
        <ele>858.0160106293863</ele>
        <time>2025-03-30T09:09:53.683Z</time>
      </trkpt>
      <trkpt lat="46.41985464096069" lon="12.946556568145752">
        <ele>858.2922090932268</ele>
        <time>2025-03-30T09:09:54.683Z</time>
      </trkpt>
      <trkpt lat="46.41984295845032" lon="12.946582913398743">
        <ele>858.9346364812932</ele>
        <time>2025-03-30T09:09:56.683Z</time>
      </trkpt>
      <trkpt lat="46.419832825660706" lon="12.946597814559937">
        <ele>859.3158730943928</ele>
        <time>2025-03-30T09:09:57.683Z</time>
      </trkpt>
      <trkpt lat="46.41980302333832" lon="12.946666955947876">
        <ele>860.8062002480458</ele>
        <time>2025-03-30T09:10:02.683Z</time>
      </trkpt>
      <trkpt lat="46.419790625572205" lon="12.94670057296753">
        <ele>861.4680673700948</ele>
        <time>2025-03-30T09:10:04.683Z</time>
      </trkpt>
      <trkpt lat="46.41978049278259" lon="12.946735858917236">
        <ele>862.11932671927</ele>
        <time>2025-03-30T09:10:07.683Z</time>
      </trkpt>
      <trkpt lat="46.41979134082794" lon="12.946749806404114">
        <ele>862.3264087488419</ele>
        <time>2025-03-30T09:10:08.683Z</time>
      </trkpt>
      <trkpt lat="46.41978359222412" lon="12.946777939796448">
        <ele>862.8442668238199</ele>
        <time>2025-03-30T09:10:10.683Z</time>
      </trkpt>
      <trkpt lat="46.419780015945435" lon="12.946791172027588">
        <ele>863.0797900352998</ele>
        <time>2025-03-30T09:10:11.683Z</time>
      </trkpt>
      <trkpt lat="46.41978585720062" lon="12.946813344955444">
        <ele>863.4102114888651</ele>
        <time>2025-03-30T09:10:12.683Z</time>
      </trkpt>
      <trkpt lat="46.419769287109375" lon="12.946832060813904">
        <ele>863.7466328221145</ele>
        <time>2025-03-30T09:10:14.683Z</time>
      </trkpt>
      <trkpt lat="46.41975939273834" lon="12.946874618530273">
        <ele>864.420439189489</ele>
        <time>2025-03-30T09:10:17.683Z</time>
      </trkpt>
      <trkpt lat="46.41974723339081" lon="12.946917295455933">
        <ele>865.1104001583076</ele>
        <time>2025-03-30T09:10:19.683Z</time>
      </trkpt>
      <trkpt lat="46.419740319252014" lon="12.946935892105103">
        <ele>865.4271229896237</ele>
        <time>2025-03-30T09:10:20.683Z</time>
      </trkpt>
      <trkpt lat="46.41973114013672" lon="12.946975708007812">
        <ele>866.1089373779976</ele>
        <time>2025-03-30T09:10:22.683Z</time>
      </trkpt>
      <trkpt lat="46.419718980789185" lon="12.94701600074768">
        <ele>866.8427330279271</ele>
        <time>2025-03-30T09:10:24.683Z</time>
      </trkpt>
      <trkpt lat="46.41971242427826" lon="12.947033762931824">
        <ele>867.1643771920908</ele>
        <time>2025-03-30T09:10:25.683Z</time>
      </trkpt>
      <trkpt lat="46.419708371162415" lon="12.947051286697388">
        <ele>867.4774296681305</ele>
        <time>2025-03-30T09:10:26.683Z</time>
      </trkpt>
      <trkpt lat="46.41970753669739" lon="12.947067022323608">
        <ele>867.7590237606682</ele>
        <time>2025-03-30T09:10:27.683Z</time>
      </trkpt>
      <trkpt lat="46.41968643665314" lon="12.947091937065125">
        <ele>868.28908294649</ele>
        <time>2025-03-30T09:10:29.683Z</time>
      </trkpt>
      <trkpt lat="46.4196594953537" lon="12.947110295295715">
        <ele>868.7920469208632</ele>
        <time>2025-03-30T09:10:31.683Z</time>
      </trkpt>
      <trkpt lat="46.41960024833679" lon="12.947108268737793">
        <ele>869.277400923475</ele>
        <time>2025-03-30T09:10:35.683Z</time>
      </trkpt>
      <trkpt lat="46.41958498954773" lon="12.94711446762085">
        <ele>869.5404644854847</ele>
        <time>2025-03-30T09:10:37.683Z</time>
      </trkpt>
      <trkpt lat="46.41956615447998" lon="12.947135925292969">
        <ele>870.0887162929648</ele>
        <time>2025-03-30T09:10:40.683Z</time>
      </trkpt>
      <trkpt lat="46.41956877708435" lon="12.947152137756348">
        <ele>870.3498877547463</ele>
        <time>2025-03-30T09:10:42.683Z</time>
      </trkpt>
      <trkpt lat="46.419569969177246" lon="12.947155237197876">
        <ele>870.3939808426438</ele>
        <time>2025-03-30T09:10:43.683Z</time>
      </trkpt>
      <trkpt lat="46.419551730155945" lon="12.94716215133667">
        <ele>870.6689399002134</ele>
        <time>2025-03-30T09:10:47.683Z</time>
      </trkpt>
      <trkpt lat="46.419524788856506" lon="12.947217345237732">
        <ele>871.8642415280003</ele>
        <time>2025-03-30T09:10:53.683Z</time>
      </trkpt>
      <trkpt lat="46.41951870918274" lon="12.947219252586365">
        <ele>871.9533945102493</ele>
        <time>2025-03-30T09:10:54.683Z</time>
      </trkpt>
      <trkpt lat="46.419512152671814" lon="12.947230577468872">
        <ele>872.2240948644479</ele>
        <time>2025-03-30T09:10:55.683Z</time>
      </trkpt>
      <trkpt lat="46.4194895029068" lon="12.947260737419128">
        <ele>872.9745741730098</ele>
        <time>2025-03-30T09:10:59.683Z</time>
      </trkpt>
      <trkpt lat="46.4194837808609" lon="12.947267055511475">
        <ele>873.1383955433971</ele>
        <time>2025-03-30T09:11:00.683Z</time>
      </trkpt>
      <trkpt lat="46.41946196556091" lon="12.947261691093445">
        <ele>873.1796224683528</ele>
        <time>2025-03-30T09:11:02.683Z</time>
      </trkpt>
      <trkpt lat="46.419437408447266" lon="12.947270512580872">
        <ele>873.3436954979327</ele>
        <time>2025-03-30T09:11:05.683Z</time>
      </trkpt>
      <trkpt lat="46.41942536830902" lon="12.947272062301636">
        <ele>873.35404136628</ele>
        <time>2025-03-30T09:11:06.683Z</time>
      </trkpt>
      <trkpt lat="46.41941273212433" lon="12.947287559509277">
        <ele>873.6396298835996</ele>
        <time>2025-03-30T09:11:07.683Z</time>
      </trkpt>
      <trkpt lat="46.419392704963684" lon="12.947294354438782">
        <ele>873.7077143884742</ele>
        <time>2025-03-30T09:11:09.683Z</time>
      </trkpt>
      <trkpt lat="46.419387" lon="12.947304">
        <ele>873.8596809860409</ele>
        <time>2025-03-30T09:11:10.568Z</time>
      </trkpt>
      <trkpt lat="46.419291" lon="12.947475">
        <ele>875.8135585264074</ele>
        <time>2025-03-30T09:11:25.940Z</time>
      </trkpt>
      <trkpt lat="46.419263" lon="12.947694">
        <ele>878.5106277277645</ele>
        <time>2025-03-30T09:11:41.465Z</time>
      </trkpt>
      <trkpt lat="46.419192" lon="12.947997">
        <ele>880.0818284853019</ele>
        <time>2025-03-30T09:12:03.772Z</time>
      </trkpt>
      <trkpt lat="46.419336" lon="12.948046">
        <ele>884.8485016597444</ele>
        <time>2025-03-30T09:12:18.727Z</time>
      </trkpt>
      <trkpt lat="46.419328" lon="12.948229">
        <ele>886.1378461762798</ele>
        <time>2025-03-30T09:12:31.508Z</time>
      </trkpt>
      <trkpt lat="46.419335" lon="12.948396">
        <ele>887.3560782890771</ele>
        <time>2025-03-30T09:12:43.170Z</time>
      </trkpt>
      <trkpt lat="46.419337" lon="12.948816">
        <ele>891.2570997430142</ele>
        <time>2025-03-30T09:13:12.446Z</time>
      </trkpt>
      <trkpt lat="46.419267" lon="12.949091">
        <ele>893.259303843807</ele>
        <time>2025-03-30T09:13:32.879Z</time>
      </trkpt>
      <trkpt lat="46.419263" lon="12.949309">
        <ele>899.3548708303254</ele>
        <time>2025-03-30T09:13:48.080Z</time>
      </trkpt>
      <trkpt lat="46.41931" lon="12.949526">
        <ele>909.4495471566728</ele>
        <time>2025-03-30T09:14:03.935Z</time>
      </trkpt>
      <trkpt lat="46.419385" lon="12.949491">
        <ele>911.5329783368473</ele>
        <time>2025-03-30T09:14:11.901Z</time>
      </trkpt>
      <trkpt lat="46.419506" lon="12.949565">
        <ele>919.2843961085025</ele>
        <time>2025-03-30T09:14:25.178Z</time>
      </trkpt>
      <trkpt lat="46.419546" lon="12.949548">
        <ele>920.4207421805115</ele>
        <time>2025-03-30T09:14:29.392Z</time>
      </trkpt>
      <trkpt lat="46.419858" lon="12.949641">
        <ele>930.7198467641019</ele>
        <time>2025-03-30T09:15:01.598Z</time>
      </trkpt>
      <trkpt lat="46.419969" lon="12.949805">
        <ele>933.5729667450919</ele>
        <time>2025-03-30T09:15:17.614Z</time>
      </trkpt>
      <trkpt lat="46.419978" lon="12.949818">
        <ele>933.7406290424749</ele>
        <time>2025-03-30T09:15:18.897Z</time>
      </trkpt>
      <trkpt lat="46.420066" lon="12.949923">
        <ele>935.3120707530068</ele>
        <time>2025-03-30T09:15:30.415Z</time>
      </trkpt>
      <trkpt lat="46.42014" lon="12.949963">
        <ele>936.2645197950769</ele>
        <time>2025-03-30T09:15:38.398Z</time>
      </trkpt>
      <trkpt lat="46.420619" lon="12.950111">
        <ele>937.2739293162717</ele>
        <time>2025-03-30T09:16:27.907Z</time>
      </trkpt>
      <trkpt lat="46.420834" lon="12.950445">
        <ele>939.3220518482295</ele>
        <time>2025-03-30T09:16:59.753Z</time>
      </trkpt>
      <trkpt lat="46.420926" lon="12.950537">
        <ele>939.6375697562424</ele>
        <time>2025-03-30T09:17:11.049Z</time>
      </trkpt>
      <trkpt lat="46.421037" lon="12.950563">
        <ele>938.0012592665764</ele>
        <time>2025-03-30T09:17:22.415Z</time>
      </trkpt>
      <trkpt lat="46.421174" lon="12.950682">
        <ele>939.6467429175491</ele>
        <time>2025-03-30T09:17:38.557Z</time>
      </trkpt>
      <trkpt lat="46.421276" lon="12.95072">
        <ele>939.9923318901577</ele>
        <time>2025-03-30T09:17:49.203Z</time>
      </trkpt>
      <trkpt lat="46.421344" lon="12.950746">
        <ele>940.158020993531</ele>
        <time>2025-03-30T09:17:56.312Z</time>
      </trkpt>
      <trkpt lat="46.421496" lon="12.950681">
        <ele>935.0434205026813</ele>
        <time>2025-03-30T09:18:12.331Z</time>
      </trkpt>
      <trkpt lat="46.42164" lon="12.950746">
        <ele>933.4359305264907</ele>
        <time>2025-03-30T09:18:27.576Z</time>
      </trkpt>
      <trkpt lat="46.421821" lon="12.950971">
        <ele>934.2940529169755</ele>
        <time>2025-03-30T09:18:51.672Z</time>
      </trkpt>
      <trkpt lat="46.421988" lon="12.951148">
        <ele>934.9582395976421</ele>
        <time>2025-03-30T09:19:12.580Z</time>
      </trkpt>
      <trkpt lat="46.422162" lon="12.951218">
        <ele>931.9331904346333</ele>
        <time>2025-03-30T09:19:30.833Z</time>
      </trkpt>
      <trkpt lat="46.422317" lon="12.951218">
        <ele>926.869564991375</ele>
        <time>2025-03-30T09:19:46.502Z</time>
      </trkpt>
      <trkpt lat="46.422568" lon="12.951341">
        <ele>925.305402339976</ele>
        <time>2025-03-30T09:20:13.284Z</time>
      </trkpt>
      <trkpt lat="46.422746" lon="12.951481">
        <ele>928.4504952183</ele>
        <time>2025-03-30T09:20:33.752Z</time>
      </trkpt>
      <trkpt lat="46.423352" lon="12.951669">
        <ele>936.6852167240662</ele>
        <time>2025-03-30T09:21:36.398Z</time>
      </trkpt>
      <trkpt lat="46.423674" lon="12.951658">
        <ele>938.449315062443</ele>
        <time>2025-03-30T09:22:08.958Z</time>
      </trkpt>
      <trkpt lat="46.423823" lon="12.951634">
        <ele>938.8291040547542</ele>
        <time>2025-03-30T09:22:24.113Z</time>
      </trkpt>
      <trkpt lat="46.424462" lon="12.951561">
        <ele>945.4457722845538</ele>
        <time>2025-03-30T09:23:28.910Z</time>
      </trkpt>
      <trkpt lat="46.424584" lon="12.951502">
        <ele>945.9074555527425</ele>
        <time>2025-03-30T09:23:41.910Z</time>
      </trkpt>
      <trkpt lat="46.424425" lon="12.951046">
        <ele>937.903156601208</ele>
        <time>2025-03-30T09:24:17.519Z</time>
      </trkpt>
      <trkpt lat="46.424277" lon="12.950665">
        <ele>931.1344946334927</ele>
        <time>2025-03-30T09:24:47.993Z</time>
      </trkpt>
      <trkpt lat="46.424199" lon="12.950177">
        <ele>929.6099629383541</ele>
        <time>2025-03-30T09:25:22.900Z</time>
      </trkpt>
      <trkpt lat="46.424187" lon="12.949771">
        <ele>927.104578810326</ele>
        <time>2025-03-30T09:25:51.217Z</time>
      </trkpt>
      <trkpt lat="46.424232" lon="12.949489">
        <ele>926.2391700881544</ele>
        <time>2025-03-30T09:26:11.387Z</time>
      </trkpt>
      <trkpt lat="46.424399" lon="12.949099">
        <ele>925.0974529779755</ele>
        <time>2025-03-30T09:26:43.380Z</time>
      </trkpt>
      <trkpt lat="46.424431" lon="12.949042">
        <ele>924.8750823232654</ele>
        <time>2025-03-30T09:26:48.502Z</time>
      </trkpt>
      <trkpt lat="46.424587" lon="12.948766">
        <ele>923.067019352156</ele>
        <time>2025-03-30T09:27:13.373Z</time>
      </trkpt>
      <trkpt lat="46.424713" lon="12.948363">
        <ele>919.8055395454923</ele>
        <time>2025-03-30T09:27:44.209Z</time>
      </trkpt>
      <trkpt lat="46.424699" lon="12.94793">
        <ele>919.180608181004</ele>
        <time>2025-03-30T09:28:14.414Z</time>
      </trkpt>
      <trkpt lat="46.424721" lon="12.947855">
        <ele>919.1376153037655</ele>
        <time>2025-03-30T09:28:20.093Z</time>
      </trkpt>
      <trkpt lat="46.424829" lon="12.947781">
        <ele>918.7777779662046</ele>
        <time>2025-03-30T09:28:32.167Z</time>
      </trkpt>
      <trkpt lat="46.425106" lon="12.947209">
        <ele>918.092932030815</ele>
        <time>2025-03-30T09:29:20.878Z</time>
      </trkpt>
      <trkpt lat="46.425355" lon="12.947055">
        <ele>915.4544339241455</ele>
        <time>2025-03-30T09:29:48.241Z</time>
      </trkpt>
      <trkpt lat="46.425561" lon="12.946768">
        <ele>914.5945070035759</ele>
        <time>2025-03-30T09:30:17.113Z</time>
      </trkpt>
      <trkpt lat="46.425673" lon="12.946727">
        <ele>912.7449893563619</ele>
        <time>2025-03-30T09:30:28.790Z</time>
      </trkpt>
      <trkpt lat="46.425687" lon="12.946895">
        <ele>911.1506583912342</ele>
        <time>2025-03-30T09:30:40.581Z</time>
      </trkpt>
      <trkpt lat="46.425674" lon="12.947146">
        <ele>909.2989001303457</ele>
        <time>2025-03-30T09:30:58.120Z</time>
      </trkpt>
      <trkpt lat="46.425727" lon="12.94739">
        <ele>908.82837205586</ele>
        <time>2025-03-30T09:31:15.946Z</time>
      </trkpt>
      <trkpt lat="46.425829" lon="12.947393">
        <ele>908.825271393035</ele>
        <time>2025-03-30T09:31:26.259Z</time>
      </trkpt>
      <trkpt lat="46.425944" lon="12.947302">
        <ele>908.2633233301731</ele>
        <time>2025-03-30T09:31:39.501Z</time>
      </trkpt>
      <trkpt lat="46.426167" lon="12.946888">
        <ele>903.7218363694093</ele>
        <time>2025-03-30T09:32:16.112Z</time>
      </trkpt>
      <trkpt lat="46.426606" lon="12.946559">
        <ele>893.6301085537746</ele>
        <time>2025-03-30T09:33:06.062Z</time>
      </trkpt>
      <trkpt lat="46.427008" lon="12.946088">
        <ele>887.0936059691014</ele>
        <time>2025-03-30T09:33:58.298Z</time>
      </trkpt>
      <trkpt lat="46.427547" lon="12.945788">
        <ele>882.4613662988884</ele>
        <time>2025-03-30T09:34:56.658Z</time>
      </trkpt>
      <trkpt lat="46.42793" lon="12.945575">
        <ele>879.1971490737802</ele>
        <time>2025-03-30T09:35:38.123Z</time>
      </trkpt>
      <trkpt lat="46.427764" lon="12.945357">
        <ele>878.8000000000011</ele>
        <time>2025-03-30T09:36:00.757Z</time>
      </trkpt>
      <trkpt lat="46.427483" lon="12.945044">
        <ele>881.5192985384751</ele>
        <time>2025-03-30T09:36:36.570Z</time>
      </trkpt>
      <trkpt lat="46.42739" lon="12.944941">
        <ele>882.3168931426957</ele>
        <time>2025-03-30T09:36:48.397Z</time>
      </trkpt>
      <trkpt lat="46.426833" lon="12.94452">
        <ele>881.3683104110446</ele>
        <time>2025-03-30T09:37:51.888Z</time>
      </trkpt>
      <trkpt lat="46.426703" lon="12.944345">
        <ele>881.0908975251934</ele>
        <time>2025-03-30T09:38:09.815Z</time>
      </trkpt>
      <trkpt lat="46.426547" lon="12.943952">
        <ele>880.3731592237752</ele>
        <time>2025-03-30T09:38:41.415Z</time>
      </trkpt>
      <trkpt lat="46.426505" lon="12.943606">
        <ele>881.5751292219927</ele>
        <time>2025-03-30T09:39:05.895Z</time>
      </trkpt>
      <trkpt lat="46.426495" lon="12.943301">
        <ele>882.2618640860882</ele>
        <time>2025-03-30T09:39:27.171Z</time>
      </trkpt>
      <trkpt lat="46.426536" lon="12.943015">
        <ele>882.9891815262854</ele>
        <time>2025-03-30T09:39:47.526Z</time>
      </trkpt>
      <trkpt lat="46.426601" lon="12.942731">
        <ele>884.2250515325444</ele>
        <time>2025-03-30T09:40:08.377Z</time>
      </trkpt>
      <trkpt lat="46.426665" lon="12.942552">
        <ele>883.7911420673134</ele>
        <time>2025-03-30T09:40:22.427Z</time>
      </trkpt>
      <trkpt lat="46.426777" lon="12.942387">
        <ele>882.4901414401838</ele>
        <time>2025-03-30T09:40:38.563Z</time>
      </trkpt>
      <trkpt lat="46.426854" lon="12.942309">
        <ele>881.5288852952325</ele>
        <time>2025-03-30T09:40:48.056Z</time>
      </trkpt>
      <trkpt lat="46.427098" lon="12.942143">
        <ele>878.037120532305</ele>
        <time>2025-03-30T09:41:15.299Z</time>
      </trkpt>
      <trkpt lat="46.427104" lon="12.942138">
        <ele>877.9387241106521</ele>
        <time>2025-03-30T09:41:15.998Z</time>
      </trkpt>
      <trkpt lat="46.427178" lon="12.942011">
        <ele>875.6686965125621</ele>
        <time>2025-03-30T09:41:27.585Z</time>
      </trkpt>
      <trkpt lat="46.427241" lon="12.941974">
        <ele>874.9568892918995</ele>
        <time>2025-03-30T09:41:34.455Z</time>
      </trkpt>
      <trkpt lat="46.427416" lon="12.94193">
        <ele>874.2958890669054</ele>
        <time>2025-03-30T09:41:52.409Z</time>
      </trkpt>
      <trkpt lat="46.427482" lon="12.941868">
        <ele>873.4290662400433</ele>
        <time>2025-03-30T09:42:00.357Z</time>
      </trkpt>
      <trkpt lat="46.427547" lon="12.941827">
        <ele>872.7282696249731</ele>
        <time>2025-03-30T09:42:07.522Z</time>
      </trkpt>
      <trkpt lat="46.427733" lon="12.941652">
        <ele>868.9421558447655</ele>
        <time>2025-03-30T09:42:29.932Z</time>
      </trkpt>
      <trkpt lat="46.427803" lon="12.941605">
        <ele>867.7228066201079</ele>
        <time>2025-03-30T09:42:37.729Z</time>
      </trkpt>
      <trkpt lat="46.428165" lon="12.941479">
        <ele>865.1943801713222</ele>
        <time>2025-03-30T09:43:15.362Z</time>
      </trkpt>
      <trkpt lat="46.428254" lon="12.941469">
        <ele>865.0607170933711</ele>
        <time>2025-03-30T09:43:24.386Z</time>
      </trkpt>
      <trkpt lat="46.428397" lon="12.941497">
        <ele>866.2980222540991</ele>
        <time>2025-03-30T09:43:38.973Z</time>
      </trkpt>
      <trkpt lat="46.428421" lon="12.941482">
        <ele>866.1734350164888</ele>
        <time>2025-03-30T09:43:41.614Z</time>
      </trkpt>
      <trkpt lat="46.428531" lon="12.941411">
        <ele>865.7817074530665</ele>
        <time>2025-03-30T09:43:53.784Z</time>
      </trkpt>
      <trkpt lat="46.428947" lon="12.941059">
        <ele>858.8375006894353</ele>
        <time>2025-03-30T09:44:42.467Z</time>
      </trkpt>
      <trkpt lat="46.429094" lon="12.941012">
        <ele>857.403947348754</ele>
        <time>2025-03-30T09:44:57.683Z</time>
      </trkpt>
      <trkpt lat="46.429437" lon="12.940961">
        <ele>856.9439271189747</ele>
        <time>2025-03-30T09:45:32.538Z</time>
      </trkpt>
      <trkpt lat="46.429534" lon="12.940977">
        <ele>856.9445289515895</ele>
        <time>2025-03-30T09:45:42.406Z</time>
      </trkpt>
      <trkpt lat="46.42968" lon="12.941027">
        <ele>856.8295639626693</ele>
        <time>2025-03-30T09:45:57.570Z</time>
      </trkpt>
      <trkpt lat="46.429814" lon="12.941001">
        <ele>856.3588233194323</ele>
        <time>2025-03-30T09:46:11.236Z</time>
      </trkpt>
      <trkpt lat="46.430085" lon="12.94082">
        <ele>857.1325126534804</ele>
        <time>2025-03-30T09:46:41.394Z</time>
      </trkpt>
      <trkpt lat="46.430306" lon="12.940628">
        <ele>859.8996808260681</ele>
        <time>2025-03-30T09:47:07.434Z</time>
      </trkpt>
      <trkpt lat="46.430317" lon="12.940636">
        <ele>860.1042660726237</ele>
        <time>2025-03-30T09:47:08.677Z</time>
      </trkpt>
      <trkpt lat="46.430306" lon="12.940628">
        <ele>859.8996808260681</ele>
        <time>2025-03-30T09:47:09.920Z</time>
      </trkpt>
      <trkpt lat="46.430197" lon="12.940519">
        <ele>858.0562584864906</ele>
        <time>2025-03-30T09:47:23.302Z</time>
      </trkpt>
      <trkpt lat="46.430106" lon="12.940358">
        <ele>856.4927315737355</ele>
        <time>2025-03-30T09:47:37.809Z</time>
      </trkpt>
      <trkpt lat="46.429866" lon="12.940359">
        <ele>852.888680200349</ele>
        <time>2025-03-30T09:48:02.070Z</time>
      </trkpt>
      <trkpt lat="46.429685" lon="12.940323">
        <ele>850.0661099537288</ele>
        <time>2025-03-30T09:48:20.538Z</time>
      </trkpt>
      <trkpt lat="46.429482" lon="12.940213">
        <ele>847.1087289492632</ele>
        <time>2025-03-30T09:48:42.443Z</time>
      </trkpt>
      <trkpt lat="46.429381" lon="12.940137">
        <ele>846.281705304471</ele>
        <time>2025-03-30T09:48:53.944Z</time>
      </trkpt>
      <trkpt lat="46.429353" lon="12.940096">
        <ele>846.0804827670161</ele>
        <time>2025-03-30T09:48:57.965Z</time>
      </trkpt>
      <trkpt lat="46.4289" lon="12.939003">
        <ele>833.204705977731</ele>
        <time>2025-03-30T09:50:26.829Z</time>
      </trkpt>
      <trkpt lat="46.428646" lon="12.938215">
        <ele>822.6463628985925</ele>
        <time>2025-03-30T09:51:27.441Z</time>
      </trkpt>
      <trkpt lat="46.428625" lon="12.938124">
        <ele>821.6316691404448</ele>
        <time>2025-03-30T09:51:34.127Z</time>
      </trkpt>
      <trkpt lat="46.428575" lon="12.937701">
        <ele>819.411256107553</ele>
        <time>2025-03-30T09:52:04.030Z</time>
      </trkpt>
      <trkpt lat="46.428537" lon="12.937721">
        <ele>818.637889970933</ele>
        <time>2025-03-30T09:52:08.116Z</time>
      </trkpt>
      <trkpt lat="46.428463" lon="12.937734">
        <ele>817.1748854297762</ele>
        <time>2025-03-30T09:52:15.651Z</time>
      </trkpt>
      <trkpt lat="46.428412" lon="12.937729">
        <ele>816.2885097062688</ele>
        <time>2025-03-30T09:52:20.818Z</time>
      </trkpt>
      <trkpt lat="46.428306" lon="12.937696">
        <ele>814.6846574664864</ele>
        <time>2025-03-30T09:52:31.777Z</time>
      </trkpt>
      <trkpt lat="46.428147" lon="12.937665">
        <ele>812.6540322873107</ele>
        <time>2025-03-30T09:52:47.994Z</time>
      </trkpt>
      <trkpt lat="46.428062" lon="12.937668">
        <ele>811.7504981306573</ele>
        <time>2025-03-30T09:52:56.589Z</time>
      </trkpt>
      <trkpt lat="46.428003" lon="12.937689">
        <ele>811.2540293093055</ele>
        <time>2025-03-30T09:53:02.730Z</time>
      </trkpt>
      <trkpt lat="46.42794" lon="12.937648">
        <ele>810.2644551737708</ele>
        <time>2025-03-30T09:53:09.710Z</time>
      </trkpt>
      <trkpt lat="46.427884" lon="12.937593">
        <ele>809.1584061829385</ele>
        <time>2025-03-30T09:53:16.546Z</time>
      </trkpt>
      <trkpt lat="46.427776" lon="12.93742">
        <ele>806.2319864466328</ele>
        <time>2025-03-30T09:53:32.809Z</time>
      </trkpt>
      <trkpt lat="46.427574" lon="12.936804">
        <ele>800.5482059581848</ele>
        <time>2025-03-30T09:54:20.340Z</time>
      </trkpt>
      <trkpt lat="46.427461" lon="12.936609">
        <ele>796.4460656807998</ele>
        <time>2025-03-30T09:54:38.091Z</time>
      </trkpt>
      <trkpt lat="46.427362" lon="12.936484">
        <ele>792.3042510897817</ele>
        <time>2025-03-30T09:54:51.358Z</time>
      </trkpt>
      <trkpt lat="46.427238" lon="12.936355">
        <ele>787.057738863026</ele>
        <time>2025-03-30T09:55:06.782Z</time>
      </trkpt>
      <trkpt lat="46.427115" lon="12.936267">
        <ele>782.5918668660063</ele>
        <time>2025-03-30T09:55:20.645Z</time>
      </trkpt>
      <trkpt lat="46.426826" lon="12.936085">
        <ele>776.0150991405405</ele>
        <time>2025-03-30T09:55:52.493Z</time>
      </trkpt>
      <trkpt lat="46.426616" lon="12.935983">
        <ele>772.7798599288528</ele>
        <time>2025-03-30T09:56:14.880Z</time>
      </trkpt>
      <trkpt lat="46.426456" lon="12.935935">
        <ele>770.1706845606864</ele>
        <time>2025-03-30T09:56:31.396Z</time>
      </trkpt>
      <trkpt lat="46.426396" lon="12.93585">
        <ele>769.0272632058204</ele>
        <time>2025-03-30T09:56:39.873Z</time>
      </trkpt>
      <trkpt lat="46.426418" lon="12.935787">
        <ele>769.4093925891686</ele>
        <time>2025-03-30T09:56:44.794Z</time>
      </trkpt>
      <trkpt lat="46.426288" lon="12.9357">
        <ele>767.3413260488317</ele>
        <time>2025-03-30T09:56:59.266Z</time>
      </trkpt>
      <trkpt lat="46.425722" lon="12.935934">
        <ele>761.7510931438039</ele>
        <time>2025-03-30T09:57:58.760Z</time>
      </trkpt>
      <trkpt lat="46.42561" lon="12.935981">
        <ele>760.0185413532892</ele>
        <time>2025-03-30T09:58:10.546Z</time>
      </trkpt>
      <trkpt lat="46.425397" lon="12.936205">
        <ele>754.7168163981949</ele>
        <time>2025-03-30T09:58:37.140Z</time>
      </trkpt>
      <trkpt lat="46.425206" lon="12.936186">
        <ele>748.082014674173</ele>
        <time>2025-03-30T09:58:56.493Z</time>
      </trkpt>
      <trkpt lat="46.425125" lon="12.936256">
        <ele>746.5782165869297</ele>
        <time>2025-03-30T09:59:06.024Z</time>
      </trkpt>
      <trkpt lat="46.425043" lon="12.936405">
        <ele>745.4723641340786</ele>
        <time>2025-03-30T09:59:19.309Z</time>
      </trkpt>
      <trkpt lat="46.424981" lon="12.936591">
        <ele>745.4666407298306</ele>
        <time>2025-03-30T09:59:33.705Z</time>
      </trkpt>
      <trkpt lat="46.424798" lon="12.936724">
        <ele>743.6247686009892</ele>
        <time>2025-03-30T09:59:54.396Z</time>
      </trkpt>
      <trkpt lat="46.42464" lon="12.936781">
        <ele>742.3762736696792</ele>
        <time>2025-03-30T10:00:10.854Z</time>
      </trkpt>
      <trkpt lat="46.42422" lon="12.937108">
        <ele>743.6807669683832</ele>
        <time>2025-03-30T10:00:59.039Z</time>
      </trkpt>
      <trkpt lat="46.423849" lon="12.937003">
        <ele>741.0938119657808</ele>
        <time>2025-03-30T10:01:37.250Z</time>
      </trkpt>
      <trkpt lat="46.423811" lon="12.936993">
        <ele>740.6433474565862</ele>
        <time>2025-03-30T10:01:41.154Z</time>
      </trkpt>
      <trkpt lat="46.423639" lon="12.93685">
        <ele>737.4278446798731</ele>
        <time>2025-03-30T10:02:01.194Z</time>
      </trkpt>
      <trkpt lat="46.423394" lon="12.93677">
        <ele>734.2573016219392</ele>
        <time>2025-03-30T10:02:26.580Z</time>
      </trkpt>
      <trkpt lat="46.423073" lon="12.936599">
        <ele>732.0238578865162</ele>
        <time>2025-03-30T10:03:01.148Z</time>
      </trkpt>
      <trkpt lat="46.422844" lon="12.936692">
        <ele>730.9943219684759</ele>
        <time>2025-03-30T10:03:25.187Z</time>
      </trkpt>
      <trkpt lat="46.422684" lon="12.936603">
        <ele>728.6852152700214</ele>
        <time>2025-03-30T10:03:42.509Z</time>
      </trkpt>
      <trkpt lat="46.422302" lon="12.936027">
        <ele>723.6421429792626</ele>
        <time>2025-03-30T10:04:38.207Z</time>
      </trkpt>
      <trkpt lat="46.422081" lon="12.935927">
        <ele>722.7064665940553</ele>
        <time>2025-03-30T10:05:01.609Z</time>
      </trkpt>
      <trkpt lat="46.421912" lon="12.935885">
        <ele>722.0336266284673</ele>
        <time>2025-03-30T10:05:18.942Z</time>
      </trkpt>
      <trkpt lat="46.421786" lon="12.935854">
        <ele>720.8316580760069</ele>
        <time>2025-03-30T10:05:31.861Z</time>
      </trkpt>
      <trkpt lat="46.421832" lon="12.935794">
        <ele>720.9139163997606</ele>
        <time>2025-03-30T10:05:38.114Z</time>
      </trkpt>
      <trkpt lat="46.421857" lon="12.935715">
        <ele>720.6258781082207</ele>
        <time>2025-03-30T10:05:44.171Z</time>
      </trkpt>
      <trkpt lat="46.421851" lon="12.935586">
        <ele>720.0913968536298</ele>
        <time>2025-03-30T10:05:53.180Z</time>
      </trkpt>
      <trkpt lat="46.421797" lon="12.935318">
        <ele>719.4728180253587</ele>
        <time>2025-03-30T10:06:12.637Z</time>
      </trkpt>
      <trkpt lat="46.421766" lon="12.935267">
        <ele>719.2664100022993</ele>
        <time>2025-03-30T10:06:17.375Z</time>
      </trkpt>
      <trkpt lat="46.42171" lon="12.935205">
        <ele>718.9208051399906</ele>
        <time>2025-03-30T10:06:24.496Z</time>
      </trkpt>
      <trkpt lat="46.421694" lon="12.935162">
        <ele>718.9150909572538</ele>
        <time>2025-03-30T10:06:27.901Z</time>
      </trkpt>
      <trkpt lat="46.421694" lon="12.935084">
        <ele>719.1060002714869</ele>
        <time>2025-03-30T10:06:33.336Z</time>
      </trkpt>
      <trkpt lat="46.421709" lon="12.935004">
        <ele>719.3551969376404</ele>
        <time>2025-03-30T10:06:39.113Z</time>
      </trkpt>
      <trkpt lat="46.421784" lon="12.934795">
        <ele>720.3261114455013</ele>
        <time>2025-03-30T10:06:55.532Z</time>
      </trkpt>
      <trkpt lat="46.421808" lon="12.934706">
        <ele>720.7336826132537</ele>
        <time>2025-03-30T10:07:02.191Z</time>
      </trkpt>
      <trkpt lat="46.42188" lon="12.934348">
        <ele>722.4480596414248</ele>
        <time>2025-03-30T10:07:28.178Z</time>
      </trkpt>
      <trkpt lat="46.421988" lon="12.933912">
        <ele>723.0747008012272</ele>
        <time>2025-03-30T10:08:00.462Z</time>
      </trkpt>
      <trkpt lat="46.422117" lon="12.933537">
        <ele>722.0727833786336</ele>
        <time>2025-03-30T10:08:29.667Z</time>
      </trkpt>
      <trkpt lat="46.422151" lon="12.933434">
        <ele>721.8529681505762</ele>
        <time>2025-03-30T10:08:37.625Z</time>
      </trkpt>
      <trkpt lat="46.422343" lon="12.932845">
        <ele>719.9220077954707</ele>
        <time>2025-03-30T10:09:23.027Z</time>
      </trkpt>
      <trkpt lat="46.422478" lon="12.932581">
        <ele>718.9135296632555</ele>
        <time>2025-03-30T10:09:45.933Z</time>
      </trkpt>
      <trkpt lat="46.422531" lon="12.932448">
        <ele>718.6410436997198</ele>
        <time>2025-03-30T10:09:56.638Z</time>
      </trkpt>
      <trkpt lat="46.42272" lon="12.931577">
        <ele>718.9962625710996</ele>
        <time>2025-03-30T10:11:00.269Z</time>
      </trkpt>
    </trkseg>
  </trk>
</gpx>
