<?xml version="1.0" encoding="UTF-8"?>
<gpx creator="Garmin Explore App" version="1.1" schemaLocation="http://www.topografix.com/GPX/1/1 http://www.topografix.com/GPX/1/1/gpx.xsd http://www.garmin.com/xmlschemas/GpxExtensions/v3 http://www.garmin.com/xmlschemas/GpxExtensionsv3.xsd http://www.garmin.com/xmlschemas/TrackPointExtension/v1 http://www.garmin.com/xmlschemas/TrackPointExtensionv1.xsd http://www.garmin.com/xmlschemas/PowerExtension/v1 http://www.garmin.com/xmlschemas/PowerExtensionv1.xsd http://www.topografix.com/GPX/gpx_style/0/2 http://www.topografix.com/GPX/gpx_style/0/2/gpx_style.xsd" xmlns="http://www.topografix.com/GPX/1/1" xmlns:xsi="http://www.w3.org/2001/XMLSchema-instance" xsi:schemaLocation="http://www.topografix.com/GPX/1/1 http://www.topografix.com/GPX/1/1/gpx.xsd http://www.garmin.com/xmlschemas/GpxExtensions/v3 http://www.garmin.com/xmlschemas/GpxExtensionsv3.xsd http://www.garmin.com/xmlschemas/TrackPointExtension/v1 http://www.garmin.com/xmlschemas/TrackPointExtensionv1.xsd http://www.garmin.com/xmlschemas/PowerExtension/v1 http://www.garmin.com/xmlschemas/PowerExtensionv1.xsd http://www.topografix.com/GPX/gpx_style/0/2 http://www.topografix.com/GPX/gpx_style/0/2/gpx_style.xsd" xmlns:gpxtpx="http://www.garmin.com/xmlschemas/TrackPointExtension/v1" xmlns:gpxx="http://www.garmin.com/xmlschemas/GpxExtensions/v3" xmlns:gpxpx="http://www.garmin.com/xmlschemas/PowerExtension/v1" xmlns:gpx_style="http://www.topografix.com/GPX/gpx_style/0/2">
  <metadata>
    <name>VAS-I</name>
    <author>
      <name>gpx.studio</name>
      <link href="https://gpx.studio"/>
    </author>
    <link href="http://www.garmin.com">
      <text>Garmin International</text>
    </link>
    <time>2026-02-18T10:02:41.000Z</time>
  </metadata>
  <trk>
    <name>VAS-I</name>
    <trkseg>
      <trkpt lat="46.443909" lon="12.963433">
        <ele>1076.5536783241032</ele>
        <time>2025-03-30T13:40:58.753Z</time>
      </trkpt>
      <trkpt lat="46.443944" lon="12.963551">
        <ele>1077.19334907681</ele>
        <time>2025-03-30T13:41:08.558Z</time>
      </trkpt>
      <trkpt lat="46.443961" lon="12.963562">
        <ele>1077.5452435023692</ele>
        <time>2025-03-30T13:41:10.619Z</time>
      </trkpt>
      <trkpt lat="46.444016" lon="12.963596">
        <ele>1078.6140120435512</ele>
        <time>2025-03-30T13:41:17.240Z</time>
      </trkpt>
      <trkpt lat="46.444066" lon="12.963669">
        <ele>1079.2491307206428</ele>
        <time>2025-03-30T13:41:25.093Z</time>
      </trkpt>
      <trkpt lat="46.444178" lon="12.963578">
        <ele>1084.1460939980757</ele>
        <time>2025-03-30T13:41:39.306Z</time>
      </trkpt>
      <trkpt lat="46.444236" lon="12.963698">
        <ele>1084.6862032372192</ele>
        <time>2025-03-30T13:41:50.490Z</time>
      </trkpt>
      <trkpt lat="46.444396" lon="12.963889">
        <ele>1088.3269885379943</ele>
        <time>2025-03-30T13:42:13.431Z</time>
      </trkpt>
      <trkpt lat="46.444509" lon="12.964087">
        <ele>1090.4295138308999</ele>
        <time>2025-03-30T13:42:32.205Z</time>
      </trkpt>
      <trkpt lat="46.444561" lon="12.964212">
        <ele>1091.5098143025311</ele>
        <time>2025-03-30T13:42:42.867Z</time>
      </trkpt>
      <trkpt lat="46.444589" lon="12.964278">
        <ele>1092.427737082449</ele>
        <time>2025-03-30T13:42:48.526Z</time>
      </trkpt>
      <trkpt lat="46.444687" lon="12.964401">
        <ele>1098.3493358152464</ele>
        <time>2025-03-30T13:43:02.257Z</time>
      </trkpt>
      <trkpt lat="46.444773" lon="12.964642">
        <ele>1099.4695667650556</ele>
        <time>2025-03-30T13:43:22.076Z</time>
      </trkpt>
      <trkpt lat="46.44493" lon="12.964827">
        <ele>1105.300158576275</ele>
        <time>2025-03-30T13:43:43.508Z</time>
      </trkpt>
      <trkpt lat="46.444971" lon="12.964905">
        <ele>1104.8504465195103</ele>
        <time>2025-03-30T13:43:50.672Z</time>
      </trkpt>
      <trkpt lat="46.445142" lon="12.965095">
        <ele>1107.8983388316572</ele>
        <time>2025-03-30T13:44:13.496Z</time>
      </trkpt>
      <trkpt lat="46.44534182548523" lon="12.965259432792664">
        <ele>1115.3543648603843</ele>
        <time>2025-03-30T13:44:13.722Z</time>
      </trkpt>
      <trkpt lat="46.445481181144714" lon="12.965510606765747">
        <ele>1117.3931127469998</ele>
        <time>2025-03-30T13:44:36.722Z</time>
      </trkpt>
      <trkpt lat="46.445555686950684" lon="12.965214371681213">
        <ele>1128.4496777502752</ele>
        <time>2025-03-30T13:44:53.722Z</time>
      </trkpt>
      <trkpt lat="46.445555567741394" lon="12.964996218681335">
        <ele>1136.647449108428</ele>
        <time>2025-03-30T13:45:07.722Z</time>
      </trkpt>
      <trkpt lat="46.445417404174805" lon="12.964870691299438">
        <ele>1133.6487843272027</ele>
        <time>2025-03-30T13:45:20.722Z</time>
      </trkpt>
      <trkpt lat="46.445271492004395" lon="12.964473009109497">
        <ele>1140.083402145845</ele>
        <time>2025-03-30T13:45:40.722Z</time>
      </trkpt>
      <trkpt lat="46.445188999176025" lon="12.964417934417725">
        <ele>1136.5465727275048</ele>
        <time>2025-03-30T13:45:50.722Z</time>
      </trkpt>
      <trkpt lat="46.44514524936676" lon="12.96433687210083">
        <ele>1135.421234058031</ele>
        <time>2025-03-30T13:45:58.722Z</time>
      </trkpt>
      <trkpt lat="46.44511020183563" lon="12.964236855506897">
        <ele>1134.7043456302727</ele>
        <time>2025-03-30T13:46:05.722Z</time>
      </trkpt>
      <trkpt lat="46.44514608383179" lon="12.964044213294983">
        <ele>1140.2096502875918</ele>
        <time>2025-03-30T13:46:19.722Z</time>
      </trkpt>
      <trkpt lat="46.44517147541046" lon="12.964033007621765">
        <ele>1142.1418888950814</ele>
        <time>2025-03-30T13:46:24.722Z</time>
      </trkpt>
      <trkpt lat="46.4452258348465" lon="12.964252948760986">
        <ele>1142.2307827538318</ele>
        <time>2025-03-30T13:46:50.722Z</time>
      </trkpt>
      <trkpt lat="46.44532883167267" lon="12.964483261108398">
        <ele>1143.092820665549</ele>
        <time>2025-03-30T13:47:14.722Z</time>
      </trkpt>
      <trkpt lat="46.44543015956879" lon="12.964566826820374">
        <ele>1146.2995711791305</ele>
        <time>2025-03-30T13:47:25.722Z</time>
      </trkpt>
      <trkpt lat="46.44544792175293" lon="12.964630246162415">
        <ele>1145.1341084505802</ele>
        <time>2025-03-30T13:47:29.722Z</time>
      </trkpt>
      <trkpt lat="46.44570600986481" lon="12.964642524719238">
        <ele>1159.439698273691</ele>
        <time>2025-03-30T13:47:58.722Z</time>
      </trkpt>
      <trkpt lat="46.44574689865112" lon="12.964802503585815">
        <ele>1155.8172001222333</ele>
        <time>2025-03-30T13:48:11.722Z</time>
      </trkpt>
      <trkpt lat="46.445842146873474" lon="12.964934587478638">
        <ele>1155.2332701583787</ele>
        <time>2025-03-30T13:48:28.722Z</time>
      </trkpt>
      <trkpt lat="46.44593393802643" lon="12.96479845046997">
        <ele>1165.5529574597792</ele>
        <time>2025-03-30T13:48:38.722Z</time>
      </trkpt>
      <trkpt lat="46.44599962234497" lon="12.964618682861328">
        <ele>1174.7716444557054</ele>
        <time>2025-03-30T13:48:56.722Z</time>
      </trkpt>
      <trkpt lat="46.44596862792969" lon="12.964458227157593">
        <ele>1178.092917447911</ele>
        <time>2025-03-30T13:49:15.722Z</time>
      </trkpt>
      <trkpt lat="46.44598424434662" lon="12.964363813400269">
        <ele>1181.4722733086915</ele>
        <time>2025-03-30T13:49:24.722Z</time>
      </trkpt>
      <trkpt lat="46.44595158100128" lon="12.964130401611328">
        <ele>1185.8653286657309</ele>
        <time>2025-03-30T13:49:50.722Z</time>
      </trkpt>
      <trkpt lat="46.44575536251068" lon="12.963468670845032">
        <ele>1181.3429584612616</ele>
        <time>2025-03-30T13:50:37.722Z</time>
      </trkpt>
      <trkpt lat="46.44572830200195" lon="12.963190793991089">
        <ele>1181.77506613317</ele>
        <time>2025-03-30T13:50:55.722Z</time>
      </trkpt>
      <trkpt lat="46.44574272632599" lon="12.96269142627716">
        <ele>1183.8622169966272</ele>
        <time>2025-03-30T13:51:27.722Z</time>
      </trkpt>
      <trkpt lat="46.445855259895325" lon="12.962355494499207">
        <ele>1184.9334555536514</ele>
        <time>2025-03-30T13:51:50.722Z</time>
      </trkpt>
      <trkpt lat="46.44596517086029" lon="12.962232828140259">
        <ele>1187.8542973299984</ele>
        <time>2025-03-30T13:52:05.722Z</time>
      </trkpt>
      <trkpt lat="46.44595503807068" lon="12.962349534034729">
        <ele>1189.553258703324</ele>
        <time>2025-03-30T13:52:23.722Z</time>
      </trkpt>
      <trkpt lat="46.44607937335968" lon="12.962254047393799">
        <ele>1193.2987927822874</ele>
        <time>2025-03-30T13:52:41.722Z</time>
      </trkpt>
      <trkpt lat="46.44622611999512" lon="12.962034940719604">
        <ele>1192.1685097051795</ele>
        <time>2025-03-30T13:53:02.722Z</time>
      </trkpt>
      <trkpt lat="46.44625997543335" lon="12.961930990219116">
        <ele>1189.7586113432433</ele>
        <time>2025-03-30T13:53:13.722Z</time>
      </trkpt>
      <trkpt lat="46.4463711977005" lon="12.96185040473938">
        <ele>1190.1366217238945</ele>
        <time>2025-03-30T13:53:28.722Z</time>
      </trkpt>
      <trkpt lat="46.446386098861694" lon="12.961903095245361">
        <ele>1192.3025628810756</ele>
        <time>2025-03-30T13:53:34.722Z</time>
      </trkpt>
      <trkpt lat="46.44632065296173" lon="12.962060689926147">
        <ele>1195.6313115563248</ele>
        <time>2025-03-30T13:53:55.722Z</time>
      </trkpt>
      <trkpt lat="46.4462913274765" lon="12.962267637252808">
        <ele>1200.5078513393132</ele>
        <time>2025-03-30T13:54:16.722Z</time>
      </trkpt>
      <trkpt lat="46.44630825519562" lon="12.962555527687073">
        <ele>1205.2092744881293</ele>
        <time>2025-03-30T13:54:39.722Z</time>
      </trkpt>
      <trkpt lat="46.44628202915192" lon="12.962739109992981">
        <ele>1204.977510480217</ele>
        <time>2025-03-30T13:54:50.722Z</time>
      </trkpt>
      <trkpt lat="46.446362376213074" lon="12.96324360370636">
        <ele>1209.251611708478</ele>
        <time>2025-03-30T13:55:20.722Z</time>
      </trkpt>
      <trkpt lat="46.44644796848297" lon="12.96332311630249">
        <ele>1213.1038214572418</ele>
        <time>2025-03-30T13:55:38.722Z</time>
      </trkpt>
      <trkpt lat="46.44646179676056" lon="12.963523864746094">
        <ele>1213.9242543220762</ele>
        <time>2025-03-30T13:55:53.722Z</time>
      </trkpt>
      <trkpt lat="46.446539878845215" lon="12.963614106178284">
        <ele>1216.8423301999212</ele>
        <time>2025-03-30T13:56:05.722Z</time>
      </trkpt>
      <trkpt lat="46.446638226509094" lon="12.963856816291809">
        <ele>1219.2441238841984</ele>
        <time>2025-03-30T13:56:22.722Z</time>
      </trkpt>
      <trkpt lat="46.44683027267456" lon="12.964023232460022">
        <ele>1221.1014750317922</ele>
        <time>2025-03-30T13:56:45.722Z</time>
      </trkpt>
      <trkpt lat="46.44689691066742" lon="12.964019656181335">
        <ele>1223.078844372048</ele>
        <time>2025-03-30T13:56:54.722Z</time>
      </trkpt>
      <trkpt lat="46.44705390930176" lon="12.96413254737854">
        <ele>1225.3957053050497</ele>
        <time>2025-03-30T13:57:16.722Z</time>
      </trkpt>
      <trkpt lat="46.44724667072296" lon="12.964169979095459">
        <ele>1232.645403536887</ele>
        <time>2025-03-30T13:57:48.722Z</time>
      </trkpt>
      <trkpt lat="46.44750094413757" lon="12.964352488517761">
        <ele>1240.496897349135</ele>
        <time>2025-03-30T13:58:30.722Z</time>
      </trkpt>
      <trkpt lat="46.447539925575256" lon="12.9643394947052">
        <ele>1243.0657034570359</ele>
        <time>2025-03-30T13:58:36.722Z</time>
      </trkpt>
      <trkpt lat="46.44788932800293" lon="12.964503407478333">
        <ele>1259.1312506466513</ele>
        <time>2025-03-30T13:59:36.722Z</time>
      </trkpt>
      <trkpt lat="46.44789183139801" lon="12.964383721351624">
        <ele>1262.4038129184864</ele>
        <time>2025-03-30T13:59:48.722Z</time>
      </trkpt>
      <trkpt lat="46.44780898094177" lon="12.963956594467163">
        <ele>1269.6049993728298</ele>
        <time>2025-03-30T14:00:28.722Z</time>
      </trkpt>
      <trkpt lat="46.447755217552185" lon="12.963767170906067">
        <ele>1272.696713986947</ele>
        <time>2025-03-30T14:00:49.722Z</time>
      </trkpt>
      <trkpt lat="46.447620034217834" lon="12.963518381118774">
        <ele>1273.2875770486362</ele>
        <time>2025-03-30T14:01:13.722Z</time>
      </trkpt>
      <trkpt lat="46.44764566421509" lon="12.963159799575806">
        <ele>1281.9387979104536</ele>
        <time>2025-03-30T14:01:47.722Z</time>
      </trkpt>
      <trkpt lat="46.447598457336426" lon="12.96298086643219">
        <ele>1279.661106121098</ele>
        <time>2025-03-30T14:02:01.722Z</time>
      </trkpt>
      <trkpt lat="46.447657227516174" lon="12.962948441505432">
        <ele>1281.392906571664</ele>
        <time>2025-03-30T14:02:08.722Z</time>
      </trkpt>
      <trkpt lat="46.44784104824066" lon="12.963063836097717">
        <ele>1290.424312014233</ele>
        <time>2025-03-30T14:02:43.722Z</time>
      </trkpt>
      <trkpt lat="46.4479945898056" lon="12.963130474090576">
        <ele>1298.4397261964036</ele>
        <time>2025-03-30T14:03:15.722Z</time>
      </trkpt>
      <trkpt lat="46.44816863536835" lon="12.963112354278564">
        <ele>1307.2778029205122</ele>
        <time>2025-03-30T14:03:56.722Z</time>
      </trkpt>
      <trkpt lat="46.44833600521088" lon="12.96320128440857">
        <ele>1317.6866977881373</ele>
        <time>2025-03-30T14:04:40.722Z</time>
      </trkpt>
      <trkpt lat="46.44844210147858" lon="12.963229775428772">
        <ele>1324.2251472659493</ele>
        <time>2025-03-30T14:05:03.722Z</time>
      </trkpt>
      <trkpt lat="46.44869077205658" lon="12.963252305984497">
        <ele>1339.380134015159</ele>
        <time>2025-03-30T14:05:52.722Z</time>
      </trkpt>
      <trkpt lat="46.44870436191559" lon="12.963290572166443">
        <ele>1340.26401141695</ele>
        <time>2025-03-30T14:06:03.722Z</time>
      </trkpt>
      <trkpt lat="46.44885718822479" lon="12.963333010673523">
        <ele>1348.646544876556</ele>
        <time>2025-03-30T14:06:31.722Z</time>
      </trkpt>
      <trkpt lat="46.44887864589691" lon="12.963392734527588">
        <ele>1349.0191448452888</ele>
        <time>2025-03-30T14:06:38.722Z</time>
      </trkpt>
      <trkpt lat="46.448959946632385" lon="12.9634028673172">
        <ele>1352.6931263585027</ele>
        <time>2025-03-30T14:06:54.722Z</time>
      </trkpt>
      <trkpt lat="46.44906985759735" lon="12.963294744491577">
        <ele>1358.7166264906537</ele>
        <time>2025-03-30T14:07:13.722Z</time>
      </trkpt>
      <trkpt lat="46.44921803474426" lon="12.963309168815613">
        <ele>1364.1915462495767</ele>
        <time>2025-03-30T14:07:39.722Z</time>
      </trkpt>
      <trkpt lat="46.44940650463104" lon="12.963298082351685">
        <ele>1369.9838705846992</ele>
        <time>2025-03-30T14:08:10.722Z</time>
      </trkpt>
      <trkpt lat="46.44947564601898" lon="12.96334993839264">
        <ele>1371.3879086492964</ele>
        <time>2025-03-30T14:08:19.722Z</time>
      </trkpt>
      <trkpt lat="46.449501514434814" lon="12.963416814804077">
        <ele>1371.263731792584</ele>
        <time>2025-03-30T14:08:25.722Z</time>
      </trkpt>
      <trkpt lat="46.44957625865936" lon="12.963423252105713">
        <ele>1373.1391616604665</ele>
        <time>2025-03-30T14:08:33.722Z</time>
      </trkpt>
      <trkpt lat="46.44971489906311" lon="12.963552594184875">
        <ele>1375.310638407892</ele>
        <time>2025-03-30T14:08:49.722Z</time>
      </trkpt>
      <trkpt lat="46.44987332820892" lon="12.96363890171051">
        <ele>1378.8984453030605</ele>
        <time>2025-03-30T14:09:06.722Z</time>
      </trkpt>
      <trkpt lat="46.449954867362976" lon="12.963642239570618">
        <ele>1380.9885193154444</ele>
        <time>2025-03-30T14:09:14.722Z</time>
      </trkpt>
      <trkpt lat="46.44997692108154" lon="12.963714241981506">
        <ele>1381.3404268074785</ele>
        <time>2025-03-30T14:09:21.722Z</time>
      </trkpt>
      <trkpt lat="46.45034694671631" lon="12.963852524757385">
        <ele>1390.8296088915326</ele>
        <time>2025-03-30T14:10:01.722Z</time>
      </trkpt>
      <trkpt lat="46.45044195652008" lon="12.963952779769897">
        <ele>1393.6276749407966</ele>
        <time>2025-03-30T14:10:11.722Z</time>
      </trkpt>
      <trkpt lat="46.45059633255005" lon="12.964272499084473">
        <ele>1396.393471252813</ele>
        <time>2025-03-30T14:10:33.722Z</time>
      </trkpt>
      <trkpt lat="46.45072305202484" lon="12.964500308036804">
        <ele>1397.610571342273</ele>
        <time>2025-03-30T14:10:50.722Z</time>
      </trkpt>
      <trkpt lat="46.450907826423645" lon="12.964754223823547">
        <ele>1398.768860999131</ele>
        <time>2025-03-30T14:11:12.722Z</time>
      </trkpt>
      <trkpt lat="46.45099925994873" lon="12.964845061302185">
        <ele>1399.158106433142</ele>
        <time>2025-03-30T14:11:21.722Z</time>
      </trkpt>
      <trkpt lat="46.45112490653992" lon="12.964881777763367">
        <ele>1399.2852110866775</ele>
        <time>2025-03-30T14:11:39.722Z</time>
      </trkpt>
      <trkpt lat="46.45129370689392" lon="12.964831352233887">
        <ele>1396.9695656992035</ele>
        <time>2025-03-30T14:11:56.722Z</time>
      </trkpt>
      <trkpt lat="46.45140016078949" lon="12.96487808227539">
        <ele>1394.6616425392222</ele>
        <time>2025-03-30T14:12:05.722Z</time>
      </trkpt>
      <trkpt lat="46.45153033733368" lon="12.964872598648071">
        <ele>1391.4959333075685</ele>
        <time>2025-03-30T14:12:15.722Z</time>
      </trkpt>
      <trkpt lat="46.45169520378113" lon="12.964810013771057">
        <ele>1387.9106697881375</ele>
        <time>2025-03-30T14:12:23.722Z</time>
      </trkpt>
      <trkpt lat="46.45188915729523" lon="12.96480143070221">
        <ele>1384.6238463629984</ele>
        <time>2025-03-30T14:12:40.722Z</time>
      </trkpt>
      <trkpt lat="46.452091336250305" lon="12.964709281921387">
        <ele>1380.5472738643366</ele>
        <time>2025-03-30T14:12:54.722Z</time>
      </trkpt>
      <trkpt lat="46.45256686210632" lon="12.964938998222351">
        <ele>1374.839758075636</ele>
        <time>2025-03-30T14:13:32.722Z</time>
      </trkpt>
      <trkpt lat="46.4527884721756" lon="12.964888095855713">
        <ele>1374.1205555551694</ele>
        <time>2025-03-30T14:13:53.722Z</time>
      </trkpt>
      <trkpt lat="46.452924489974976" lon="12.964892268180847">
        <ele>1374.2848939874355</ele>
        <time>2025-03-30T14:15:29.722Z</time>
      </trkpt>
      <trkpt lat="46.45283234119415" lon="12.96491289138794">
        <ele>1374.4466666664937</ele>
        <time>2025-03-30T14:16:29.722Z</time>
      </trkpt>
      <trkpt lat="46.452882170677185" lon="12.964881777763367">
        <ele>1374.002175283116</ele>
        <time>2025-03-30T14:16:46.722Z</time>
      </trkpt>
      <trkpt lat="46.45318901538849" lon="12.96491539478302">
        <ele>1376.6537715526854</ele>
        <time>2025-03-30T14:17:26.722Z</time>
      </trkpt>
      <trkpt lat="46.453431844711304" lon="12.964882254600525">
        <ele>1382.3419116819232</ele>
        <time>2025-03-30T14:17:45.722Z</time>
      </trkpt>
      <trkpt lat="46.453524589538574" lon="12.964922904968262">
        <ele>1384.9907416722315</ele>
        <time>2025-03-30T14:17:53.722Z</time>
      </trkpt>
      <trkpt lat="46.45376920700073" lon="12.964750528335571">
        <ele>1390.5798808610255</ele>
        <time>2025-03-30T14:18:22.722Z</time>
      </trkpt>
      <trkpt lat="46.45401048660278" lon="12.964791417121887">
        <ele>1388.4614077336792</ele>
        <time>2025-03-30T14:18:55.722Z</time>
      </trkpt>
      <trkpt lat="46.4544438123703" lon="12.964783787727356">
        <ele>1372.3305468736223</ele>
        <time>2025-03-30T14:19:33.722Z</time>
      </trkpt>
      <trkpt lat="46.45466697216034" lon="12.964708924293518">
        <ele>1363.7835930925398</ele>
        <time>2025-03-30T14:19:50.722Z</time>
      </trkpt>
      <trkpt lat="46.4547244310379" lon="12.96475338935852">
        <ele>1361.8728722597193</ele>
        <time>2025-03-30T14:19:57.722Z</time>
      </trkpt>
      <trkpt lat="46.455182909965515" lon="12.964660167694092">
        <ele>1347.6734397313937</ele>
        <time>2025-03-30T14:20:27.722Z</time>
      </trkpt>
      <trkpt lat="46.455373644828796" lon="12.964673280715942">
        <ele>1343.3950840451466</ele>
        <time>2025-03-30T14:20:44.722Z</time>
      </trkpt>
      <trkpt lat="46.45612859725952" lon="12.96445083618164">
        <ele>1333.1000000000006</ele>
        <time>2025-03-30T14:21:36.722Z</time>
      </trkpt>
      <trkpt lat="46.456236243247986" lon="12.964288353919983">
        <ele>1333.0616552858412</ele>
        <time>2025-03-30T14:21:51.722Z</time>
      </trkpt>
      <trkpt lat="46.45643222332001" lon="12.964207530021667">
        <ele>1335.2979592848428</ele>
        <time>2025-03-30T14:22:08.722Z</time>
      </trkpt>
      <trkpt lat="46.456433057785034" lon="12.964257597923279">
        <ele>1336.036514996193</ele>
        <time>2025-03-30T14:22:16.722Z</time>
      </trkpt>
      <trkpt lat="46.456502199172974" lon="12.964439392089844">
        <ele>1338.5979429429913</ele>
        <time>2025-03-30T14:22:33.722Z</time>
      </trkpt>
      <trkpt lat="46.4566935300827" lon="12.964473605155945">
        <ele>1342.4449975438147</ele>
        <time>2025-03-30T14:22:59.722Z</time>
      </trkpt>
      <trkpt lat="46.45673620700836" lon="12.964405059814453">
        <ele>1343.179962530717</ele>
        <time>2025-03-30T14:23:09.722Z</time>
      </trkpt>
      <trkpt lat="46.4568567276001" lon="12.964343190193176">
        <ele>1343.1234990464704</ele>
        <time>2025-03-30T14:23:28.722Z</time>
      </trkpt>
      <trkpt lat="46.45706796646118" lon="12.96445095539093">
        <ele>1345.2144015795889</ele>
        <time>2025-03-30T14:23:58.722Z</time>
      </trkpt>
      <trkpt lat="46.45804762840271" lon="12.964303970336914">
        <ele>1353.495333212323</ele>
        <time>2025-03-30T14:25:23.722Z</time>
      </trkpt>
      <trkpt lat="46.45815813541412" lon="12.964152693748474">
        <ele>1352.8019701149701</ele>
        <time>2025-03-30T14:25:36.722Z</time>
      </trkpt>
      <trkpt lat="46.45826208591461" lon="12.964078664779663">
        <ele>1353.5841107547885</ele>
        <time>2025-03-30T14:25:44.722Z</time>
      </trkpt>
      <trkpt lat="46.45842909812927" lon="12.963819146156311">
        <ele>1350.533077789378</ele>
        <time>2025-03-30T14:25:59.722Z</time>
      </trkpt>
      <trkpt lat="46.45866668224335" lon="12.963571667671204">
        <ele>1344.53894999383</ele>
        <time>2025-03-30T14:26:25.722Z</time>
      </trkpt>
      <trkpt lat="46.45888662338257" lon="12.963433980941772">
        <ele>1343.0060793667142</ele>
        <time>2025-03-30T14:26:41.722Z</time>
      </trkpt>
      <trkpt lat="46.45911681652069" lon="12.96338140964508">
        <ele>1347.3370117147385</ele>
        <time>2025-03-30T14:27:02.722Z</time>
      </trkpt>
      <trkpt lat="46.45938241481781" lon="12.963044047355652">
        <ele>1348.6149834009384</ele>
        <time>2025-03-30T14:27:26.722Z</time>
      </trkpt>
      <trkpt lat="46.459572553634644" lon="12.962963223457336">
        <ele>1353.2811266435885</ele>
        <time>2025-03-30T14:27:55.722Z</time>
      </trkpt>
      <trkpt lat="46.45975875854492" lon="12.962721943855286">
        <ele>1359.9050594667597</ele>
        <time>2025-03-30T14:28:19.722Z</time>
      </trkpt>
      <trkpt lat="46.45989179611206" lon="12.962320327758789">
        <ele>1366.845922363404</ele>
        <time>2025-03-30T14:28:58.722Z</time>
      </trkpt>
      <trkpt lat="46.45994806289673" lon="12.962244391441345">
        <ele>1368.7261057397893</ele>
        <time>2025-03-30T14:29:14.722Z</time>
      </trkpt>
      <trkpt lat="46.46010971069336" lon="12.962265253067017">
        <ele>1372.287453639458</ele>
        <time>2025-03-30T14:29:35.722Z</time>
      </trkpt>
      <trkpt lat="46.46019649505615" lon="12.962222456932068">
        <ele>1372.900451633616</ele>
        <time>2025-03-30T14:29:45.722Z</time>
      </trkpt>
      <trkpt lat="46.460243225097656" lon="12.962254643440247">
        <ele>1372.7155910987499</ele>
        <time>2025-03-30T14:29:50.722Z</time>
      </trkpt>
      <trkpt lat="46.46082401275635" lon="12.962145566940308">
        <ele>1365.6284506135198</ele>
        <time>2025-03-30T14:30:39.722Z</time>
      </trkpt>
      <trkpt lat="46.46124470233917" lon="12.962168097496033">
        <ele>1357.34297534878</ele>
        <time>2025-03-30T14:31:08.722Z</time>
      </trkpt>
      <trkpt lat="46.4613299369812" lon="12.962208032608032">
        <ele>1355.5482245688086</ele>
        <time>2025-03-30T14:31:14.722Z</time>
      </trkpt>
      <trkpt lat="46.4615364074707" lon="12.962168216705322">
        <ele>1353.6637543487084</ele>
        <time>2025-03-30T14:31:34.722Z</time>
      </trkpt>
      <trkpt lat="46.46163809299469" lon="12.962212562561035">
        <ele>1351.4444055930921</ele>
        <time>2025-03-30T14:31:43.722Z</time>
      </trkpt>
      <trkpt lat="46.461989879608154" lon="12.96221137046814">
        <ele>1344.4150745477234</ele>
        <time>2025-03-30T14:32:09.722Z</time>
      </trkpt>
      <trkpt lat="46.46214985847473" lon="12.962149620056152">
        <ele>1342.6945105435138</ele>
        <time>2025-03-30T14:32:21.722Z</time>
      </trkpt>
      <trkpt lat="46.4622722864151" lon="12.962183594703674">
        <ele>1340.0711262212146</ele>
        <time>2025-03-30T14:32:30.722Z</time>
      </trkpt>
      <trkpt lat="46.46264684200287" lon="12.962151050567627">
        <ele>1332.95141732261</ele>
        <time>2025-03-30T14:32:53.722Z</time>
      </trkpt>
      <trkpt lat="46.46283173561096" lon="12.962076663970947">
        <ele>1329.4695494674</ele>
        <time>2025-03-30T14:33:07.722Z</time>
      </trkpt>
      <trkpt lat="46.4629430770874" lon="12.9620863199234">
        <ele>1326.995113613725</ele>
        <time>2025-03-30T14:33:15.722Z</time>
      </trkpt>
      <trkpt lat="46.46299076080322" lon="12.961989760398865">
        <ele>1326.45351938395</ele>
        <time>2025-03-30T14:33:26.722Z</time>
      </trkpt>
      <trkpt lat="46.46313405036926" lon="12.961888194084167">
        <ele>1323.5335050691135</ele>
        <time>2025-03-30T14:33:42.722Z</time>
      </trkpt>
      <trkpt lat="46.46314096450806" lon="12.961948037147522">
        <ele>1323.9236570476232</ele>
        <time>2025-03-30T14:33:54.722Z</time>
      </trkpt>
      <trkpt lat="46.46334612369537" lon="12.961693048477173">
        <ele>1317.4397222225564</ele>
        <time>2025-03-30T14:34:12.722Z</time>
      </trkpt>
      <trkpt lat="46.463340299349426" lon="12.961676865301996">
        <ele>1317.033659588374</ele>
        <time>2025-03-30T14:34:14.098Z</time>
      </trkpt>
      <trkpt lat="46.463299" lon="12.961562">
        <ele>1314.3314537747062</ele>
        <time>2025-03-30T14:34:23.864Z</time>
      </trkpt>
      <trkpt lat="46.463283" lon="12.961347">
        <ele>1308.7315646785532</ele>
        <time>2025-03-30T14:34:40.163Z</time>
      </trkpt>
      <trkpt lat="46.463236" lon="12.961002">
        <ele>1300.4697660482166</ele>
        <time>2025-03-30T14:35:06.670Z</time>
      </trkpt>
      <trkpt lat="46.46323" lon="12.960828">
        <ele>1296.0167474619288</ele>
        <time>2025-03-30T14:35:19.801Z</time>
      </trkpt>
      <trkpt lat="46.463482" lon="12.960327">
        <ele>1281.6240447721448</ele>
        <time>2025-03-30T14:36:06.559Z</time>
      </trkpt>
      <trkpt lat="46.46342" lon="12.960266">
        <ele>1280.6626232243502</ele>
        <time>2025-03-30T14:36:14.754Z</time>
      </trkpt>
      <trkpt lat="46.463369" lon="12.960156">
        <ele>1279.273518702939</ele>
        <time>2025-03-30T14:36:24.748Z</time>
      </trkpt>
      <trkpt lat="46.463393" lon="12.960069">
        <ele>1277.9660519648937</ele>
        <time>2025-03-30T14:36:31.811Z</time>
      </trkpt>
      <trkpt lat="46.463457" lon="12.959846">
        <ele>1276.094643727945</ele>
        <time>2025-03-30T14:36:50.020Z</time>
      </trkpt>
      <trkpt lat="46.463554" lon="12.959353">
        <ele>1271.3227328335513</ele>
        <time>2025-03-30T14:37:28.665Z</time>
      </trkpt>
      <trkpt lat="46.46367" lon="12.958601">
        <ele>1255.2005932416776</ele>
        <time>2025-03-30T14:38:26.749Z</time>
      </trkpt>
      <trkpt lat="46.463734" lon="12.958521">
        <ele>1253.8075655922776</ele>
        <time>2025-03-30T14:38:35.990Z</time>
      </trkpt>
      <trkpt lat="46.46376" lon="12.958444">
        <ele>1252.714155354864</ele>
        <time>2025-03-30T14:38:42.453Z</time>
      </trkpt>
      <trkpt lat="46.463827" lon="12.958511">
        <ele>1253.6248360522707</ele>
        <time>2025-03-30T14:38:51.355Z</time>
      </trkpt>
      <trkpt lat="46.463909" lon="12.9585">
        <ele>1253.6182236534087</ele>
        <time>2025-03-30T14:39:00.366Z</time>
      </trkpt>
      <trkpt lat="46.464007" lon="12.958377">
        <ele>1252.2041552293585</ele>
        <time>2025-03-30T14:39:14.541Z</time>
      </trkpt>
      <trkpt lat="46.464058" lon="12.958038">
        <ele>1248.3128799504536</ele>
        <time>2025-03-30T14:39:40.694Z</time>
      </trkpt>
      <trkpt lat="46.464068" lon="12.95774">
        <ele>1245.2865725531246</ele>
        <time>2025-03-30T14:40:03.181Z</time>
      </trkpt>
      <trkpt lat="46.464058" lon="12.957437">
        <ele>1242.976405295446</ele>
        <time>2025-03-30T14:40:26.045Z</time>
      </trkpt>
      <trkpt lat="46.46412" lon="12.957041">
        <ele>1241.8583459791441</ele>
        <time>2025-03-30T14:40:56.654Z</time>
      </trkpt>
      <trkpt lat="46.463945" lon="12.956676">
        <ele>1239.6893341237173</ele>
        <time>2025-03-30T14:41:30.173Z</time>
      </trkpt>
      <trkpt lat="46.463652" lon="12.956363">
        <ele>1233.624077756478</ele>
        <time>2025-03-30T14:42:09.979Z</time>
      </trkpt>
      <trkpt lat="46.463642" lon="12.956147">
        <ele>1231.267366398985</ele>
        <time>2025-03-30T14:42:26.296Z</time>
      </trkpt>
      <trkpt lat="46.463704" lon="12.955895">
        <ele>1227.9794455832243</ele>
        <time>2025-03-30T14:42:46.465Z</time>
      </trkpt>
      <trkpt lat="46.463654" lon="12.955487">
        <ele>1220.5173901188452</ele>
        <time>2025-03-30T14:43:17.700Z</time>
      </trkpt>
      <trkpt lat="46.463789" lon="12.955166">
        <ele>1215.4339068699637</ele>
        <time>2025-03-30T14:43:46.048Z</time>
      </trkpt>
      <trkpt lat="46.463887" lon="12.954859">
        <ele>1212.7610406618533</ele>
        <time>2025-03-30T14:44:11.863Z</time>
      </trkpt>
      <trkpt lat="46.463889" lon="12.954854">
        <ele>1212.7409224291803</ele>
        <time>2025-03-30T14:44:12.304Z</time>
      </trkpt>
      <trkpt lat="46.463754" lon="12.954616">
        <ele>1208.4751770664445</ele>
        <time>2025-03-30T14:44:35.826Z</time>
      </trkpt>
      <trkpt lat="46.463559" lon="12.954303">
        <ele>1201.372783187615</ele>
        <time>2025-03-30T14:45:08.025Z</time>
      </trkpt>
      <trkpt lat="46.463478" lon="12.953974">
        <ele>1196.7710226676902</ele>
        <time>2025-03-30T14:45:34.681Z</time>
      </trkpt>
      <trkpt lat="46.46344" lon="12.953529">
        <ele>1192.2567836576147</ele>
        <time>2025-03-30T14:46:08.892Z</time>
      </trkpt>
      <trkpt lat="46.463422" lon="12.953077">
        <ele>1189.050061153094</ele>
        <time>2025-03-30T14:46:43.435Z</time>
      </trkpt>
      <trkpt lat="46.463397" lon="12.952874">
        <ele>1187.957048794523</ele>
        <time>2025-03-30T14:46:59.169Z</time>
      </trkpt>
      <trkpt lat="46.463373" lon="12.952681">
        <ele>1187.5772332696715</ele>
        <time>2025-03-30T14:47:14.133Z</time>
      </trkpt>
      <trkpt lat="46.463309" lon="12.952321">
        <ele>1188.3381154958809</ele>
        <time>2025-03-30T14:47:42.501Z</time>
      </trkpt>
      <trkpt lat="46.463288" lon="12.952059">
        <ele>1189.0755358220085</ele>
        <time>2025-03-30T14:48:02.627Z</time>
      </trkpt>
      <trkpt lat="46.463231" lon="12.951822">
        <ele>1188.350186142321</ele>
        <time>2025-03-30T14:48:21.781Z</time>
      </trkpt>
      <trkpt lat="46.462923" lon="12.951316">
        <ele>1184.2529498698261</ele>
        <time>2025-03-30T14:49:13.304Z</time>
      </trkpt>
      <trkpt lat="46.462657" lon="12.950909">
        <ele>1183.455478964557</ele>
        <time>2025-03-30T14:49:56.113Z</time>
      </trkpt>
      <trkpt lat="46.462387" lon="12.950662">
        <ele>1174.439576819294</ele>
        <time>2025-03-30T14:50:31.464Z</time>
      </trkpt>
      <trkpt lat="46.461831" lon="12.950262">
        <ele>1168.6790948956645</ele>
        <time>2025-03-30T14:51:40.201Z</time>
      </trkpt>
      <trkpt lat="46.461688" lon="12.950196">
        <ele>1170.565119954274</ele>
        <time>2025-03-30T14:51:56.822Z</time>
      </trkpt>
      <trkpt lat="46.461549" lon="12.950041">
        <ele>1172.250412961857</ele>
        <time>2025-03-30T14:52:16.237Z</time>
      </trkpt>
      <trkpt lat="46.461356" lon="12.949729">
        <ele>1168.5122147327897</ele>
        <time>2025-03-30T14:52:48.234Z</time>
      </trkpt>
      <trkpt lat="46.461191" lon="12.949741">
        <ele>1165.9610249757795</ele>
        <time>2025-03-30T14:53:06.534Z</time>
      </trkpt>
      <trkpt lat="46.461179" lon="12.950145">
        <ele>1167.0806223291775</ele>
        <time>2025-03-30T14:53:37.389Z</time>
      </trkpt>
      <trkpt lat="46.461153" lon="12.95042">
        <ele>1165.6708902399316</ele>
        <time>2025-03-30T14:53:58.569Z</time>
      </trkpt>
      <trkpt lat="46.461048" lon="12.950503">
        <ele>1164.5688051242978</ele>
        <time>2025-03-30T14:54:11.812Z</time>
      </trkpt>
      <trkpt lat="46.460963" lon="12.9504">
        <ele>1163.344862639989</ele>
        <time>2025-03-30T14:54:24.076Z</time>
      </trkpt>
      <trkpt lat="46.460418" lon="12.950065">
        <ele>1160.770965498302</ele>
        <time>2025-03-30T14:55:29.635Z</time>
      </trkpt>
      <trkpt lat="46.460326" lon="12.950054">
        <ele>1161.6036357646692</ele>
        <time>2025-03-30T14:55:39.860Z</time>
      </trkpt>
      <trkpt lat="46.460188" lon="12.950021">
        <ele>1162.4007389828607</ele>
        <time>2025-03-30T14:55:55.352Z</time>
      </trkpt>
      <trkpt lat="46.460095" lon="12.949952">
        <ele>1160.996846400489</ele>
        <time>2025-03-30T14:56:06.921Z</time>
      </trkpt>
      <trkpt lat="46.459972" lon="12.949939">
        <ele>1161.243683544429</ele>
        <time>2025-03-30T14:56:20.582Z</time>
      </trkpt>
      <trkpt lat="46.459885" lon="12.949947">
        <ele>1161.684709454936</ele>
        <time>2025-03-30T14:56:30.238Z</time>
      </trkpt>
      <trkpt lat="46.459773" lon="12.949939">
        <ele>1160.909016920195</ele>
        <time>2025-03-30T14:56:42.659Z</time>
      </trkpt>
      <trkpt lat="46.459647" lon="12.949885">
        <ele>1157.340350996566</ele>
        <time>2025-03-30T14:56:57.211Z</time>
      </trkpt>
      <trkpt lat="46.459511" lon="12.949898">
        <ele>1156.0870580044345</ele>
        <time>2025-03-30T14:57:12.308Z</time>
      </trkpt>
      <trkpt lat="46.459391" lon="12.949895">
        <ele>1154.1594616793243</ele>
        <time>2025-03-30T14:57:25.602Z</time>
      </trkpt>
      <trkpt lat="46.459318" lon="12.949848">
        <ele>1150.7814611484537</ele>
        <time>2025-03-30T14:57:34.448Z</time>
      </trkpt>
      <trkpt lat="46.459131" lon="12.949727">
        <ele>1140.6434596892625</ele>
        <time>2025-03-30T14:57:57.127Z</time>
      </trkpt>
      <trkpt lat="46.459059" lon="12.949445">
        <ele>1125.7304761965306</ele>
        <time>2025-03-30T14:58:20.076Z</time>
      </trkpt>
      <trkpt lat="46.459017" lon="12.949411">
        <ele>1123.1322566369915</ele>
        <time>2025-03-30T14:58:25.402Z</time>
      </trkpt>
      <trkpt lat="46.458965" lon="12.949413">
        <ele>1122.294749522303</ele>
        <time>2025-03-30T14:58:31.164Z</time>
      </trkpt>
      <trkpt lat="46.458876" lon="12.949463">
        <ele>1123.158794939478</ele>
        <time>2025-03-30T14:58:41.735Z</time>
      </trkpt>
      <trkpt lat="46.45876" lon="12.949588">
        <ele>1125.8005545921244</ele>
        <time>2025-03-30T14:58:57.737Z</time>
      </trkpt>
      <trkpt lat="46.458646" lon="12.949739">
        <ele>1126.8244842600823</ele>
        <time>2025-03-30T14:59:14.831Z</time>
      </trkpt>
      <trkpt lat="46.458571" lon="12.949888">
        <ele>1126.1529510836572</ele>
        <time>2025-03-30T14:59:28.912Z</time>
      </trkpt>
      <trkpt lat="46.458317" lon="12.950565">
        <ele>1113.030539122038</ele>
        <time>2025-03-30T15:00:27.738Z</time>
      </trkpt>
      <trkpt lat="46.458178" lon="12.950781">
        <ele>1108.7978049961628</ele>
        <time>2025-03-30T15:00:50.293Z</time>
      </trkpt>
      <trkpt lat="46.458049" lon="12.950944">
        <ele>1106.5082043119714</ele>
        <time>2025-03-30T15:01:09.237Z</time>
      </trkpt>
      <trkpt lat="46.457908" lon="12.951056">
        <ele>1104.949379472544</ele>
        <time>2025-03-30T15:01:27.041Z</time>
      </trkpt>
      <trkpt lat="46.457638" lon="12.951233">
        <ele>1103.7838955158281</ele>
        <time>2025-03-30T15:01:59.857Z</time>
      </trkpt>
      <trkpt lat="46.457433" lon="12.951399">
        <ele>1105.8683735675518</ele>
        <time>2025-03-30T15:02:25.859Z</time>
      </trkpt>
      <trkpt lat="46.457297" lon="12.951483">
        <ele>1106.5901753619323</ele>
        <time>2025-03-30T15:02:42.231Z</time>
      </trkpt>
      <trkpt lat="46.457205" lon="12.951531">
        <ele>1106.685278707183</ele>
        <time>2025-03-30T15:02:53.060Z</time>
      </trkpt>
      <trkpt lat="46.457054" lon="12.951587">
        <ele>1106.13511872688</ele>
        <time>2025-03-30T15:03:10.323Z</time>
      </trkpt>
      <trkpt lat="46.456677" lon="12.951774">
        <ele>1104.1554415003864</ele>
        <time>2025-03-30T15:03:54.454Z</time>
      </trkpt>
      <trkpt lat="46.456494" lon="12.95186">
        <ele>1101.9949946497334</ele>
        <time>2025-03-30T15:04:15.761Z</time>
      </trkpt>
      <trkpt lat="46.45611" lon="12.951995">
        <ele>1098.43590879785</ele>
        <time>2025-03-30T15:04:59.527Z</time>
      </trkpt>
      <trkpt lat="46.455873" lon="12.952086">
        <ele>1093.6999453665208</ele>
        <time>2025-03-30T15:05:26.682Z</time>
      </trkpt>
      <trkpt lat="46.455833" lon="12.95211">
        <ele>1092.7418319617047</ele>
        <time>2025-03-30T15:05:31.476Z</time>
      </trkpt>
      <trkpt lat="46.455786" lon="12.952205">
        <ele>1092.8705437355059</ele>
        <time>2025-03-30T15:05:40.401Z</time>
      </trkpt>
      <trkpt lat="46.455631" lon="12.952694">
        <ele>1094.3647734127012</ele>
        <time>2025-03-30T15:06:21.478Z</time>
      </trkpt>
      <trkpt lat="46.455602" lon="12.952998">
        <ele>1096.8938117206576</ele>
        <time>2025-03-30T15:06:44.898Z</time>
      </trkpt>
      <trkpt lat="46.455519" lon="12.953237">
        <ele>1094.7235727884054</ele>
        <time>2025-03-30T15:07:05.323Z</time>
      </trkpt>
      <trkpt lat="46.455488" lon="12.953386">
        <ele>1093.993151875596</ele>
        <time>2025-03-30T15:07:17.200Z</time>
      </trkpt>
      <trkpt lat="46.455447" lon="12.953664">
        <ele>1092.6280432919575</ele>
        <time>2025-03-30T15:07:38.895Z</time>
      </trkpt>
      <trkpt lat="46.455459" lon="12.953984">
        <ele>1094.6014128390475</ele>
        <time>2025-03-30T15:08:03.351Z</time>
      </trkpt>
      <trkpt lat="46.455486" lon="12.954099">
        <ele>1096.4458300451752</ele>
        <time>2025-03-30T15:08:12.622Z</time>
      </trkpt>
      <trkpt lat="46.455586" lon="12.954341">
        <ele>1101.7522053367932</ele>
        <time>2025-03-30T15:08:34.157Z</time>
      </trkpt>
      <trkpt lat="46.455621" lon="12.95447">
        <ele>1102.4231071435236</ele>
        <time>2025-03-30T15:08:44.737Z</time>
      </trkpt>
      <trkpt lat="46.455644" lon="12.954605">
        <ele>1101.8344294715416</ele>
        <time>2025-03-30T15:08:55.349Z</time>
      </trkpt>
      <trkpt lat="46.455675" lon="12.955026">
        <ele>1098.812765610688</ele>
        <time>2025-03-30T15:09:27.659Z</time>
      </trkpt>
      <trkpt lat="46.455732" lon="12.955448">
        <ele>1099.1470179443818</ele>
        <time>2025-03-30T15:10:00.475Z</time>
      </trkpt>
      <trkpt lat="46.455802" lon="12.955599">
        <ele>1100.9266223360476</ele>
        <time>2025-03-30T15:10:14.364Z</time>
      </trkpt>
      <trkpt lat="46.455861" lon="12.955892">
        <ele>1099.339790339536</ele>
        <time>2025-03-30T15:10:37.659Z</time>
      </trkpt>
      <trkpt lat="46.455933" lon="12.95601">
        <ele>1101.723207939332</ele>
        <time>2025-03-30T15:10:49.688Z</time>
      </trkpt>
      <trkpt lat="46.455948" lon="12.956059">
        <ele>1102.4653851165428</ele>
        <time>2025-03-30T15:10:53.779Z</time>
      </trkpt>
      <trkpt lat="46.45595" lon="12.956123">
        <ele>1103.1442991829465</ele>
        <time>2025-03-30T15:10:58.667Z</time>
      </trkpt>
      <trkpt lat="46.455941" lon="12.956177">
        <ele>1103.3876644774866</ele>
        <time>2025-03-30T15:11:02.906Z</time>
      </trkpt>
      <trkpt lat="46.455919" lon="12.956206">
        <ele>1102.6783829965675</ele>
        <time>2025-03-30T15:11:06.197Z</time>
      </trkpt>
      <trkpt lat="46.455877" lon="12.956302">
        <ele>1102.021128777926</ele>
        <time>2025-03-30T15:11:14.875Z</time>
      </trkpt>
      <trkpt lat="46.455826" lon="12.956515">
        <ele>1102.9860045850253</ele>
        <time>2025-03-30T15:11:32.083Z</time>
      </trkpt>
      <trkpt lat="46.455758" lon="12.956715">
        <ele>1102.2089310099336</ele>
        <time>2025-03-30T15:11:49.103Z</time>
      </trkpt>
      <trkpt lat="46.455672" lon="12.957027">
        <ele>1101.1603715329434</ele>
        <time>2025-03-30T15:12:14.747Z</time>
      </trkpt>
      <trkpt lat="46.455581" lon="12.957482">
        <ele>1097.8960794152154</ele>
        <time>2025-03-30T15:12:50.902Z</time>
      </trkpt>
      <trkpt lat="46.455582" lon="12.957708">
        <ele>1098.4330722359477</ele>
        <time>2025-03-30T15:13:08.149Z</time>
      </trkpt>
      <trkpt lat="46.455567" lon="12.957808">
        <ele>1097.7460625432027</ele>
        <time>2025-03-30T15:13:15.959Z</time>
      </trkpt>
      <trkpt lat="46.455565" lon="12.95793">
        <ele>1098.00178870957</ele>
        <time>2025-03-30T15:13:25.271Z</time>
      </trkpt>
      <trkpt lat="46.455583" lon="12.958134">
        <ele>1099.508287782455</ele>
        <time>2025-03-30T15:13:40.965Z</time>
      </trkpt>
      <trkpt lat="46.455577" lon="12.958278">
        <ele>1098.91159780326</ele>
        <time>2025-03-30T15:13:51.974Z</time>
      </trkpt>
      <trkpt lat="46.455585" lon="12.958432">
        <ele>1099.4581598434345</ele>
        <time>2025-03-30T15:14:03.759Z</time>
      </trkpt>
      <trkpt lat="46.455606" lon="12.958589">
        <ele>1101.3266453018332</ele>
        <time>2025-03-30T15:14:15.963Z</time>
      </trkpt>
      <trkpt lat="46.455602" lon="12.958701">
        <ele>1101.9355462881622</ele>
        <time>2025-03-30T15:14:24.521Z</time>
      </trkpt>
      <trkpt lat="46.455573" lon="12.958752">
        <ele>1101.1071352428444</ele>
        <time>2025-03-30T15:14:29.567Z</time>
      </trkpt>
      <trkpt lat="46.455536" lon="12.958757">
        <ele>1099.489584568268</ele>
        <time>2025-03-30T15:14:33.683Z</time>
      </trkpt>
      <trkpt lat="46.455494" lon="12.95872">
        <ele>1097.038287864965</ele>
        <time>2025-03-30T15:14:39.125Z</time>
      </trkpt>
      <trkpt lat="46.45537" lon="12.958558">
        <ele>1089.0493555261148</ele>
        <time>2025-03-30T15:14:57.604Z</time>
      </trkpt>
      <trkpt lat="46.455069" lon="12.958344">
        <ele>1077.481223579059</ele>
        <time>2025-03-30T15:15:34.731Z</time>
      </trkpt>
      <trkpt lat="46.455042" lon="12.958346">
        <ele>1077.1166920055828</ele>
        <time>2025-03-30T15:15:37.725Z</time>
      </trkpt>
      <trkpt lat="46.454948" lon="12.958399">
        <ele>1077.1367998969047</ele>
        <time>2025-03-30T15:15:48.895Z</time>
      </trkpt>
      <trkpt lat="46.454804" lon="12.958562">
        <ele>1080.398388619675</ele>
        <time>2025-03-30T15:16:09.122Z</time>
      </trkpt>
      <trkpt lat="46.45456" lon="12.958696">
        <ele>1082.9259837528705</ele>
        <time>2025-03-30T15:16:38.020Z</time>
      </trkpt>
      <trkpt lat="46.45439" lon="12.958847">
        <ele>1086.7317137363532</ele>
        <time>2025-03-30T15:17:00.097Z</time>
      </trkpt>
      <trkpt lat="46.454271" lon="12.958974">
        <ele>1090.386388239265</ele>
        <time>2025-03-30T15:17:16.458Z</time>
      </trkpt>
      <trkpt lat="46.454142" lon="12.959111">
        <ele>1095.4232102685378</ele>
        <time>2025-03-30T15:17:34.163Z</time>
      </trkpt>
      <trkpt lat="46.454069" lon="12.959151">
        <ele>1097.3238199359978</ele>
        <time>2025-03-30T15:17:42.806Z</time>
      </trkpt>
      <trkpt lat="46.453682" lon="12.959145">
        <ele>1102.2614918952145</ele>
        <time>2025-03-30T15:18:25.677Z</time>
      </trkpt>
      <trkpt lat="46.453531" lon="12.959165">
        <ele>1105.3420716144014</ele>
        <time>2025-03-30T15:18:42.473Z</time>
      </trkpt>
      <trkpt lat="46.453295" lon="12.959156">
        <ele>1106.8948735956792</ele>
        <time>2025-03-30T15:19:08.624Z</time>
      </trkpt>
      <trkpt lat="46.453229" lon="12.959201">
        <ele>1108.5962445118669</ele>
        <time>2025-03-30T15:19:16.701Z</time>
      </trkpt>
      <trkpt lat="46.453186" lon="12.959336">
        <ele>1113.2469334616378</ele>
        <time>2025-03-30T15:19:28.051Z</time>
      </trkpt>
      <trkpt lat="46.453136" lon="12.959421">
        <ele>1116.224516550266</ele>
        <time>2025-03-30T15:19:36.580Z</time>
      </trkpt>
      <trkpt lat="46.453074" lon="12.959485">
        <ele>1119.0165768650645</ele>
        <time>2025-03-30T15:19:45.007Z</time>
      </trkpt>
      <trkpt lat="46.453037" lon="12.959592">
        <ele>1123.6614828964236</ele>
        <time>2025-03-30T15:19:54.143Z</time>
      </trkpt>
      <trkpt lat="46.452962" lon="12.959727">
        <ele>1131.5853347883358</ele>
        <time>2025-03-30T15:20:07.378Z</time>
      </trkpt>
      <trkpt lat="46.452925" lon="12.959716">
        <ele>1132.0687541853383</ele>
        <time>2025-03-30T15:20:11.561Z</time>
      </trkpt>
      <trkpt lat="46.452745" lon="12.959449">
        <ele>1126.9023119395104</ele>
        <time>2025-03-30T15:20:40.069Z</time>
      </trkpt>
      <trkpt lat="46.452625" lon="12.959297">
        <ele>1124.731332058133</ele>
        <time>2025-03-30T15:20:57.711Z</time>
      </trkpt>
      <trkpt lat="46.452547" lon="12.959246">
        <ele>1125.2071768882388</ele>
        <time>2025-03-30T15:21:07.187Z</time>
      </trkpt>
      <trkpt lat="46.452466" lon="12.959176">
        <ele>1124.4742324108033</ele>
        <time>2025-03-30T15:21:17.629Z</time>
      </trkpt>
      <trkpt lat="46.452323" lon="12.959111">
        <ele>1124.0886909464382</ele>
        <time>2025-03-30T15:21:34.227Z</time>
      </trkpt>
      <trkpt lat="46.452184" lon="12.959016">
        <ele>1122.0888604120987</ele>
        <time>2025-03-30T15:21:51.245Z</time>
      </trkpt>
      <trkpt lat="46.452029" lon="12.959061">
        <ele>1126.9609845656312</ele>
        <time>2025-03-30T15:22:08.754Z</time>
      </trkpt>
      <trkpt lat="46.451951" lon="12.959061">
        <ele>1128.33746522162</ele>
        <time>2025-03-30T15:22:17.394Z</time>
      </trkpt>
      <trkpt lat="46.451796" lon="12.959123">
        <ele>1133.586299045296</ele>
        <time>2025-03-30T15:22:35.203Z</time>
      </trkpt>
      <trkpt lat="46.45164" lon="12.959162">
        <ele>1137.6078123890802</ele>
        <time>2025-03-30T15:22:52.737Z</time>
      </trkpt>
      <trkpt lat="46.451485" lon="12.959148">
        <ele>1139.4643217471437</ele>
        <time>2025-03-30T15:23:09.939Z</time>
      </trkpt>
      <trkpt lat="46.451311" lon="12.959055">
        <ele>1138.5955534569753</ele>
        <time>2025-03-30T15:23:30.478Z</time>
      </trkpt>
      <trkpt lat="46.45122" lon="12.958993">
        <ele>1138.210142769892</ele>
        <time>2025-03-30T15:23:41.613Z</time>
      </trkpt>
      <trkpt lat="46.451131" lon="12.958901">
        <ele>1136.5215314036695</ele>
        <time>2025-03-30T15:23:53.716Z</time>
      </trkpt>
      <trkpt lat="46.451072" lon="12.958802">
        <ele>1133.7942331497193</ele>
        <time>2025-03-30T15:24:03.705Z</time>
      </trkpt>
      <trkpt lat="46.45096" lon="12.95855">
        <ele>1126.863986196913</ele>
        <time>2025-03-30T15:24:26.591Z</time>
      </trkpt>
      <trkpt lat="46.450879" lon="12.958308">
        <ele>1121.623386483826</ele>
        <time>2025-03-30T15:24:47.124Z</time>
      </trkpt>
      <trkpt lat="46.45067" lon="12.95785">
        <ele>1114.732903633636</ele>
        <time>2025-03-30T15:25:29.049Z</time>
      </trkpt>
      <trkpt lat="46.450499" lon="12.957667">
        <ele>1111.3113843109934</ele>
        <time>2025-03-30T15:25:52.583Z</time>
      </trkpt>
      <trkpt lat="46.450451" lon="12.957594">
        <ele>1109.1342001853525</ele>
        <time>2025-03-30T15:26:00.284Z</time>
      </trkpt>
      <trkpt lat="46.450329" lon="12.95751">
        <ele>1106.9385866541745</ele>
        <time>2025-03-30T15:26:15.241Z</time>
      </trkpt>
      <trkpt lat="46.450126" lon="12.957479">
        <ele>1107.22109778307</ele>
        <time>2025-03-30T15:26:37.851Z</time>
      </trkpt>
      <trkpt lat="46.450025" lon="12.957454">
        <ele>1107.012832237153</ele>
        <time>2025-03-30T15:26:49.200Z</time>
      </trkpt>
      <trkpt lat="46.449911" lon="12.957448">
        <ele>1107.8116015121818</ele>
        <time>2025-03-30T15:27:01.836Z</time>
      </trkpt>
      <trkpt lat="46.449648" lon="12.95733">
        <ele>1105.7112204211826</ele>
        <time>2025-03-30T15:27:32.329Z</time>
      </trkpt>
      <trkpt lat="46.449594" lon="12.957285">
        <ele>1104.2243976784616</ele>
        <time>2025-03-30T15:27:39.226Z</time>
      </trkpt>
      <trkpt lat="46.449526" lon="12.957271">
        <ele>1104.099490595325</ele>
        <time>2025-03-30T15:27:46.833Z</time>
      </trkpt>
      <trkpt lat="46.449435" lon="12.957209">
        <ele>1101.3789118578056</ele>
        <time>2025-03-30T15:27:57.968Z</time>
      </trkpt>
      <trkpt lat="46.449268" lon="12.957156">
        <ele>1097.720304882899</ele>
        <time>2025-03-30T15:28:16.903Z</time>
      </trkpt>
      <trkpt lat="46.449189" lon="12.957181">
        <ele>1097.5617785772968</ele>
        <time>2025-03-30T15:28:25.859Z</time>
      </trkpt>
      <trkpt lat="46.44909" lon="12.957266">
        <ele>1099.1584325123447</ele>
        <time>2025-03-30T15:28:38.600Z</time>
      </trkpt>
      <trkpt lat="46.448945" lon="12.957423">
        <ele>1101.587094516401</ele>
        <time>2025-03-30T15:28:58.639Z</time>
      </trkpt>
      <trkpt lat="46.448815" lon="12.957544">
        <ele>1100.6273844664456</ele>
        <time>2025-03-30T15:29:15.746Z</time>
      </trkpt>
      <trkpt lat="46.448697" lon="12.957631">
        <ele>1097.4471081707416</ele>
        <time>2025-03-30T15:29:30.406Z</time>
      </trkpt>
      <trkpt lat="46.448444" lon="12.957791">
        <ele>1089.0378270499316</ele>
        <time>2025-03-30T15:30:00.976Z</time>
      </trkpt>
      <trkpt lat="46.4483" lon="12.957954">
        <ele>1086.755527110585</ele>
        <time>2025-03-30T15:30:21.204Z</time>
      </trkpt>
      <trkpt lat="46.448167" lon="12.958016">
        <ele>1082.473405723808</ele>
        <time>2025-03-30T15:30:36.677Z</time>
      </trkpt>
      <trkpt lat="46.447673" lon="12.958524">
        <ele>1073.619415577603</ele>
        <time>2025-03-30T15:31:43.741Z</time>
      </trkpt>
      <trkpt lat="46.447532" lon="12.958699">
        <ele>1074.7851370356632</ele>
        <time>2025-03-30T15:32:04.291Z</time>
      </trkpt>
      <trkpt lat="46.447339" lon="12.958962">
        <ele>1079.1368646565263</ele>
        <time>2025-03-30T15:32:33.616Z</time>
      </trkpt>
      <trkpt lat="46.447291" lon="12.959015">
        <ele>1080.5863693357264</ele>
        <time>2025-03-30T15:32:40.296Z</time>
      </trkpt>
      <trkpt lat="46.447224" lon="12.95905">
        <ele>1081.9130289294767</ele>
        <time>2025-03-30T15:32:48.183Z</time>
      </trkpt>
      <trkpt lat="46.447139" lon="12.959058">
        <ele>1082.659006212792</ele>
        <time>2025-03-30T15:32:57.618Z</time>
      </trkpt>
      <trkpt lat="46.446911" lon="12.959042">
        <ele>1084.2058909858583</ele>
        <time>2025-03-30T15:33:22.903Z</time>
      </trkpt>
      <trkpt lat="46.446835" lon="12.959024">
        <ele>1084.9607848259159</ele>
        <time>2025-03-30T15:33:31.432Z</time>
      </trkpt>
      <trkpt lat="46.446702" lon="12.958797">
        <ele>1081.330507673428</ele>
        <time>2025-03-30T15:33:54.174Z</time>
      </trkpt>
      <trkpt lat="46.446626" lon="12.958694">
        <ele>1079.3173633986949</ele>
        <time>2025-03-30T15:34:05.692Z</time>
      </trkpt>
      <trkpt lat="46.446564" lon="12.958635">
        <ele>1077.9843735893214</ele>
        <time>2025-03-30T15:34:13.904Z</time>
      </trkpt>
      <trkpt lat="46.446486" lon="12.958628">
        <ele>1077.5988619496839</ele>
        <time>2025-03-30T15:34:22.560Z</time>
      </trkpt>
      <trkpt lat="46.446396" lon="12.958663">
        <ele>1078.4270741497742</ele>
        <time>2025-03-30T15:34:32.881Z</time>
      </trkpt>
      <trkpt lat="46.446273" lon="12.958733">
        <ele>1080.5317121216297</ele>
        <time>2025-03-30T15:34:47.515Z</time>
      </trkpt>
      <trkpt lat="46.446138" lon="12.958775">
        <ele>1082.373791854643</ele>
        <time>2025-03-30T15:35:02.808Z</time>
      </trkpt>
      <trkpt lat="46.44606" lon="12.958776">
        <ele>1083.2220215235845</ele>
        <time>2025-03-30T15:35:11.448Z</time>
      </trkpt>
      <trkpt lat="46.446026" lon="12.958749">
        <ele>1082.838020664477</ele>
        <time>2025-03-30T15:35:15.741Z</time>
      </trkpt>
      <trkpt lat="46.445952" lon="12.958663">
        <ele>1081.5120522558695</ele>
        <time>2025-03-30T15:35:26.242Z</time>
      </trkpt>
      <trkpt lat="46.44579" lon="12.958547">
        <ele>1080.8386874366167</ele>
        <time>2025-03-30T15:35:46.252Z</time>
      </trkpt>
      <trkpt lat="46.445689" lon="12.958538">
        <ele>1081.928356272449</ele>
        <time>2025-03-30T15:35:57.460Z</time>
      </trkpt>
      <trkpt lat="46.445603" lon="12.958569">
        <ele>1083.5541115759877</ele>
        <time>2025-03-30T15:36:07.275Z</time>
      </trkpt>
      <trkpt lat="46.445514" lon="12.958659">
        <ele>1086.1495737128964</ele>
        <time>2025-03-30T15:36:19.290Z</time>
      </trkpt>
      <trkpt lat="46.445405" lon="12.958806">
        <ele>1089.6662818948848</ele>
        <time>2025-03-30T15:36:35.772Z</time>
      </trkpt>
      <trkpt lat="46.445228" lon="12.958971">
        <ele>1091.90038383744</ele>
        <time>2025-03-30T15:36:59.074Z</time>
      </trkpt>
      <trkpt lat="46.445206" lon="12.959007">
        <ele>1092.251566425153</ele>
        <time>2025-03-30T15:37:02.746Z</time>
      </trkpt>
      <trkpt lat="46.445189" lon="12.959068">
        <ele>1092.9858842291108</ele>
        <time>2025-03-30T15:37:07.768Z</time>
      </trkpt>
      <trkpt lat="46.444132" lon="12.960627">
        <ele>1090.912877507595</ele>
        <time>2025-03-30T15:39:54.706Z</time>
      </trkpt>
      <trkpt lat="46.444071" lon="12.960769">
        <ele>1090.0663718440926</ele>
        <time>2025-03-30T15:40:07.478Z</time>
      </trkpt>
      <trkpt lat="46.444052" lon="12.960851">
        <ele>1089.660198387548</ele>
        <time>2025-03-30T15:40:14.081Z</time>
      </trkpt>
      <trkpt lat="46.444043" lon="12.960936">
        <ele>1089.270312383912</ele>
        <time>2025-03-30T15:40:20.645Z</time>
      </trkpt>
      <trkpt lat="46.443958" lon="12.962506">
        <ele>1081.9165476544724</ele>
        <time>2025-03-30T15:42:20.849Z</time>
      </trkpt>
      <trkpt lat="46.443934" lon="12.962615">
        <ele>1080.5332472349755</ele>
        <time>2025-03-30T15:42:29.583Z</time>
      </trkpt>
      <trkpt lat="46.443893" lon="12.962687">
        <ele>1078.907539798854</ele>
        <time>2025-03-30T15:42:36.712Z</time>
      </trkpt>
      <trkpt lat="46.443848" lon="12.962722">
        <ele>1077.550123410254</ele>
        <time>2025-03-30T15:42:42.367Z</time>
      </trkpt>
      <trkpt lat="46.443864" lon="12.962741">
        <ele>1077.7739106962003</ele>
        <time>2025-03-30T15:42:44.657Z</time>
      </trkpt>
      <trkpt lat="46.443876" lon="12.962794">
        <ele>1077.6637807824573</ele>
        <time>2025-03-30T15:42:48.915Z</time>
      </trkpt>
      <trkpt lat="46.443915" lon="12.963096">
        <ele>1077.2064400501565</ele>
        <time>2025-03-30T15:43:12.367Z</time>
      </trkpt>
      <trkpt lat="46.443922" lon="12.963206">
        <ele>1077.2046614225726</ele>
        <time>2025-03-30T15:43:20.798Z</time>
      </trkpt>
      <trkpt lat="46.443913" lon="12.963301">
        <ele>1076.7890249100935</ele>
        <time>2025-03-30T15:43:28.117Z</time>
      </trkpt>
      <trkpt lat="46.443892" lon="12.963379">
        <ele>1076.0656815519894</ele>
        <time>2025-03-30T15:43:34.508Z</time>
      </trkpt>
      <trkpt lat="46.443897" lon="12.963394">
        <ele>1076.2130895728612</ele>
        <time>2025-03-30T15:43:35.779Z</time>
      </trkpt>
    </trkseg>
  </trk>
</gpx>
