<?xml version="1.0" encoding="UTF-8"?>
<gpx creator="https://gpx.studio" version="1.1" xmlns="http://www.topografix.com/GPX/1/1" xmlns:xsi="http://www.w3.org/2001/XMLSchema-instance" xsi:schemaLocation="http://www.topografix.com/GPX/1/1 http://www.topografix.com/GPX/1/1/gpx.xsd http://www.garmin.com/xmlschemas/GpxExtensions/v3 http://www.garmin.com/xmlschemas/GpxExtensionsv3.xsd http://www.garmin.com/xmlschemas/TrackPointExtension/v1 http://www.garmin.com/xmlschemas/TrackPointExtensionv1.xsd http://www.garmin.com/xmlschemas/PowerExtension/v1 http://www.garmin.com/xmlschemas/PowerExtensionv1.xsd http://www.topografix.com/GPX/gpx_style/0/2 http://www.topografix.com/GPX/gpx_style/0/2/gpx_style.xsd" xmlns:gpxtpx="http://www.garmin.com/xmlschemas/TrackPointExtension/v1" xmlns:gpxx="http://www.garmin.com/xmlschemas/GpxExtensions/v3" xmlns:gpxpx="http://www.garmin.com/xmlschemas/PowerExtension/v1" xmlns:gpx_style="http://www.topografix.com/GPX/gpx_style/0/2">
  <metadata>
    <name>POR-I</name>
    <author>
      <name>gpx.studio</name>
      <link href="https://gpx.studio"/>
    </author>
  </metadata>
  <trk>
    <name>POR-I</name>
    <trkseg>
      <trkpt lat="46.428751" lon="12.946156">
        <ele>884.5477457732404</ele>
      </trkpt>
      <trkpt lat="46.429053" lon="12.946313">
        <ele>884.9943826642441</ele>
      </trkpt>
      <trkpt lat="46.42917" lon="12.94642">
        <ele>885.2173110468118</ele>
      </trkpt>
      <trkpt lat="46.429195" lon="12.946426">
        <ele>885.055869542219</ele>
      </trkpt>
      <trkpt lat="46.429277" lon="12.94638">
        <ele>883.9968257007902</ele>
      </trkpt>
      <trkpt lat="46.429369" lon="12.946549">
        <ele>884.7719368875925</ele>
      </trkpt>
      <trkpt lat="46.429627" lon="12.947149">
        <ele>887.035635733569</ele>
      </trkpt>
      <trkpt lat="46.429373" lon="12.947602">
        <ele>897.6226977894603</ele>
      </trkpt>
      <trkpt lat="46.429348" lon="12.94766">
        <ele>898.6534888824544</ele>
      </trkpt>
      <trkpt lat="46.42933" lon="12.947736">
        <ele>899.5509032882022</ele>
      </trkpt>
      <trkpt lat="46.429328" lon="12.947807">
        <ele>900.0439310519545</ele>
      </trkpt>
      <trkpt lat="46.429355" lon="12.948044">
        <ele>902.0432287542781</ele>
      </trkpt>
      <trkpt lat="46.429397" lon="12.9483">
        <ele>904.8535360242703</ele>
      </trkpt>
      <trkpt lat="46.429499" lon="12.948668">
        <ele>910.3063435915062</ele>
      </trkpt>
      <trkpt lat="46.429736" lon="12.949216">
        <ele>915.572948478819</ele>
      </trkpt>
      <trkpt lat="46.429965" lon="12.949951">
        <ele>919.7043385814836</ele>
      </trkpt>
      <trkpt lat="46.429999" lon="12.950112">
        <ele>920.8629072726715</ele>
      </trkpt>
      <trkpt lat="46.430003" lon="12.9502">
        <ele>921.9318763747269</ele>
      </trkpt>
      <trkpt lat="46.43" lon="12.95027">
        <ele>922.9761064867641</ele>
      </trkpt>
      <trkpt lat="46.429968" lon="12.950409">
        <ele>926.0282477035678</ele>
      </trkpt>
      <trkpt lat="46.429969" lon="12.950484">
        <ele>927.2006967418992</ele>
      </trkpt>
      <trkpt lat="46.429992" lon="12.950578">
        <ele>928.0596300664332</ele>
      </trkpt>
      <trkpt lat="46.430012" lon="12.950626">
        <ele>928.2862794217828</ele>
      </trkpt>
      <trkpt lat="46.430066" lon="12.950755">
        <ele>929.0951576672501</ele>
      </trkpt>
      <trkpt lat="46.43007" lon="12.950883">
        <ele>931.395631248365</ele>
      </trkpt>
      <trkpt lat="46.430089" lon="12.950955">
        <ele>932.5665404285891</ele>
      </trkpt>
      <trkpt lat="46.430117" lon="12.951022">
        <ele>933.5035087246206</ele>
      </trkpt>
      <trkpt lat="46.430243" lon="12.951178">
        <ele>934.8230962751009</ele>
      </trkpt>
      <trkpt lat="46.430307" lon="12.951209">
        <ele>934.5501759570939</ele>
      </trkpt>
      <trkpt lat="46.430386" lon="12.951205">
        <ele>933.3820247353062</ele>
      </trkpt>
      <trkpt lat="46.430463" lon="12.951179">
        <ele>931.8110267479831</ele>
      </trkpt>
      <trkpt lat="46.430522" lon="12.951125">
        <ele>930.139886407437</ele>
      </trkpt>
      <trkpt lat="46.430552" lon="12.951112">
        <ele>929.8527201728937</ele>
      </trkpt>
      <trkpt lat="46.430587" lon="12.951117">
        <ele>930.0450324180831</ele>
      </trkpt>
      <trkpt lat="46.430905" lon="12.951408">
        <ele>938.2504879501384</ele>
      </trkpt>
      <trkpt lat="46.431211" lon="12.951665">
        <ele>938.7925310790779</ele>
      </trkpt>
      <trkpt lat="46.431293" lon="12.95177">
        <ele>938.9189016782044</ele>
      </trkpt>
      <trkpt lat="46.43136" lon="12.95191">
        <ele>939.3218504768321</ele>
      </trkpt>
      <trkpt lat="46.431491" lon="12.952146">
        <ele>939.8088692740464</ele>
      </trkpt>
      <trkpt lat="46.431602" lon="12.952409">
        <ele>943.0072626782257</ele>
      </trkpt>
      <trkpt lat="46.431692" lon="12.952648">
        <ele>946.3974651244503</ele>
      </trkpt>
      <trkpt lat="46.431789" lon="12.953019">
        <ele>952.575641043656</ele>
      </trkpt>
      <trkpt lat="46.43118" lon="12.952683">
        <ele>957.9856297084577</ele>
      </trkpt>
      <trkpt lat="46.430568" lon="12.952584">
        <ele>961.1166479340984</ele>
      </trkpt>
      <trkpt lat="46.430375" lon="12.952552">
        <ele>962.2144303724875</ele>
      </trkpt>
      <trkpt lat="46.429537" lon="12.95268">
        <ele>965.4370465530451</ele>
      </trkpt>
      <trkpt lat="46.428778" lon="12.952498">
        <ele>957.3548553938049</ele>
      </trkpt>
      <trkpt lat="46.428423" lon="12.952702">
        <ele>958.6121223275368</ele>
      </trkpt>
      <trkpt lat="46.4276" lon="12.952527">
        <ele>956.6957556946443</ele>
      </trkpt>
      <trkpt lat="46.427023" lon="12.95212">
        <ele>958.0831457721349</ele>
      </trkpt>
      <trkpt lat="46.426758" lon="12.951899">
        <ele>955.1554631572227</ele>
      </trkpt>
      <trkpt lat="46.426452" lon="12.951591">
        <ele>950.3865400112463</ele>
      </trkpt>
      <trkpt lat="46.426046" lon="12.95154">
        <ele>948.5647491706754</ele>
      </trkpt>
      <trkpt lat="46.425121" lon="12.951032">
        <ele>943.1957848147262</ele>
      </trkpt>
      <trkpt lat="46.425015" lon="12.950974">
        <ele>943.7780800580338</ele>
      </trkpt>
      <trkpt lat="46.424772" lon="12.950778">
        <ele>943.4758400151973</ele>
      </trkpt>
      <trkpt lat="46.424544" lon="12.950461">
        <ele>939.5329156324971</ele>
      </trkpt>
      <trkpt lat="46.424187" lon="12.949771">
        <ele>927.104578810326</ele>
      </trkpt>
      <trkpt lat="46.424199" lon="12.950177">
        <ele>929.6099629383541</ele>
      </trkpt>
      <trkpt lat="46.424277" lon="12.950665">
        <ele>931.1344946334927</ele>
      </trkpt>
      <trkpt lat="46.424425" lon="12.951046">
        <ele>937.903156601208</ele>
      </trkpt>
      <trkpt lat="46.424584" lon="12.951502">
        <ele>945.9074555527425</ele>
      </trkpt>
      <trkpt lat="46.424462" lon="12.951561">
        <ele>945.4457722845538</ele>
      </trkpt>
      <trkpt lat="46.423911" lon="12.95162">
        <ele>939.1721902998172</ele>
      </trkpt>
      <trkpt lat="46.423674" lon="12.951658">
        <ele>938.449315062443</ele>
      </trkpt>
      <trkpt lat="46.423352" lon="12.951669">
        <ele>936.6852167240662</ele>
      </trkpt>
      <trkpt lat="46.422746" lon="12.951481">
        <ele>928.4504952183</ele>
      </trkpt>
      <trkpt lat="46.422568" lon="12.951341">
        <ele>925.305402339976</ele>
      </trkpt>
      <trkpt lat="46.422409" lon="12.951263">
        <ele>926.2387155453684</ele>
      </trkpt>
      <trkpt lat="46.422317" lon="12.951218">
        <ele>926.869564991375</ele>
      </trkpt>
      <trkpt lat="46.422162" lon="12.951218">
        <ele>931.9331904346333</ele>
      </trkpt>
      <trkpt lat="46.421988" lon="12.951148">
        <ele>934.9582395976421</ele>
      </trkpt>
      <trkpt lat="46.421821" lon="12.950971">
        <ele>934.2940529169755</ele>
      </trkpt>
      <trkpt lat="46.42164" lon="12.950746">
        <ele>933.4359305264907</ele>
      </trkpt>
      <trkpt lat="46.421496" lon="12.950681">
        <ele>935.0434205026813</ele>
      </trkpt>
      <trkpt lat="46.421344" lon="12.950746">
        <ele>940.158020993531</ele>
      </trkpt>
      <trkpt lat="46.421174" lon="12.950682">
        <ele>939.6467429175491</ele>
      </trkpt>
      <trkpt lat="46.421037" lon="12.950563">
        <ele>938.0012592665764</ele>
      </trkpt>
      <trkpt lat="46.420926" lon="12.950537">
        <ele>939.6375697562424</ele>
      </trkpt>
      <trkpt lat="46.420834" lon="12.950445">
        <ele>939.3220518482295</ele>
      </trkpt>
      <trkpt lat="46.420619" lon="12.950111">
        <ele>937.2739293162717</ele>
      </trkpt>
      <trkpt lat="46.42014" lon="12.949963">
        <ele>936.2645197950769</ele>
      </trkpt>
      <trkpt lat="46.420066" lon="12.949923">
        <ele>935.3120707530068</ele>
      </trkpt>
      <trkpt lat="46.419993" lon="12.949836">
        <ele>933.9856550354052</ele>
      </trkpt>
      <trkpt lat="46.419978" lon="12.949818">
        <ele>933.7406290424749</ele>
      </trkpt>
      <trkpt lat="46.419966" lon="12.949781">
        <ele>933.3460441138933</ele>
      </trkpt>
      <trkpt lat="46.419973" lon="12.949673">
        <ele>932.3637222589188</ele>
      </trkpt>
      <trkpt lat="46.420002" lon="12.949572">
        <ele>931.3435256251091</ele>
      </trkpt>
      <trkpt lat="46.420082" lon="12.949404">
        <ele>929.3803590253029</ele>
      </trkpt>
      <trkpt lat="46.42031" lon="12.949013">
        <ele>922.9405027166472</ele>
      </trkpt>
      <trkpt lat="46.420363" lon="12.94887">
        <ele>920.1974316766946</ele>
      </trkpt>
      <trkpt lat="46.420376" lon="12.948718">
        <ele>916.6352126130349</ele>
      </trkpt>
      <trkpt lat="46.420428" lon="12.948413">
        <ele>910.3996253001976</ele>
      </trkpt>
      <trkpt lat="46.420428" lon="12.948268">
        <ele>907.1530842593415</ele>
      </trkpt>
      <trkpt lat="46.42047" lon="12.94798">
        <ele>901.5892632082812</ele>
      </trkpt>
      <trkpt lat="46.420564" lon="12.947848">
        <ele>899.5893028978436</ele>
      </trkpt>
      <trkpt lat="46.420686" lon="12.947739">
        <ele>897.3790281461778</ele>
      </trkpt>
      <trkpt lat="46.420861" lon="12.947606">
        <ele>894.0191260244266</ele>
      </trkpt>
      <trkpt lat="46.420977" lon="12.947566">
        <ele>892.6030684934677</ele>
      </trkpt>
      <trkpt lat="46.421067" lon="12.947518">
        <ele>891.5602241202929</ele>
      </trkpt>
      <trkpt lat="46.421438" lon="12.947147">
        <ele>888.6611629279205</ele>
      </trkpt>
      <trkpt lat="46.421469" lon="12.947104">
        <ele>888.4182276863148</ele>
      </trkpt>
      <trkpt lat="46.421736" lon="12.946734">
        <ele>889.8624314658264</ele>
      </trkpt>
      <trkpt lat="46.421663" lon="12.946606">
        <ele>888.0055274454303</ele>
      </trkpt>
      <trkpt lat="46.421614" lon="12.946463">
        <ele>886.9837664370439</ele>
      </trkpt>
      <trkpt lat="46.421579" lon="12.946318">
        <ele>886.3793337416672</ele>
      </trkpt>
      <trkpt lat="46.421532" lon="12.946165">
        <ele>885.3673109517591</ele>
      </trkpt>
      <trkpt lat="46.421513" lon="12.945835">
        <ele>884.8798452846714</ele>
      </trkpt>
      <trkpt lat="46.42145" lon="12.945707">
        <ele>883.4209021543016</ele>
      </trkpt>
      <trkpt lat="46.421394" lon="12.945556">
        <ele>881.9826326507393</ele>
      </trkpt>
      <trkpt lat="46.421352" lon="12.945394">
        <ele>880.4416998358581</ele>
      </trkpt>
      <trkpt lat="46.421323" lon="12.945247">
        <ele>878.7107563528639</ele>
      </trkpt>
      <trkpt lat="46.421315" lon="12.945099">
        <ele>877.6026860426186</ele>
      </trkpt>
      <trkpt lat="46.421285" lon="12.944944">
        <ele>875.4686255979187</ele>
      </trkpt>
      <trkpt lat="46.421256" lon="12.944794">
        <ele>873.5090366578086</ele>
      </trkpt>
      <trkpt lat="46.421415" lon="12.944243">
        <ele>873.7555840463033</ele>
      </trkpt>
      <trkpt lat="46.421553" lon="12.943871">
        <ele>873.653095439792</ele>
      </trkpt>
      <trkpt lat="46.421675" lon="12.9436">
        <ele>873.6926099923445</ele>
      </trkpt>
      <trkpt lat="46.421858" lon="12.943284">
        <ele>874.510915367166</ele>
      </trkpt>
      <trkpt lat="46.422033" lon="12.943021">
        <ele>874.8616710974841</ele>
      </trkpt>
      <trkpt lat="46.422194" lon="12.942796">
        <ele>875.020686000962</ele>
      </trkpt>
      <trkpt lat="46.422331" lon="12.942636">
        <ele>875.285648876988</ele>
      </trkpt>
      <trkpt lat="46.42247" lon="12.942513">
        <ele>875.6902578137717</ele>
      </trkpt>
      <trkpt lat="46.422679" lon="12.942429">
        <ele>876.9686958106711</ele>
      </trkpt>
      <trkpt lat="46.422793" lon="12.942371">
        <ele>876.9486225040441</ele>
      </trkpt>
      <trkpt lat="46.422991" lon="12.942326">
        <ele>877.4481448208352</ele>
      </trkpt>
      <trkpt lat="46.423072" lon="12.942352">
        <ele>878.312121877743</ele>
      </trkpt>
      <trkpt lat="46.423178" lon="12.942431">
        <ele>880.3657629566505</ele>
      </trkpt>
      <trkpt lat="46.423318" lon="12.942497">
        <ele>881.9149809226408</ele>
      </trkpt>
      <trkpt lat="46.423526" lon="12.942565">
        <ele>884.0470875401056</ele>
      </trkpt>
      <trkpt lat="46.423774" lon="12.942715">
        <ele>885.9282646495855</ele>
      </trkpt>
      <trkpt lat="46.424" lon="12.942939">
        <ele>888.5389220067764</ele>
      </trkpt>
      <trkpt lat="46.424365" lon="12.943417">
        <ele>890.8600476132121</ele>
      </trkpt>
      <trkpt lat="46.424889" lon="12.943834">
        <ele>891.7823847943928</ele>
      </trkpt>
      <trkpt lat="46.425317" lon="12.944231">
        <ele>896.8578919921076</ele>
      </trkpt>
      <trkpt lat="46.425631" lon="12.944466">
        <ele>897.2642098378385</ele>
      </trkpt>
      <trkpt lat="46.425631" lon="12.944466">
        <ele>897.2642098378385</ele>
      </trkpt>
      <trkpt lat="46.425797" lon="12.944589">
        <ele>896.026026438428</ele>
      </trkpt>
      <trkpt lat="46.426129" lon="12.945045">
        <ele>893.1407908487375</ele>
      </trkpt>
      <trkpt lat="46.426275" lon="12.945274">
        <ele>893.293523598287</ele>
      </trkpt>
      <trkpt lat="46.4265" lon="12.945745">
        <ele>892.0812981192495</ele>
      </trkpt>
      <trkpt lat="46.426582" lon="12.945885">
        <ele>891.0939801422978</ele>
      </trkpt>
      <trkpt lat="46.426707" lon="12.946008">
        <ele>889.2801661473244</ele>
      </trkpt>
      <trkpt lat="46.426766" lon="12.946038">
        <ele>888.6198497400164</ele>
      </trkpt>
      <trkpt lat="46.426856" lon="12.946074">
        <ele>887.8193277695851</ele>
      </trkpt>
      <trkpt lat="46.427008" lon="12.946088">
        <ele>887.0936059691014</ele>
      </trkpt>
      <trkpt lat="46.42793" lon="12.945575">
        <ele>879.1971490737802</ele>
      </trkpt>
      <trkpt lat="46.42803" lon="12.945718">
        <ele>879.7584716567917</ele>
      </trkpt>
      <trkpt lat="46.428032" lon="12.945874">
        <ele>880.5305015460921</ele>
      </trkpt>
      <trkpt lat="46.428198" lon="12.946033">
        <ele>881.7667894045593</ele>
      </trkpt>
      <trkpt lat="46.428691" lon="12.94614">
        <ele>884.3632959999159</ele>
      </trkpt>
    </trkseg>
  </trk>
</gpx>
