<?xml version="1.0" encoding="UTF-8"?>
<gpx creator="https://gpx.studio" version="1.1" xmlns="http://www.topografix.com/GPX/1/1" xmlns:xsi="http://www.w3.org/2001/XMLSchema-instance" xsi:schemaLocation="http://www.topografix.com/GPX/1/1 http://www.topografix.com/GPX/1/1/gpx.xsd http://www.garmin.com/xmlschemas/GpxExtensions/v3 http://www.garmin.com/xmlschemas/GpxExtensionsv3.xsd http://www.garmin.com/xmlschemas/TrackPointExtension/v1 http://www.garmin.com/xmlschemas/TrackPointExtensionv1.xsd http://www.garmin.com/xmlschemas/PowerExtension/v1 http://www.garmin.com/xmlschemas/PowerExtensionv1.xsd http://www.topografix.com/GPX/gpx_style/0/2 http://www.topografix.com/GPX/gpx_style/0/2/gpx_style.xsd" xmlns:gpxtpx="http://www.garmin.com/xmlschemas/TrackPointExtension/v1" xmlns:gpxx="http://www.garmin.com/xmlschemas/GpxExtensions/v3" xmlns:gpxpx="http://www.garmin.com/xmlschemas/PowerExtension/v1" xmlns:gpx_style="http://www.topografix.com/GPX/gpx_style/0/2">
  <metadata>
    <name>VIN-V (SENT. CIMENTI)</name>
    <author>
      <name>gpx.studio</name>
      <link href="https://gpx.studio"/>
    </author>
  </metadata>
  <trk>
    <name>VIN-V (SENT. CIMENTI)</name>
    <trkseg>
      <trkpt lat="46.440626" lon="12.948039">
        <ele>828.4845323979378</ele>
      </trkpt>
      <trkpt lat="46.440697" lon="12.947766">
        <ele>830.6673630762393</ele>
      </trkpt>
      <trkpt lat="46.440809" lon="12.947554">
        <ele>833.4350369657839</ele>
      </trkpt>
      <trkpt lat="46.440825" lon="12.947484">
        <ele>834.3119851285622</ele>
      </trkpt>
      <trkpt lat="46.440884" lon="12.94735">
        <ele>836.4227015666193</ele>
      </trkpt>
      <trkpt lat="46.441056" lon="12.94734">
        <ele>836.0467130771964</ele>
      </trkpt>
      <trkpt lat="46.441116" lon="12.947313">
        <ele>836.1057808415977</ele>
      </trkpt>
      <trkpt lat="46.441268" lon="12.947208">
        <ele>837.2437991792383</ele>
      </trkpt>
      <trkpt lat="46.441345" lon="12.947122">
        <ele>839.1125146207877</ele>
      </trkpt>
      <trkpt lat="46.441496" lon="12.947025">
        <ele>840.7121860128286</ele>
      </trkpt>
      <trkpt lat="46.441565" lon="12.946912">
        <ele>844.0128426231166</ele>
      </trkpt>
      <trkpt lat="46.441671" lon="12.946791">
        <ele>847.3968981150877</ele>
      </trkpt>
      <trkpt lat="46.441705" lon="12.946722">
        <ele>850.0019392816309</ele>
      </trkpt>
      <trkpt lat="46.441865" lon="12.946556">
        <ele>856.6323061626038</ele>
      </trkpt>
      <trkpt lat="46.44206" lon="12.946404">
        <ele>862.2974361593842</ele>
      </trkpt>
      <trkpt lat="46.442189" lon="12.946347">
        <ele>865.3676243369325</ele>
      </trkpt>
      <trkpt lat="46.442343" lon="12.94631">
        <ele>869.132383082013</ele>
      </trkpt>
      <trkpt lat="46.442479" lon="12.946288">
        <ele>871.7455009117734</ele>
      </trkpt>
      <trkpt lat="46.442568" lon="12.946261">
        <ele>873.1141425943938</ele>
      </trkpt>
      <trkpt lat="46.442679" lon="12.946028">
        <ele>881.3053523802678</ele>
      </trkpt>
      <trkpt lat="46.442746" lon="12.946028">
        <ele>880.855204183389</ele>
      </trkpt>
      <trkpt lat="46.443159" lon="12.946026">
        <ele>883.2127673386361</ele>
      </trkpt>
      <trkpt lat="46.443209" lon="12.946128">
        <ele>881.4742882615675</ele>
      </trkpt>
      <trkpt lat="46.443377" lon="12.946322">
        <ele>880.3365206364083</ele>
      </trkpt>
      <trkpt lat="46.443559" lon="12.946426">
        <ele>880.6181253626019</ele>
      </trkpt>
      <trkpt lat="46.443676" lon="12.946458">
        <ele>881.7293190407107</ele>
      </trkpt>
      <trkpt lat="46.443842" lon="12.946696">
        <ele>878.7738579145408</ele>
      </trkpt>
      <trkpt lat="46.443991" lon="12.946803">
        <ele>882.4985806011299</ele>
      </trkpt>
      <trkpt lat="46.444438" lon="12.946808">
        <ele>901.566540153412</ele>
      </trkpt>
      <trkpt lat="46.444549" lon="12.946772">
        <ele>906.6531056554027</ele>
      </trkpt>
      <trkpt lat="46.44462" lon="12.946842">
        <ele>905.1226569027872</ele>
      </trkpt>
      <trkpt lat="46.44474" lon="12.947013">
        <ele>900.8534900382058</ele>
      </trkpt>
      <trkpt lat="46.444806" lon="12.947078">
        <ele>900.3320569205275</ele>
      </trkpt>
      <trkpt lat="46.444885" lon="12.947072">
        <ele>903.5526270774874</ele>
      </trkpt>
      <trkpt lat="46.445007" lon="12.947165">
        <ele>903.6641355961557</ele>
      </trkpt>
      <trkpt lat="46.445162" lon="12.947328">
        <ele>901.4920431935282</ele>
      </trkpt>
      <trkpt lat="46.445356" lon="12.94744">
        <ele>904.9094638778372</ele>
      </trkpt>
      <trkpt lat="46.445565" lon="12.947694">
        <ele>902.0796642346252</ele>
      </trkpt>
      <trkpt lat="46.445705" lon="12.94772">
        <ele>901.2516682313949</ele>
      </trkpt>
      <trkpt lat="46.445883" lon="12.947547">
        <ele>904.7908140147904</ele>
      </trkpt>
      <trkpt lat="46.445989" lon="12.947471">
        <ele>904.8711383615969</ele>
      </trkpt>
      <trkpt lat="46.446089" lon="12.94742">
        <ele>903.8732664386977</ele>
      </trkpt>
      <trkpt lat="46.44615" lon="12.94744">
        <ele>900.929126047251</ele>
      </trkpt>
      <trkpt lat="46.446346" lon="12.947455">
        <ele>892.7670048724513</ele>
      </trkpt>
      <trkpt lat="46.446478" lon="12.947339">
        <ele>891.0294095539263</ele>
      </trkpt>
      <trkpt lat="46.446533" lon="12.947179">
        <ele>893.7742815502696</ele>
      </trkpt>
      <trkpt lat="46.446636" lon="12.94698">
        <ele>894.1436757439252</ele>
      </trkpt>
      <trkpt lat="46.446727" lon="12.946977">
        <ele>889.3144966148232</ele>
      </trkpt>
      <trkpt lat="46.446853" lon="12.94679">
        <ele>892.9885554273285</ele>
      </trkpt>
      <trkpt lat="46.446916" lon="12.946909">
        <ele>886.803018496904</ele>
      </trkpt>
      <trkpt lat="46.446976" lon="12.946893">
        <ele>887.39556287717</ele>
      </trkpt>
      <trkpt lat="46.447104" lon="12.946878">
        <ele>889.6789833932451</ele>
      </trkpt>
      <trkpt lat="46.447243" lon="12.9468">
        <ele>897.4537565262531</ele>
      </trkpt>
      <trkpt lat="46.447344" lon="12.946856">
        <ele>897.575119499348</ele>
      </trkpt>
      <trkpt lat="46.44742" lon="12.94696">
        <ele>894.3261309718712</ele>
      </trkpt>
      <trkpt lat="46.447493" lon="12.947013">
        <ele>893.8004301641608</ele>
      </trkpt>
      <trkpt lat="46.44766" lon="12.947036">
        <ele>898.9888596001956</ele>
      </trkpt>
      <trkpt lat="46.447845" lon="12.947137">
        <ele>900.141926128655</ele>
      </trkpt>
      <trkpt lat="46.447952" lon="12.947241">
        <ele>897.8003454432456</ele>
      </trkpt>
      <trkpt lat="46.44802" lon="12.947345">
        <ele>894.5288966550085</ele>
      </trkpt>
      <trkpt lat="46.448074" lon="12.94748">
        <ele>889.5260561982659</ele>
      </trkpt>
      <trkpt lat="46.448147" lon="12.947539">
        <ele>888.7145689685387</ele>
      </trkpt>
      <trkpt lat="46.448275" lon="12.94755">
        <ele>890.9603751516805</ele>
      </trkpt>
      <trkpt lat="46.448473" lon="12.947528">
        <ele>892.2085185200849</ele>
      </trkpt>
      <trkpt lat="46.448606" lon="12.947418">
        <ele>894.9865711474171</ele>
      </trkpt>
      <trkpt lat="46.448713" lon="12.947261">
        <ele>898.2711721141784</ele>
      </trkpt>
      <trkpt lat="46.448811" lon="12.94714">
        <ele>899.5054666984306</ele>
      </trkpt>
      <trkpt lat="46.448885" lon="12.947126">
        <ele>899.7493853406045</ele>
      </trkpt>
      <trkpt lat="46.448926" lon="12.947176">
        <ele>899.4058058518926</ele>
      </trkpt>
      <trkpt lat="46.449015" lon="12.947432">
        <ele>898.0122125250011</ele>
      </trkpt>
      <trkpt lat="46.449073" lon="12.947513">
        <ele>899.6156504311039</ele>
      </trkpt>
      <trkpt lat="46.449156" lon="12.947598">
        <ele>902.640668054677</ele>
      </trkpt>
      <trkpt lat="46.449208" lon="12.947617">
        <ele>904.4746758746486</ele>
      </trkpt>
      <trkpt lat="46.449243" lon="12.947578">
        <ele>906.4430197135573</ele>
      </trkpt>
      <trkpt lat="46.449361" lon="12.947216">
        <ele>917.023590908105</ele>
      </trkpt>
      <trkpt lat="46.449516" lon="12.946943">
        <ele>927.6110357208224</ele>
      </trkpt>
      <trkpt lat="46.449688" lon="12.946496">
        <ele>946.264623280578</ele>
      </trkpt>
      <trkpt lat="46.449729" lon="12.946421">
        <ele>950.0419905128889</ele>
      </trkpt>
      <trkpt lat="46.449787" lon="12.94635">
        <ele>954.3792107919013</ele>
      </trkpt>
      <trkpt lat="46.450021" lon="12.946241">
        <ele>965.6313015585923</ele>
      </trkpt>
      <trkpt lat="46.450054" lon="12.946187">
        <ele>968.5864156373135</ele>
      </trkpt>
      <trkpt lat="46.450159" lon="12.946103">
        <ele>974.4858484871578</ele>
      </trkpt>
      <trkpt lat="46.450269" lon="12.945943">
        <ele>984.5788043062477</ele>
      </trkpt>
      <trkpt lat="46.450331" lon="12.945878">
        <ele>989.1812243583596</ele>
      </trkpt>
      <trkpt lat="46.45043" lon="12.945878">
        <ele>990.8758215428473</ele>
      </trkpt>
      <trkpt lat="46.450498" lon="12.945904">
        <ele>990.3844486705875</ele>
      </trkpt>
      <trkpt lat="46.450724" lon="12.945909">
        <ele>992.4880477177842</ele>
      </trkpt>
      <trkpt lat="46.450813" lon="12.945833">
        <ele>997.6959631356415</ele>
      </trkpt>
      <trkpt lat="46.45092" lon="12.945794">
        <ele>1001.0459226493596</ele>
      </trkpt>
      <trkpt lat="46.451078" lon="12.945757">
        <ele>1004.7237506681568</ele>
      </trkpt>
      <trkpt lat="46.4512" lon="12.94571">
        <ele>1008.7749844854002</ele>
      </trkpt>
      <trkpt lat="46.451343" lon="12.945715">
        <ele>1010.2649782295649</ele>
      </trkpt>
      <trkpt lat="46.451599" lon="12.945696">
        <ele>1013.3583752963232</ele>
      </trkpt>
      <trkpt lat="46.451914" lon="12.945274">
        <ele>1032.8618158950976</ele>
      </trkpt>
      <trkpt lat="46.452029" lon="12.945252">
        <ele>1033.9410866457144</ele>
      </trkpt>
      <trkpt lat="46.452135" lon="12.945263">
        <ele>1033.479762329357</ele>
      </trkpt>
      <trkpt lat="46.452567" lon="12.945176">
        <ele>1039.4061394346443</ele>
      </trkpt>
      <trkpt lat="46.452772" lon="12.945153">
        <ele>1043.5372369169008</ele>
      </trkpt>
      <trkpt lat="46.453117" lon="12.945269">
        <ele>1045.7580746831077</ele>
      </trkpt>
      <trkpt lat="46.45342" lon="12.945257">
        <ele>1051.4399094305836</ele>
      </trkpt>
      <trkpt lat="46.453591" lon="12.945266">
        <ele>1053.888789763753</ele>
      </trkpt>
      <trkpt lat="46.45373" lon="12.945218">
        <ele>1058.6446549422212</ele>
      </trkpt>
      <trkpt lat="46.453854" lon="12.945128">
        <ele>1063.9925119172813</ele>
      </trkpt>
      <trkpt lat="46.453976" lon="12.945013">
        <ele>1068.6388824058126</ele>
      </trkpt>
      <trkpt lat="46.454082" lon="12.944878">
        <ele>1073.2652989556523</ele>
      </trkpt>
      <trkpt lat="46.45417" lon="12.944732">
        <ele>1078.4755761874746</ele>
      </trkpt>
      <trkpt lat="46.454286" lon="12.944611">
        <ele>1081.2542611726606</ele>
      </trkpt>
      <trkpt lat="46.454429" lon="12.944513">
        <ele>1081.2124310305026</ele>
      </trkpt>
      <trkpt lat="46.45457" lon="12.944384">
        <ele>1081.8045639343854</ele>
      </trkpt>
      <trkpt lat="46.454682" lon="12.944198">
        <ele>1084.5136200595653</ele>
      </trkpt>
      <trkpt lat="46.454797" lon="12.944139">
        <ele>1085.245918156487</ele>
      </trkpt>
      <trkpt lat="46.454921" lon="12.944223">
        <ele>1084.9892841545961</ele>
      </trkpt>
      <trkpt lat="46.454996" lon="12.944215">
        <ele>1087.360390025052</ele>
      </trkpt>
      <trkpt lat="46.455099" lon="12.944226">
        <ele>1090.9708203640769</ele>
      </trkpt>
      <trkpt lat="46.455203" lon="12.944277">
        <ele>1093.7435092161843</ele>
      </trkpt>
      <trkpt lat="46.45535" lon="12.944305">
        <ele>1098.5596760054011</ele>
      </trkpt>
      <trkpt lat="46.455639" lon="12.944176">
        <ele>1113.9110384706185</ele>
      </trkpt>
      <trkpt lat="46.455927" lon="12.944091">
        <ele>1126.6184175608416</ele>
      </trkpt>
      <trkpt lat="46.456072" lon="12.944086">
        <ele>1131.527359250305</ele>
      </trkpt>
      <trkpt lat="46.456223" lon="12.94399">
        <ele>1140.400543276351</ele>
      </trkpt>
      <trkpt lat="46.456349" lon="12.943928">
        <ele>1146.371355903336</ele>
      </trkpt>
      <trkpt lat="46.456502" lon="12.943923">
        <ele>1150.463807888989</ele>
      </trkpt>
      <trkpt lat="46.45668" lon="12.943951">
        <ele>1153.1298587978026</ele>
      </trkpt>
      <trkpt lat="46.45693" lon="12.94392">
        <ele>1156.3475447642793</ele>
      </trkpt>
      <trkpt lat="46.457282" lon="12.943782">
        <ele>1163.36314829624</ele>
      </trkpt>
      <trkpt lat="46.457472" lon="12.943867">
        <ele>1162.691978299522</ele>
      </trkpt>
      <trkpt lat="46.457594" lon="12.943971">
        <ele>1160.5453791062037</ele>
      </trkpt>
      <trkpt lat="46.45775" lon="12.944066">
        <ele>1159.3308846579196</ele>
      </trkpt>
      <trkpt lat="46.457955" lon="12.944134">
        <ele>1160.954550227397</ele>
      </trkpt>
      <trkpt lat="46.458219" lon="12.944136">
        <ele>1167.8240458811686</ele>
      </trkpt>
      <trkpt lat="46.458337" lon="12.944221">
        <ele>1166.1652563344499</ele>
      </trkpt>
      <trkpt lat="46.458619" lon="12.944232">
        <ele>1171.5601957895876</ele>
      </trkpt>
      <trkpt lat="46.458768" lon="12.944305">
        <ele>1170.9747696416555</ele>
      </trkpt>
      <trkpt lat="46.459155" lon="12.944333">
        <ele>1179.4060452819247</ele>
      </trkpt>
      <trkpt lat="46.459413" lon="12.944336">
        <ele>1182.3767996585934</ele>
      </trkpt>
      <trkpt lat="46.459562" lon="12.944277">
        <ele>1184.080586866849</ele>
      </trkpt>
      <trkpt lat="46.459726" lon="12.944139">
        <ele>1186.2613084519483</ele>
      </trkpt>
      <trkpt lat="46.460024" lon="12.943698">
        <ele>1184.8905546663996</ele>
      </trkpt>
      <trkpt lat="46.460088" lon="12.943496">
        <ele>1183.9764575297027</ele>
      </trkpt>
      <trkpt lat="46.460108" lon="12.943333">
        <ele>1184.351508837287</ele>
      </trkpt>
      <trkpt lat="46.460162" lon="12.943111">
        <ele>1183.2441929252777</ele>
      </trkpt>
      <trkpt lat="46.460243" lon="12.942937">
        <ele>1180.7423625839886</ele>
      </trkpt>
      <trkpt lat="46.460259" lon="12.942768">
        <ele>1182.0144269480375</ele>
      </trkpt>
      <trkpt lat="46.460303" lon="12.942532">
        <ele>1182.1134447949478</ele>
      </trkpt>
      <trkpt lat="46.460472" lon="12.942125">
        <ele>1177.877596577444</ele>
      </trkpt>
      <trkpt lat="46.46057" lon="12.941847">
        <ele>1179.158810770614</ele>
      </trkpt>
      <trkpt lat="46.460609" lon="12.941653">
        <ele>1181.6292288998145</ele>
      </trkpt>
      <trkpt lat="46.460632" lon="12.941383">
        <ele>1185.59337842688</ele>
      </trkpt>
      <trkpt lat="46.460661" lon="12.941223">
        <ele>1186.3975947645038</ele>
      </trkpt>
      <trkpt lat="46.460735" lon="12.940984">
        <ele>1184.5700243159674</ele>
      </trkpt>
      <trkpt lat="46.460777" lon="12.940725">
        <ele>1183.5808450171198</ele>
      </trkpt>
      <trkpt lat="46.460837" lon="12.94018">
        <ele>1182.8969362343075</ele>
      </trkpt>
      <trkpt lat="46.460857" lon="12.939869">
        <ele>1184.744433509236</ele>
      </trkpt>
      <trkpt lat="46.46093" lon="12.93945">
        <ele>1181.6664503708248</ele>
      </trkpt>
      <trkpt lat="46.460928" lon="12.939234">
        <ele>1181.6920940450243</ele>
      </trkpt>
      <trkpt lat="46.460894" lon="12.939106">
        <ele>1183.4833502652132</ele>
      </trkpt>
      <trkpt lat="46.460746" lon="12.938556">
        <ele>1189.6796391982132</ele>
      </trkpt>
      <trkpt lat="46.460712" lon="12.938349">
        <ele>1190.0761460148278</ele>
      </trkpt>
      <trkpt lat="46.460727" lon="12.938163">
        <ele>1188.265014492856</ele>
      </trkpt>
      <trkpt lat="46.460893" lon="12.937694">
        <ele>1178.491417808797</ele>
      </trkpt>
      <trkpt lat="46.460961" lon="12.937346">
        <ele>1177.6885827440008</ele>
      </trkpt>
      <trkpt lat="46.460982" lon="12.937124">
        <ele>1178.1068703543351</ele>
      </trkpt>
      <trkpt lat="46.460967" lon="12.936947">
        <ele>1179.22013471701</ele>
      </trkpt>
      <trkpt lat="46.460944" lon="12.936795">
        <ele>1180.2610363962604</ele>
      </trkpt>
      <trkpt lat="46.460948" lon="12.936668">
        <ele>1180.4351906503557</ele>
      </trkpt>
      <trkpt lat="46.460984" lon="12.936531">
        <ele>1179.57408933938</ele>
      </trkpt>
      <trkpt lat="46.460981" lon="12.936438">
        <ele>1179.7529701597412</ele>
      </trkpt>
      <trkpt lat="46.460923" lon="12.936239">
        <ele>1182.260804232043</ele>
      </trkpt>
      <trkpt lat="46.46093" lon="12.936087">
        <ele>1181.7025527348428</ele>
      </trkpt>
      <trkpt lat="46.460893" lon="12.935674">
        <ele>1182.067943098609</ele>
      </trkpt>
      <trkpt lat="46.460864" lon="12.935497">
        <ele>1183.95783849574</ele>
      </trkpt>
      <trkpt lat="46.46087" lon="12.935224">
        <ele>1187.2666124363905</ele>
      </trkpt>
      <trkpt lat="46.460936" lon="12.934845">
        <ele>1188.4077512888784</ele>
      </trkpt>
      <trkpt lat="46.460994" lon="12.934702">
        <ele>1186.7195581596814</ele>
      </trkpt>
      <trkpt lat="46.461118" lon="12.93455">
        <ele>1184.48583155539</ele>
      </trkpt>
      <trkpt lat="46.461267" lon="12.934328">
        <ele>1183.7191033884767</ele>
      </trkpt>
      <trkpt lat="46.461396" lon="12.934192">
        <ele>1183.6154963428048</ele>
      </trkpt>
      <trkpt lat="46.46149" lon="12.934002">
        <ele>1184.0304328978464</ele>
      </trkpt>
      <trkpt lat="46.461651" lon="12.933783">
        <ele>1183.8899430479541</ele>
      </trkpt>
      <trkpt lat="46.46171" lon="12.934007">
        <ele>1184.2207398518974</ele>
      </trkpt>
      <trkpt lat="46.461867" lon="12.934534">
        <ele>1186.8569984819242</ele>
      </trkpt>
      <trkpt lat="46.462045" lon="12.934965">
        <ele>1190.6993242595347</ele>
      </trkpt>
      <trkpt lat="46.462095" lon="12.935131">
        <ele>1192.500822983869</ele>
      </trkpt>
      <trkpt lat="46.462111" lon="12.935212">
        <ele>1193.0240434010718</ele>
      </trkpt>
      <trkpt lat="46.462144" lon="12.93548">
        <ele>1191.95012778353</ele>
      </trkpt>
      <trkpt lat="46.462177" lon="12.935566">
        <ele>1190.7689326937532</ele>
      </trkpt>
      <trkpt lat="46.462244" lon="12.935673">
        <ele>1189.0104970272268</ele>
      </trkpt>
      <trkpt lat="46.462595" lon="12.93613">
        <ele>1186.2985123036433</ele>
      </trkpt>
      <trkpt lat="46.462633" lon="12.936236">
        <ele>1185.7864579823345</ele>
      </trkpt>
      <trkpt lat="46.462646" lon="12.936307">
        <ele>1185.3717925168808</ele>
      </trkpt>
      <trkpt lat="46.462658" lon="12.936624">
        <ele>1183.9071149925703</ele>
      </trkpt>
      <trkpt lat="46.462679" lon="12.936813">
        <ele>1183.0537467084457</ele>
      </trkpt>
      <trkpt lat="46.46281" lon="12.937262">
        <ele>1181.6165869017138</ele>
      </trkpt>
      <trkpt lat="46.462807" lon="12.937402">
        <ele>1180.3885423494278</ele>
      </trkpt>
      <trkpt lat="46.462735" lon="12.937815">
        <ele>1176.25034790506</ele>
      </trkpt>
      <trkpt lat="46.462727" lon="12.937889">
        <ele>1175.6039735081233</ele>
      </trkpt>
      <trkpt lat="46.462749" lon="12.938019">
        <ele>1174.8588023404131</ele>
      </trkpt>
      <trkpt lat="46.46278" lon="12.938086">
        <ele>1174.3996087077157</ele>
      </trkpt>
      <trkpt lat="46.462854" lon="12.938197">
        <ele>1173.3969052837513</ele>
      </trkpt>
      <trkpt lat="46.462966" lon="12.938314">
        <ele>1171.5206529588406</ele>
      </trkpt>
      <trkpt lat="46.463169" lon="12.938464">
        <ele>1168.9575539756536</ele>
      </trkpt>
      <trkpt lat="46.463223" lon="12.938519">
        <ele>1168.2603173073887</ele>
      </trkpt>
      <trkpt lat="46.463307" lon="12.938626">
        <ele>1167.1226105893966</ele>
      </trkpt>
      <trkpt lat="46.463786" lon="12.939463">
        <ele>1156.512689176412</ele>
      </trkpt>
      <trkpt lat="46.463935" lon="12.939663">
        <ele>1157.3914079231233</ele>
      </trkpt>
      <trkpt lat="46.464087" lon="12.939823">
        <ele>1158.265175803798</ele>
      </trkpt>
      <trkpt lat="46.464287" lon="12.939955">
        <ele>1159.2836603179853</ele>
      </trkpt>
      <trkpt lat="46.464337" lon="12.940006">
        <ele>1159.2976861305615</ele>
      </trkpt>
      <trkpt lat="46.464395" lon="12.940094">
        <ele>1159.039277828643</ele>
      </trkpt>
      <trkpt lat="46.464502" lon="12.940328">
        <ele>1156.6739093300678</ele>
      </trkpt>
      <trkpt lat="46.464556" lon="12.94052">
        <ele>1153.720938135405</ele>
      </trkpt>
      <trkpt lat="46.464644" lon="12.9409">
        <ele>1147.7523875167283</ele>
      </trkpt>
      <trkpt lat="46.4647" lon="12.941014">
        <ele>1146.7567289506846</ele>
      </trkpt>
      <trkpt lat="46.465036" lon="12.941534">
        <ele>1148.0443138299092</ele>
      </trkpt>
      <trkpt lat="46.465162" lon="12.941787">
        <ele>1149.8126685538182</ele>
      </trkpt>
      <trkpt lat="46.465231" lon="12.942013">
        <ele>1151.6561794932334</ele>
      </trkpt>
      <trkpt lat="46.465333" lon="12.942579">
        <ele>1154.6289051913059</ele>
      </trkpt>
      <trkpt lat="46.465423" lon="12.942805">
        <ele>1154.92306433227</ele>
      </trkpt>
      <trkpt lat="46.465563" lon="12.94294">
        <ele>1155.0889877514967</ele>
      </trkpt>
      <trkpt lat="46.465837" lon="12.94308">
        <ele>1153.2686068508256</ele>
      </trkpt>
      <trkpt lat="46.466485" lon="12.943369">
        <ele>1150.9504600209427</ele>
      </trkpt>
      <trkpt lat="46.466693" lon="12.943422">
        <ele>1151.5046949953144</ele>
      </trkpt>
      <trkpt lat="46.46683" lon="12.943405">
        <ele>1153.6127006139081</ele>
      </trkpt>
      <trkpt lat="46.466995" lon="12.943312">
        <ele>1158.3064419985194</ele>
      </trkpt>
      <trkpt lat="46.4671" lon="12.943231">
        <ele>1161.7251131803052</ele>
      </trkpt>
      <trkpt lat="46.467346" lon="12.943193">
        <ele>1163.8490789102862</ele>
      </trkpt>
      <trkpt lat="46.467547" lon="12.943046">
        <ele>1165.7565915152902</ele>
      </trkpt>
      <trkpt lat="46.467707" lon="12.942873">
        <ele>1167.9259756303866</ele>
      </trkpt>
      <trkpt lat="46.467768" lon="12.942826">
        <ele>1168.38737586476</ele>
      </trkpt>
      <trkpt lat="46.467808" lon="12.942755">
        <ele>1170.028204502338</ele>
      </trkpt>
      <trkpt lat="46.467856" lon="12.942597">
        <ele>1174.343670675028</ele>
      </trkpt>
      <trkpt lat="46.467949" lon="12.942484">
        <ele>1176.130602949712</ele>
      </trkpt>
      <trkpt lat="46.46867" lon="12.942183">
        <ele>1177.0138460256042</ele>
      </trkpt>
      <trkpt lat="46.468921" lon="12.942143">
        <ele>1178.6816782818096</ele>
      </trkpt>
      <trkpt lat="46.469023" lon="12.94216">
        <ele>1177.697419479344</ele>
      </trkpt>
      <trkpt lat="46.46909" lon="12.942203">
        <ele>1174.9368178782502</ele>
      </trkpt>
      <trkpt lat="46.4692" lon="12.942329">
        <ele>1167.9687101374755</ele>
      </trkpt>
      <trkpt lat="46.46921" lon="12.94249">
        <ele>1162.048668812504</ele>
      </trkpt>
      <trkpt lat="46.469147" lon="12.942523">
        <ele>1160.4654398470145</ele>
      </trkpt>
      <trkpt lat="46.469033" lon="12.942633">
        <ele>1156.2370017094545</ele>
      </trkpt>
      <trkpt lat="46.469002" lon="12.942699">
        <ele>1154.594271230572</ele>
      </trkpt>
      <trkpt lat="46.468977" lon="12.942887">
        <ele>1152.4359038866596</ele>
      </trkpt>
      <trkpt lat="46.468981" lon="12.942966">
        <ele>1152.3959348899389</ele>
      </trkpt>
      <trkpt lat="46.469023" lon="12.943116">
        <ele>1153.3180632673912</ele>
      </trkpt>
      <trkpt lat="46.469296" lon="12.943777">
        <ele>1158.2398302955553</ele>
      </trkpt>
      <trkpt lat="46.469319" lon="12.943816">
        <ele>1158.3178877145988</ele>
      </trkpt>
      <trkpt lat="46.469524" lon="12.944022">
        <ele>1158.1092205079901</ele>
      </trkpt>
      <trkpt lat="46.469625" lon="12.944105">
        <ele>1157.4185399285989</ele>
      </trkpt>
      <trkpt lat="46.470077" lon="12.944367">
        <ele>1157.784437763783</ele>
      </trkpt>
      <trkpt lat="46.470235" lon="12.944417">
        <ele>1159.7685851044032</ele>
      </trkpt>
      <trkpt lat="46.47031" lon="12.944455">
        <ele>1160.7274445008964</ele>
      </trkpt>
      <trkpt lat="46.470494" lon="12.944598">
        <ele>1162.3058823836786</ele>
      </trkpt>
      <trkpt lat="46.47057" lon="12.944629">
        <ele>1163.1375991473915</ele>
      </trkpt>
      <trkpt lat="46.470638" lon="12.944639">
        <ele>1164.269717849419</ele>
      </trkpt>
      <trkpt lat="46.470736" lon="12.944582">
        <ele>1166.7946856396695</ele>
      </trkpt>
      <trkpt lat="46.470752" lon="12.944586">
        <ele>1167.11910672782</ele>
      </trkpt>
      <trkpt lat="46.47077" lon="12.944776">
        <ele>1166.4976901711898</ele>
      </trkpt>
      <trkpt lat="46.470733" lon="12.944952">
        <ele>1165.6586441908025</ele>
      </trkpt>
      <trkpt lat="46.470608" lon="12.945134">
        <ele>1163.1407054602616</ele>
      </trkpt>
      <trkpt lat="46.47048" lon="12.945436">
        <ele>1160.0296587770224</ele>
      </trkpt>
      <trkpt lat="46.470432" lon="12.945587">
        <ele>1157.879195458908</ele>
      </trkpt>
      <trkpt lat="46.470405" lon="12.945703">
        <ele>1156.2166032512928</ele>
      </trkpt>
      <trkpt lat="46.470384" lon="12.94608">
        <ele>1152.5274741752671</ele>
      </trkpt>
      <trkpt lat="46.47039" lon="12.946232">
        <ele>1151.665951927256</ele>
      </trkpt>
      <trkpt lat="46.470384" lon="12.946772">
        <ele>1150.3391695878313</ele>
      </trkpt>
      <trkpt lat="46.470372" lon="12.946938">
        <ele>1150.9956069588663</ele>
      </trkpt>
      <trkpt lat="46.470304" lon="12.947347">
        <ele>1151.3428654301451</ele>
      </trkpt>
      <trkpt lat="46.470292" lon="12.947509">
        <ele>1152.155080604973</ele>
      </trkpt>
      <trkpt lat="46.470227" lon="12.947799">
        <ele>1151.3370338548914</ele>
      </trkpt>
      <trkpt lat="46.470189" lon="12.947992">
        <ele>1151.081878349638</ele>
      </trkpt>
      <trkpt lat="46.470154" lon="12.948332">
        <ele>1150.6246999152943</ele>
      </trkpt>
      <trkpt lat="46.47015" lon="12.948752">
        <ele>1147.7760687756597</ele>
      </trkpt>
      <trkpt lat="46.470241" lon="12.949236">
        <ele>1146.5557379323295</ele>
      </trkpt>
      <trkpt lat="46.470265" lon="12.94949">
        <ele>1144.4162270361564</ele>
      </trkpt>
      <trkpt lat="46.470288" lon="12.94957">
        <ele>1144.5234555006134</ele>
      </trkpt>
      <trkpt lat="46.47032" lon="12.949818">
        <ele>1142.7402745593693</ele>
      </trkpt>
      <trkpt lat="46.470368" lon="12.95006">
        <ele>1141.797080009539</ele>
      </trkpt>
      <trkpt lat="46.470445" lon="12.950331">
        <ele>1141.4184142855052</ele>
      </trkpt>
      <trkpt lat="46.470543" lon="12.950607">
        <ele>1141.3266454769225</ele>
      </trkpt>
      <trkpt lat="46.470672" lon="12.950929">
        <ele>1142.3470729517821</ele>
      </trkpt>
      <trkpt lat="46.470902" lon="12.951385">
        <ele>1148.0971832051878</ele>
      </trkpt>
      <trkpt lat="46.470983" lon="12.951601">
        <ele>1149.9345736721166</ele>
      </trkpt>
      <trkpt lat="46.471007" lon="12.951718">
        <ele>1150.1962369958305</ele>
      </trkpt>
      <trkpt lat="46.471025" lon="12.951955">
        <ele>1150.3311399789595</ele>
      </trkpt>
      <trkpt lat="46.471001" lon="12.952092">
        <ele>1149.8133821260312</ele>
      </trkpt>
      <trkpt lat="46.470922" lon="12.952265">
        <ele>1148.9143677473326</ele>
      </trkpt>
      <trkpt lat="46.470938" lon="12.952342">
        <ele>1150.052443249082</ele>
      </trkpt>
      <trkpt lat="46.470973" lon="12.9524">
        <ele>1151.4414062083238</ele>
      </trkpt>
      <trkpt lat="46.470995" lon="12.952505">
        <ele>1152.7681791013692</ele>
      </trkpt>
      <trkpt lat="46.471041" lon="12.952659">
        <ele>1154.6796119930088</ele>
      </trkpt>
      <trkpt lat="46.471075" lon="12.952737">
        <ele>1155.7928827366795</ele>
      </trkpt>
      <trkpt lat="46.471267" lon="12.952869">
        <ele>1162.206606446673</ele>
      </trkpt>
      <trkpt lat="46.471401" lon="12.953108">
        <ele>1167.1837482344704</ele>
      </trkpt>
      <trkpt lat="46.471445" lon="12.953279">
        <ele>1167.4381634552483</ele>
      </trkpt>
      <trkpt lat="46.47151" lon="12.953528">
        <ele>1167.0656583646319</ele>
      </trkpt>
      <trkpt lat="46.4716" lon="12.953673">
        <ele>1168.7274452175257</ele>
      </trkpt>
      <trkpt lat="46.471699" lon="12.953782">
        <ele>1171.0854152030315</ele>
      </trkpt>
      <trkpt lat="46.471882" lon="12.953841">
        <ele>1174.9323480191372</ele>
      </trkpt>
      <trkpt lat="46.472128" lon="12.953964">
        <ele>1176.250652175595</ele>
      </trkpt>
      <trkpt lat="46.472347" lon="12.953999">
        <ele>1179.1889272740223</ele>
      </trkpt>
      <trkpt lat="46.472396" lon="12.95417">
        <ele>1177.3130530155404</ele>
      </trkpt>
      <trkpt lat="46.472532" lon="12.954514">
        <ele>1174.4245812415465</ele>
      </trkpt>
      <trkpt lat="46.472635" lon="12.954732">
        <ele>1175.8166250428362</ele>
      </trkpt>
      <trkpt lat="46.472659" lon="12.954819">
        <ele>1176.6925270188285</ele>
      </trkpt>
      <trkpt lat="46.472705" lon="12.955059">
        <ele>1179.7405939899393</ele>
      </trkpt>
      <trkpt lat="46.472743" lon="12.955151">
        <ele>1181.4802725963295</ele>
      </trkpt>
      <trkpt lat="46.472792" lon="12.955203">
        <ele>1183.0522353630238</ele>
      </trkpt>
      <trkpt lat="46.472886" lon="12.955206">
        <ele>1185.0797827693948</ele>
      </trkpt>
      <trkpt lat="46.472955" lon="12.955235">
        <ele>1187.1219192834646</ele>
      </trkpt>
      <trkpt lat="46.472995" lon="12.95531">
        <ele>1188.7728433375314</ele>
      </trkpt>
      <trkpt lat="46.473046" lon="12.955474">
        <ele>1191.747250221192</ele>
      </trkpt>
      <trkpt lat="46.473102" lon="12.955552">
        <ele>1194.2237670793565</ele>
      </trkpt>
      <trkpt lat="46.473171" lon="12.955621">
        <ele>1196.8585095979201</ele>
      </trkpt>
      <trkpt lat="46.473184" lon="12.955661">
        <ele>1197.58404983236</ele>
      </trkpt>
      <trkpt lat="46.473216" lon="12.95569">
        <ele>1198.6445412229768</ele>
      </trkpt>
      <trkpt lat="46.473289" lon="12.955681">
        <ele>1201.0322319990987</ele>
      </trkpt>
      <trkpt lat="46.473559" lon="12.955837">
        <ele>1211.7084365547626</ele>
      </trkpt>
      <trkpt lat="46.473594" lon="12.955851">
        <ele>1213.1462509520022</ele>
      </trkpt>
      <trkpt lat="46.473632" lon="12.95584">
        <ele>1215.2682356204953</ele>
      </trkpt>
      <trkpt lat="46.473724" lon="12.956074">
        <ele>1215.731317146601</ele>
      </trkpt>
      <trkpt lat="46.473776" lon="12.956188">
        <ele>1218.5006503450702</ele>
      </trkpt>
      <trkpt lat="46.473791" lon="12.956294">
        <ele>1221.2852088962227</ele>
      </trkpt>
      <trkpt lat="46.473773" lon="12.956371">
        <ele>1223.0955020086842</ele>
      </trkpt>
      <trkpt lat="46.473753" lon="12.956409">
        <ele>1223.7743835516749</ele>
      </trkpt>
      <trkpt lat="46.473714" lon="12.956438">
        <ele>1223.6281006809886</ele>
      </trkpt>
      <trkpt lat="46.473568" lon="12.956481">
        <ele>1221.0131667469377</ele>
      </trkpt>
      <trkpt lat="46.47328" lon="12.956476">
        <ele>1212.234428856891</ele>
      </trkpt>
      <trkpt lat="46.473059" lon="12.956455">
        <ele>1204.6228750935966</ele>
      </trkpt>
      <trkpt lat="46.472931" lon="12.956481">
        <ele>1201.4232168917542</ele>
      </trkpt>
      <trkpt lat="46.472782" lon="12.956569">
        <ele>1199.2758870502294</ele>
      </trkpt>
      <trkpt lat="46.472669" lon="12.956589">
        <ele>1198.7738175366812</ele>
      </trkpt>
      <trkpt lat="46.472525" lon="12.956512">
        <ele>1197.5302603892524</ele>
      </trkpt>
      <trkpt lat="46.472463" lon="12.956466">
        <ele>1196.3791417929353</ele>
      </trkpt>
      <trkpt lat="46.472232" lon="12.956507">
        <ele>1190.0845486984813</ele>
      </trkpt>
      <trkpt lat="46.472119" lon="12.95663">
        <ele>1189.833747911582</ele>
      </trkpt>
      <trkpt lat="46.472093" lon="12.956723">
        <ele>1191.9879435313846</ele>
      </trkpt>
      <trkpt lat="46.472006" lon="12.956764">
        <ele>1194.624202208816</ele>
      </trkpt>
      <trkpt lat="46.471908" lon="12.956599">
        <ele>1190.7012824210506</ele>
      </trkpt>
      <trkpt lat="46.471836" lon="12.956502">
        <ele>1188.4853832345727</ele>
      </trkpt>
      <trkpt lat="46.471718" lon="12.95642">
        <ele>1188.064190993757</ele>
      </trkpt>
      <trkpt lat="46.471567" lon="12.956348">
        <ele>1188.7101307081202</ele>
      </trkpt>
      <trkpt lat="46.471533" lon="12.956332">
        <ele>1188.7429399602731</ele>
      </trkpt>
      <trkpt lat="46.471456" lon="12.956204">
        <ele>1184.8748444874593</ele>
      </trkpt>
      <trkpt lat="46.471312" lon="12.956096">
        <ele>1181.5697715489823</ele>
      </trkpt>
      <trkpt lat="46.471184" lon="12.956034">
        <ele>1178.8726279240857</ele>
      </trkpt>
      <trkpt lat="46.47105" lon="12.956019">
        <ele>1178.186299827978</ele>
      </trkpt>
      <trkpt lat="46.470716" lon="12.95589">
        <ele>1173.5845826344394</ele>
      </trkpt>
      <trkpt lat="46.470531" lon="12.95586">
        <ele>1176.6431698083206</ele>
      </trkpt>
      <trkpt lat="46.470331" lon="12.955644">
        <ele>1173.8258256711315</ele>
      </trkpt>
      <trkpt lat="46.470197" lon="12.955464">
        <ele>1172.1304057021791</ele>
      </trkpt>
      <trkpt lat="46.469971" lon="12.955269">
        <ele>1169.199626341463</ele>
      </trkpt>
      <trkpt lat="46.469791" lon="12.955171">
        <ele>1164.4821396962493</ele>
      </trkpt>
      <trkpt lat="46.469676" lon="12.955127">
        <ele>1160.8487410733185</ele>
      </trkpt>
      <trkpt lat="46.469478" lon="12.955212">
        <ele>1159.252110115639</ele>
      </trkpt>
      <trkpt lat="46.469344" lon="12.955307">
        <ele>1160.321304494376</ele>
      </trkpt>
      <trkpt lat="46.469182" lon="12.955369">
        <ele>1161.4080570727124</ele>
      </trkpt>
      <trkpt lat="46.468967" lon="12.95528">
        <ele>1157.8979442645725</ele>
      </trkpt>
      <trkpt lat="46.468899" lon="12.955158">
        <ele>1154.097315538037</ele>
      </trkpt>
      <trkpt lat="46.46881" lon="12.955072">
        <ele>1152.9335070215911</ele>
      </trkpt>
      <trkpt lat="46.468662" lon="12.95475">
        <ele>1146.2214307588179</ele>
      </trkpt>
      <trkpt lat="46.468515" lon="12.954568">
        <ele>1143.786476980107</ele>
      </trkpt>
      <trkpt lat="46.468441" lon="12.954514">
        <ele>1143.9961918056101</ele>
      </trkpt>
      <trkpt lat="46.468263" lon="12.954493">
        <ele>1148.0416979772892</ele>
      </trkpt>
      <trkpt lat="46.467931" lon="12.954536">
        <ele>1153.9613362317912</ele>
      </trkpt>
      <trkpt lat="46.46785" lon="12.954461">
        <ele>1152.259432369076</ele>
      </trkpt>
      <trkpt lat="46.467635" lon="12.954461">
        <ele>1154.9654114055452</ele>
      </trkpt>
      <trkpt lat="46.467524" lon="12.954407">
        <ele>1155.3713764636316</ele>
      </trkpt>
      <trkpt lat="46.467391" lon="12.954439">
        <ele>1158.310332851772</ele>
      </trkpt>
      <trkpt lat="46.467273" lon="12.954407">
        <ele>1159.3100375383533</ele>
      </trkpt>
      <trkpt lat="46.467199" lon="12.954257">
        <ele>1157.5528135429513</ele>
      </trkpt>
      <trkpt lat="46.467044" lon="12.95416">
        <ele>1158.6232228925765</ele>
      </trkpt>
      <trkpt lat="46.4668" lon="12.954117">
        <ele>1161.7015248883522</ele>
      </trkpt>
      <trkpt lat="46.466638" lon="12.954128">
        <ele>1163.8154618876997</ele>
      </trkpt>
      <trkpt lat="46.466482" lon="12.954032">
        <ele>1163.971038455784</ele>
      </trkpt>
      <trkpt lat="46.466423" lon="12.953913">
        <ele>1162.490558392085</ele>
      </trkpt>
      <trkpt lat="46.466298" lon="12.953828">
        <ele>1162.5098280200696</ele>
      </trkpt>
      <trkpt lat="46.466207" lon="12.953618">
        <ele>1158.2853651321748</ele>
      </trkpt>
      <trkpt lat="46.465958" lon="12.953463">
        <ele>1156.7752566246522</ele>
      </trkpt>
      <trkpt lat="46.46581" lon="12.953463">
        <ele>1157.6984741116885</ele>
      </trkpt>
      <trkpt lat="46.46564" lon="12.953527">
        <ele>1160.3506910931492</ele>
      </trkpt>
      <trkpt lat="46.465477" lon="12.953559">
        <ele>1161.710470355671</ele>
      </trkpt>
      <trkpt lat="46.465223" lon="12.953523">
        <ele>1162.390602387036</ele>
      </trkpt>
      <trkpt lat="46.465174" lon="12.953517">
        <ele>1162.9372213229612</ele>
      </trkpt>
      <trkpt lat="46.465004" lon="12.953554">
        <ele>1167.0384906259378</ele>
      </trkpt>
      <trkpt lat="46.464908" lon="12.953495">
        <ele>1168.0981321728823</ele>
      </trkpt>
      <trkpt lat="46.46479" lon="12.953399">
        <ele>1169.2931396974723</ele>
      </trkpt>
      <trkpt lat="46.464665" lon="12.953313">
        <ele>1171.7395940172423</ele>
      </trkpt>
      <trkpt lat="46.46455" lon="12.953295">
        <ele>1175.540316469739</ele>
      </trkpt>
      <trkpt lat="46.464524" lon="12.953098">
        <ele>1173.5421319201791</ele>
      </trkpt>
      <trkpt lat="46.46445" lon="12.952991">
        <ele>1174.5445561638935</ele>
      </trkpt>
      <trkpt lat="46.464317" lon="12.952948">
        <ele>1178.4602852442708</ele>
      </trkpt>
      <trkpt lat="46.464184" lon="12.952819">
        <ele>1181.1377685084349</ele>
      </trkpt>
      <trkpt lat="46.464014" lon="12.952808">
        <ele>1186.6770292418769</ele>
      </trkpt>
      <trkpt lat="46.463985" lon="12.952723">
        <ele>1186.972059106245</ele>
      </trkpt>
      <trkpt lat="46.463889" lon="12.952605">
        <ele>1189.0911516323536</ele>
      </trkpt>
      <trkpt lat="46.463807" lon="12.952551">
        <ele>1190.9177594875305</ele>
      </trkpt>
      <trkpt lat="46.463741" lon="12.952369">
        <ele>1191.9616898836805</ele>
      </trkpt>
      <trkpt lat="46.463619" lon="12.952288">
        <ele>1193.1610111696075</ele>
      </trkpt>
      <trkpt lat="46.463504" lon="12.952261">
        <ele>1192.5737189331112</ele>
      </trkpt>
      <trkpt lat="46.463338" lon="12.952486">
        <ele>1187.7637489295653</ele>
      </trkpt>
      <trkpt lat="46.463309" lon="12.952321">
        <ele>1188.3381154958809</ele>
      </trkpt>
      <trkpt lat="46.463288" lon="12.952059">
        <ele>1189.0755358220085</ele>
      </trkpt>
      <trkpt lat="46.463231" lon="12.951822">
        <ele>1188.350186142321</ele>
      </trkpt>
      <trkpt lat="46.462923" lon="12.951316">
        <ele>1184.2529498698261</ele>
      </trkpt>
      <trkpt lat="46.462657" lon="12.950909">
        <ele>1183.455478964557</ele>
      </trkpt>
      <trkpt lat="46.462387" lon="12.950662">
        <ele>1174.439576819294</ele>
      </trkpt>
      <trkpt lat="46.461831" lon="12.950262">
        <ele>1168.6790948956645</ele>
      </trkpt>
      <trkpt lat="46.461688" lon="12.950196">
        <ele>1170.565119954274</ele>
      </trkpt>
      <trkpt lat="46.461549" lon="12.950041">
        <ele>1172.250412961857</ele>
      </trkpt>
      <trkpt lat="46.461356" lon="12.949729">
        <ele>1168.5122147327897</ele>
      </trkpt>
      <trkpt lat="46.461191" lon="12.949741">
        <ele>1165.9610249757795</ele>
      </trkpt>
      <trkpt lat="46.461179" lon="12.950145">
        <ele>1167.0806223291775</ele>
      </trkpt>
      <trkpt lat="46.461153" lon="12.95042">
        <ele>1165.6708902399316</ele>
      </trkpt>
      <trkpt lat="46.461048" lon="12.950503">
        <ele>1164.5688051242978</ele>
      </trkpt>
      <trkpt lat="46.460963" lon="12.9504">
        <ele>1163.344862639989</ele>
      </trkpt>
      <trkpt lat="46.460418" lon="12.950065">
        <ele>1160.770965498302</ele>
      </trkpt>
      <trkpt lat="46.460326" lon="12.950054">
        <ele>1161.6036357646692</ele>
      </trkpt>
      <trkpt lat="46.460188" lon="12.950021">
        <ele>1162.4007389828607</ele>
      </trkpt>
      <trkpt lat="46.460095" lon="12.949952">
        <ele>1160.996846400489</ele>
      </trkpt>
      <trkpt lat="46.459972" lon="12.949939">
        <ele>1161.243683544429</ele>
      </trkpt>
      <trkpt lat="46.459885" lon="12.949947">
        <ele>1161.684709454936</ele>
      </trkpt>
      <trkpt lat="46.459773" lon="12.949939">
        <ele>1160.909016920195</ele>
      </trkpt>
      <trkpt lat="46.459647" lon="12.949885">
        <ele>1157.340350996566</ele>
      </trkpt>
      <trkpt lat="46.459486" lon="12.949897">
        <ele>1155.6881000048484</ele>
      </trkpt>
      <trkpt lat="46.459391" lon="12.949895">
        <ele>1154.1594616793243</ele>
      </trkpt>
      <trkpt lat="46.459131" lon="12.949727">
        <ele>1140.6434596892625</ele>
      </trkpt>
      <trkpt lat="46.459059" lon="12.949445">
        <ele>1125.7304761965306</ele>
      </trkpt>
      <trkpt lat="46.459017" lon="12.949411">
        <ele>1123.1322566369915</ele>
      </trkpt>
      <trkpt lat="46.458965" lon="12.949413">
        <ele>1122.294749522303</ele>
      </trkpt>
      <trkpt lat="46.458876" lon="12.949463">
        <ele>1123.158794939478</ele>
      </trkpt>
      <trkpt lat="46.45876" lon="12.949588">
        <ele>1125.8005545921244</ele>
      </trkpt>
      <trkpt lat="46.458646" lon="12.949739">
        <ele>1126.8244842600823</ele>
      </trkpt>
      <trkpt lat="46.458571" lon="12.949888">
        <ele>1126.1529510836572</ele>
      </trkpt>
      <trkpt lat="46.458317" lon="12.950565">
        <ele>1113.030539122038</ele>
      </trkpt>
      <trkpt lat="46.458178" lon="12.950781">
        <ele>1108.7978049961628</ele>
      </trkpt>
      <trkpt lat="46.458049" lon="12.950944">
        <ele>1106.5082043119714</ele>
      </trkpt>
      <trkpt lat="46.457908" lon="12.951056">
        <ele>1104.949379472544</ele>
      </trkpt>
      <trkpt lat="46.457638" lon="12.951233">
        <ele>1103.7838955158281</ele>
      </trkpt>
      <trkpt lat="46.457433" lon="12.951399">
        <ele>1105.8683735675518</ele>
      </trkpt>
      <trkpt lat="46.457297" lon="12.951483">
        <ele>1106.5901753619323</ele>
      </trkpt>
      <trkpt lat="46.457205" lon="12.951531">
        <ele>1106.685278707183</ele>
      </trkpt>
      <trkpt lat="46.457054" lon="12.951587">
        <ele>1106.13511872688</ele>
      </trkpt>
      <trkpt lat="46.456677" lon="12.951774">
        <ele>1104.1554415003864</ele>
      </trkpt>
      <trkpt lat="46.456413" lon="12.951811">
        <ele>1098.544949548483</ele>
      </trkpt>
      <trkpt lat="46.456272" lon="12.951875">
        <ele>1097.72671371017</ele>
      </trkpt>
      <trkpt lat="46.455888" lon="12.951859">
        <ele>1088.0361384858134</ele>
      </trkpt>
      <trkpt lat="46.455689" lon="12.951864">
        <ele>1081.5600547239192</ele>
      </trkpt>
      <trkpt lat="46.455614" lon="12.951876">
        <ele>1078.9313567309352</ele>
      </trkpt>
      <trkpt lat="46.455585" lon="12.95188">
        <ele>1077.7786136432094</ele>
      </trkpt>
      <trkpt lat="46.455522" lon="12.951939">
        <ele>1076.0414307616666</ele>
      </trkpt>
      <trkpt lat="46.455489" lon="12.95202">
        <ele>1075.7827392291292</ele>
      </trkpt>
      <trkpt lat="46.455319" lon="12.952347">
        <ele>1071.4084204205783</ele>
      </trkpt>
      <trkpt lat="46.45526" lon="12.952487">
        <ele>1069.509956822768</ele>
      </trkpt>
      <trkpt lat="46.45523" lon="12.952508">
        <ele>1067.511685910682</ele>
      </trkpt>
      <trkpt lat="46.455245" lon="12.952776">
        <ele>1072.6010675848936</ele>
      </trkpt>
      <trkpt lat="46.45516" lon="12.953002">
        <ele>1069.3217744443689</ele>
      </trkpt>
      <trkpt lat="46.45509" lon="12.953114">
        <ele>1064.9835251850097</ele>
      </trkpt>
      <trkpt lat="46.455053" lon="12.953066">
        <ele>1060.9944723008205</ele>
      </trkpt>
      <trkpt lat="46.454953" lon="12.953329">
        <ele>1054.3467005723614</ele>
      </trkpt>
      <trkpt lat="46.45492" lon="12.953334">
        <ele>1051.0004035492384</ele>
      </trkpt>
      <trkpt lat="46.454942" lon="12.953399">
        <ele>1053.9839278970758</ele>
      </trkpt>
      <trkpt lat="46.45492" lon="12.953441">
        <ele>1052.2168664192363</ele>
      </trkpt>
      <trkpt lat="46.454968" lon="12.953543">
        <ele>1057.7662492134518</ele>
      </trkpt>
      <trkpt lat="46.454938" lon="12.953677">
        <ele>1056.0476404798465</ele>
      </trkpt>
      <trkpt lat="46.454768" lon="12.95364">
        <ele>1039.453816504989</ele>
      </trkpt>
      <trkpt lat="46.454776" lon="12.953913">
        <ele>1042.2741738289187</ele>
      </trkpt>
      <trkpt lat="46.454768" lon="12.954091">
        <ele>1042.2417597873073</ele>
      </trkpt>
      <trkpt lat="46.454746" lon="12.954332">
        <ele>1040.289938623694</ele>
      </trkpt>
      <trkpt lat="46.454709" lon="12.954369">
        <ele>1037.14716503133</ele>
      </trkpt>
      <trkpt lat="46.454657" lon="12.954514">
        <ele>1032.155488346529</ele>
      </trkpt>
      <trkpt lat="46.454572" lon="12.954654">
        <ele>1024.3353285985293</ele>
      </trkpt>
      <trkpt lat="46.454502" lon="12.954711">
        <ele>1018.6665709235599</ele>
      </trkpt>
      <trkpt lat="46.45441" lon="12.95482">
        <ele>1012.7085717820677</ele>
      </trkpt>
      <trkpt lat="46.454388" lon="12.954863">
        <ele>1011.8190703173326</ele>
      </trkpt>
      <trkpt lat="46.454321" lon="12.955473">
        <ele>1017.0299201078426</ele>
      </trkpt>
      <trkpt lat="46.454291" lon="12.955486">
        <ele>1016.2831156333843</ele>
      </trkpt>
      <trkpt lat="46.454162" lon="12.95563">
        <ele>1013.6792506310167</ele>
      </trkpt>
      <trkpt lat="46.454125" lon="12.955628">
        <ele>1012.5389712792834</ele>
      </trkpt>
      <trkpt lat="46.454071" lon="12.955487">
        <ele>1010.0194199184261</ele>
      </trkpt>
      <trkpt lat="46.453924" lon="12.95522">
        <ele>1004.254709076837</ele>
      </trkpt>
      <trkpt lat="46.453633" lon="12.954841">
        <ele>993.9836827932662</ele>
      </trkpt>
      <trkpt lat="46.453556" lon="12.954726">
        <ele>990.0659742035766</ele>
      </trkpt>
      <trkpt lat="46.453484" lon="12.954546">
        <ele>985.4090371677505</ele>
      </trkpt>
      <trkpt lat="46.453419" lon="12.954411">
        <ele>982.312551633559</ele>
      </trkpt>
      <trkpt lat="46.453024" lon="12.954015">
        <ele>972.0137993142766</ele>
      </trkpt>
      <trkpt lat="46.452917" lon="12.953869">
        <ele>968.4793105941554</ele>
      </trkpt>
      <trkpt lat="46.452828" lon="12.953686">
        <ele>965.4270870801347</ele>
      </trkpt>
      <trkpt lat="46.452811" lon="12.95356">
        <ele>964.186662864081</ele>
      </trkpt>
      <trkpt lat="46.452827" lon="12.953515">
        <ele>964.1793777576665</ele>
      </trkpt>
      <trkpt lat="46.45285" lon="12.953455">
        <ele>964.084907585104</ele>
      </trkpt>
      <trkpt lat="46.453267" lon="12.953055">
        <ele>964.1217767697659</ele>
      </trkpt>
      <trkpt lat="46.453413" lon="12.952946">
        <ele>963.7796268781185</ele>
      </trkpt>
      <trkpt lat="46.453527" lon="12.952956">
        <ele>965.0871105354929</ele>
      </trkpt>
      <trkpt lat="46.45364" lon="12.952991">
        <ele>966.9666437000973</ele>
      </trkpt>
      <trkpt lat="46.453692" lon="12.952975">
        <ele>967.4278136435432</ele>
      </trkpt>
      <trkpt lat="46.453734" lon="12.952944">
        <ele>967.69935487028</ele>
      </trkpt>
      <trkpt lat="46.453782" lon="12.952877">
        <ele>967.6577194058812</ele>
      </trkpt>
      <trkpt lat="46.453833" lon="12.952731">
        <ele>967.0532668546775</ele>
      </trkpt>
      <trkpt lat="46.45394" lon="12.952191">
        <ele>965.6500729833275</ele>
      </trkpt>
      <trkpt lat="46.45405" lon="12.951833">
        <ele>964.9248853493722</ele>
      </trkpt>
      <trkpt lat="46.454231" lon="12.951482">
        <ele>968.921761617438</ele>
      </trkpt>
      <trkpt lat="46.454303" lon="12.951265">
        <ele>968.0857641423211</ele>
      </trkpt>
      <trkpt lat="46.45435" lon="12.951175">
        <ele>968.4907276327071</ele>
      </trkpt>
      <trkpt lat="46.454477" lon="12.951065">
        <ele>973.7978104564368</ele>
      </trkpt>
      <trkpt lat="46.454514" lon="12.950985">
        <ele>973.9779690186381</ele>
      </trkpt>
      <trkpt lat="46.454692" lon="12.950489">
        <ele>970.1210462670775</ele>
      </trkpt>
      <trkpt lat="46.454777" lon="12.950281">
        <ele>968.7165439327432</ele>
      </trkpt>
      <trkpt lat="46.454818" lon="12.950053">
        <ele>964.9261715526783</ele>
      </trkpt>
      <trkpt lat="46.454828" lon="12.949879">
        <ele>960.3033081774222</ele>
      </trkpt>
      <trkpt lat="46.454917" lon="12.949628">
        <ele>958.1778388270652</ele>
      </trkpt>
      <trkpt lat="46.454959" lon="12.949453">
        <ele>954.7759896070392</ele>
      </trkpt>
      <trkpt lat="46.454957" lon="12.949316">
        <ele>949.6342059599298</ele>
      </trkpt>
      <trkpt lat="46.454995" lon="12.94917">
        <ele>947.06377213533</ele>
      </trkpt>
      <trkpt lat="46.455067" lon="12.949023">
        <ele>946.5599829279888</ele>
      </trkpt>
      <trkpt lat="46.455123" lon="12.948958">
        <ele>947.387234036331</ele>
      </trkpt>
      <trkpt lat="46.455152" lon="12.948904">
        <ele>946.9844305869028</ele>
      </trkpt>
      <trkpt lat="46.455148" lon="12.948849">
        <ele>945.0702932551256</ele>
      </trkpt>
      <trkpt lat="46.455118" lon="12.948809">
        <ele>942.6101703941399</ele>
      </trkpt>
      <trkpt lat="46.455084" lon="12.948818">
        <ele>941.3661535590409</ele>
      </trkpt>
      <trkpt lat="46.455047" lon="12.948847">
        <ele>940.440614344646</ele>
      </trkpt>
      <trkpt lat="46.454979" lon="12.948946">
        <ele>939.5624989431884</ele>
      </trkpt>
      <trkpt lat="46.454811" lon="12.949343">
        <ele>940.4309112445566</ele>
      </trkpt>
      <trkpt lat="46.454628" lon="12.94964">
        <ele>936.638236411557</ele>
      </trkpt>
      <trkpt lat="46.45455" lon="12.949923">
        <ele>940.5160452534919</ele>
      </trkpt>
      <trkpt lat="46.454434" lon="12.950101">
        <ele>939.1359858592359</ele>
      </trkpt>
      <trkpt lat="46.45427" lon="12.950255">
        <ele>935.6378925619844</ele>
      </trkpt>
      <trkpt lat="46.454128" lon="12.950327">
        <ele>931.5907741473502</ele>
      </trkpt>
      <trkpt lat="46.453789" lon="12.950379">
        <ele>921.4817728700359</ele>
      </trkpt>
      <trkpt lat="46.453622" lon="12.950475">
        <ele>916.8391130574055</ele>
      </trkpt>
      <trkpt lat="46.453392" lon="12.950565">
        <ele>909.1389570948619</ele>
      </trkpt>
      <trkpt lat="46.453339" lon="12.950645">
        <ele>910.1568832419817</ele>
      </trkpt>
      <trkpt lat="46.45329" lon="12.950815">
        <ele>915.3375916785646</ele>
      </trkpt>
      <trkpt lat="46.453264" lon="12.950955">
        <ele>920.1280823780531</ele>
      </trkpt>
      <trkpt lat="46.453217" lon="12.951006">
        <ele>921.2926698717005</ele>
      </trkpt>
      <trkpt lat="46.453175" lon="12.951021">
        <ele>921.3656624374428</ele>
      </trkpt>
      <trkpt lat="46.453014" lon="12.950926">
        <ele>915.6139951133948</ele>
      </trkpt>
      <trkpt lat="46.452868" lon="12.950882">
        <ele>912.4824705704808</ele>
      </trkpt>
      <trkpt lat="46.452796" lon="12.950875">
        <ele>912.2361163714909</ele>
      </trkpt>
      <trkpt lat="46.452754" lon="12.950843">
        <ele>911.3002177002852</ele>
      </trkpt>
      <trkpt lat="46.452674" lon="12.950716">
        <ele>907.8836130872281</ele>
      </trkpt>
      <trkpt lat="46.45253" lon="12.950561">
        <ele>904.9206041018018</ele>
      </trkpt>
      <trkpt lat="46.452495" lon="12.950523">
        <ele>904.1326748718844</ele>
      </trkpt>
      <trkpt lat="46.452321" lon="12.950272">
        <ele>897.5935470335055</ele>
      </trkpt>
      <trkpt lat="46.452311" lon="12.950226">
        <ele>896.2603859056214</ele>
      </trkpt>
      <trkpt lat="46.452321" lon="12.950182">
        <ele>895.033790387814</ele>
      </trkpt>
      <trkpt lat="46.452391" lon="12.950142">
        <ele>893.6523191008015</ele>
      </trkpt>
      <trkpt lat="46.452454" lon="12.950121">
        <ele>892.8356647362463</ele>
      </trkpt>
      <trkpt lat="46.452655" lon="12.950161">
        <ele>891.9970388900282</ele>
      </trkpt>
      <trkpt lat="46.452802" lon="12.950143">
        <ele>890.6765583616976</ele>
      </trkpt>
      <trkpt lat="46.452882" lon="12.950098">
        <ele>889.2868985907062</ele>
      </trkpt>
      <trkpt lat="46.452954" lon="12.949996">
        <ele>886.5563534627912</ele>
      </trkpt>
      <trkpt lat="46.453067" lon="12.949915">
        <ele>884.3870750988832</ele>
      </trkpt>
      <trkpt lat="46.45314" lon="12.949765">
        <ele>880.7538671229227</ele>
      </trkpt>
      <trkpt lat="46.453234" lon="12.949529">
        <ele>874.6673790285649</ele>
      </trkpt>
      <trkpt lat="46.453273" lon="12.949493">
        <ele>874.1976225301705</ele>
      </trkpt>
      <trkpt lat="46.453387" lon="12.949474">
        <ele>875.8617633384564</ele>
      </trkpt>
      <trkpt lat="46.453561" lon="12.9495">
        <ele>881.5275430618232</ele>
      </trkpt>
      <trkpt lat="46.453655" lon="12.949463">
        <ele>882.4704813377241</ele>
      </trkpt>
      <trkpt lat="46.45371" lon="12.949404">
        <ele>881.4088384890345</ele>
      </trkpt>
      <trkpt lat="46.453739" lon="12.949334">
        <ele>879.3165553260321</ele>
      </trkpt>
      <trkpt lat="46.453741" lon="12.949275">
        <ele>877.0224437817824</ele>
      </trkpt>
      <trkpt lat="46.453718" lon="12.949222">
        <ele>874.7649634846468</ele>
      </trkpt>
      <trkpt lat="46.453512" lon="12.949138">
        <ele>868.6768417081807</ele>
      </trkpt>
      <trkpt lat="46.453332" lon="12.949004">
        <ele>861.8384243081555</ele>
      </trkpt>
      <trkpt lat="46.453277" lon="12.94891">
        <ele>858.8787164492257</ele>
      </trkpt>
      <trkpt lat="46.453268" lon="12.948801">
        <ele>856.4794549530844</ele>
      </trkpt>
      <trkpt lat="46.453309" lon="12.94859">
        <ele>853.5249777724039</ele>
      </trkpt>
      <trkpt lat="46.453308" lon="12.94854">
        <ele>852.8259529792249</ele>
      </trkpt>
      <trkpt lat="46.453291" lon="12.948499">
        <ele>851.9274285669302</ele>
      </trkpt>
      <trkpt lat="46.453274" lon="12.948481">
        <ele>851.5125107048357</ele>
      </trkpt>
      <trkpt lat="46.453239" lon="12.948479">
        <ele>851.0293536082693</ele>
      </trkpt>
      <trkpt lat="46.453191" lon="12.948504">
        <ele>850.7445908177611</ele>
      </trkpt>
      <trkpt lat="46.452965" lon="12.948676">
        <ele>851.2167237686932</ele>
      </trkpt>
      <trkpt lat="46.452869" lon="12.948637">
        <ele>850.8421794914018</ele>
      </trkpt>
      <trkpt lat="46.452823" lon="12.948576">
        <ele>850.4886635161005</ele>
      </trkpt>
      <trkpt lat="46.452763" lon="12.948436">
        <ele>851.5737578375275</ele>
      </trkpt>
      <trkpt lat="46.452691" lon="12.948375">
        <ele>853.1971987928428</ele>
      </trkpt>
      <trkpt lat="46.452439" lon="12.948355">
        <ele>853.859420895747</ele>
      </trkpt>
      <trkpt lat="46.451452" lon="12.94846">
        <ele>858.2521146579189</ele>
      </trkpt>
      <trkpt lat="46.451261" lon="12.948529">
        <ele>859.0180228683367</ele>
      </trkpt>
      <trkpt lat="46.451023" lon="12.948897">
        <ele>847.3423422806981</ele>
      </trkpt>
      <trkpt lat="46.450814" lon="12.94904">
        <ele>846.8016563315589</ele>
      </trkpt>
      <trkpt lat="46.450372" lon="12.949588">
        <ele>836.7070416550255</ele>
      </trkpt>
      <trkpt lat="46.450227" lon="12.949666">
        <ele>835.0588046461355</ele>
      </trkpt>
      <trkpt lat="46.450111" lon="12.949679">
        <ele>835.136612127119</ele>
      </trkpt>
      <trkpt lat="46.449617" lon="12.949736">
        <ele>833.109844814207</ele>
      </trkpt>
      <trkpt lat="46.448875" lon="12.949501">
        <ele>824.5667985363373</ele>
      </trkpt>
      <trkpt lat="46.448745" lon="12.949387">
        <ele>824.3426427984488</ele>
      </trkpt>
      <trkpt lat="46.448467" lon="12.949056">
        <ele>825.5789276912161</ele>
      </trkpt>
      <trkpt lat="46.448042" lon="12.948843">
        <ele>825.6895355515869</ele>
      </trkpt>
      <trkpt lat="46.44767" lon="12.948299">
        <ele>823.9477779724139</ele>
      </trkpt>
      <trkpt lat="46.447541" lon="12.948175">
        <ele>822.9345998352421</ele>
      </trkpt>
      <trkpt lat="46.447164" lon="12.948045">
        <ele>819.6611694629207</ele>
      </trkpt>
      <trkpt lat="46.446996" lon="12.948053">
        <ele>820.8033809184205</ele>
      </trkpt>
      <trkpt lat="46.446968" lon="12.948047">
        <ele>821.7099294715616</ele>
      </trkpt>
      <trkpt lat="46.446894" lon="12.947986">
        <ele>827.1653550682125</ele>
      </trkpt>
      <trkpt lat="46.446667" lon="12.948144">
        <ele>832.0895658135702</ele>
      </trkpt>
      <trkpt lat="46.446563" lon="12.948286">
        <ele>832.4767465917266</ele>
      </trkpt>
      <trkpt lat="46.44646" lon="12.948372">
        <ele>834.6444184785389</ele>
      </trkpt>
      <trkpt lat="46.446269" lon="12.948415">
        <ele>841.6513932846498</ele>
      </trkpt>
      <trkpt lat="46.446048" lon="12.948442">
        <ele>849.8879437348074</ele>
      </trkpt>
      <trkpt lat="46.445909" lon="12.948511">
        <ele>853.3307865220592</ele>
      </trkpt>
      <trkpt lat="46.445772" lon="12.948605">
        <ele>855.9291518252347</ele>
      </trkpt>
      <trkpt lat="46.445656" lon="12.94878">
        <ele>853.8095943467792</ele>
      </trkpt>
      <trkpt lat="46.445597" lon="12.948917">
        <ele>850.4499687741143</ele>
      </trkpt>
      <trkpt lat="46.445517" lon="12.949021">
        <ele>848.7503518438435</ele>
      </trkpt>
      <trkpt lat="46.445421" lon="12.949048">
        <ele>849.1129330485312</ele>
      </trkpt>
      <trkpt lat="46.445196" lon="12.948892">
        <ele>851.7501179616509</ele>
      </trkpt>
      <trkpt lat="46.445066" lon="12.948737">
        <ele>853.5022437525186</ele>
      </trkpt>
      <trkpt lat="46.444926" lon="12.948549">
        <ele>853.8647282247441</ele>
      </trkpt>
      <trkpt lat="46.444544" lon="12.94816">
        <ele>846.0973623796581</ele>
      </trkpt>
      <trkpt lat="46.444297" lon="12.948108">
        <ele>837.9204147937709</ele>
      </trkpt>
      <trkpt lat="46.444264" lon="12.948108">
        <ele>836.916060320987</ele>
      </trkpt>
      <trkpt lat="46.44419" lon="12.948082">
        <ele>835.8330158253596</ele>
      </trkpt>
      <trkpt lat="46.444029" lon="12.948083">
        <ele>831.8534016422967</ele>
      </trkpt>
      <trkpt lat="46.443921" lon="12.947812">
        <ele>840.2948889909082</ele>
      </trkpt>
      <trkpt lat="46.443833" lon="12.94764">
        <ele>846.3615578319151</ele>
      </trkpt>
      <trkpt lat="46.443727" lon="12.947595">
        <ele>846.1473241671264</ele>
      </trkpt>
      <trkpt lat="46.443581" lon="12.947562">
        <ele>844.326757156908</ele>
      </trkpt>
      <trkpt lat="46.443509" lon="12.947511">
        <ele>844.4882734028514</ele>
      </trkpt>
      <trkpt lat="46.443465" lon="12.947428">
        <ele>846.5627608182033</ele>
      </trkpt>
      <trkpt lat="46.443437" lon="12.947393">
        <ele>847.4098376695122</ele>
      </trkpt>
      <trkpt lat="46.443411" lon="12.947396">
        <ele>846.8850268079909</ele>
      </trkpt>
      <trkpt lat="46.443347" lon="12.94746">
        <ele>843.3450554018684</ele>
      </trkpt>
      <trkpt lat="46.443317" lon="12.947603">
        <ele>837.8072354502934</ele>
      </trkpt>
      <trkpt lat="46.443269" lon="12.947742">
        <ele>832.8283364032119</ele>
      </trkpt>
      <trkpt lat="46.443193" lon="12.947774">
        <ele>830.599363955117</ele>
      </trkpt>
      <trkpt lat="46.443088" lon="12.947739">
        <ele>829.9260599969621</ele>
      </trkpt>
      <trkpt lat="46.442984" lon="12.947736">
        <ele>828.8030013617132</ele>
      </trkpt>
      <trkpt lat="46.442785" lon="12.947664">
        <ele>829.6528551235951</ele>
      </trkpt>
      <trkpt lat="46.442729" lon="12.947565">
        <ele>832.0648291234489</ele>
      </trkpt>
      <trkpt lat="46.4427" lon="12.947452">
        <ele>834.8989816119013</ele>
      </trkpt>
      <trkpt lat="46.442631" lon="12.947434">
        <ele>834.7660180405952</ele>
      </trkpt>
      <trkpt lat="46.442611" lon="12.947487">
        <ele>833.3788537623116</ele>
      </trkpt>
      <trkpt lat="46.442522" lon="12.947568">
        <ele>830.8400368628098</ele>
      </trkpt>
      <trkpt lat="46.442489" lon="12.94753">
        <ele>831.2470966589481</ele>
      </trkpt>
      <trkpt lat="46.442217" lon="12.947421">
        <ele>829.8035511985349</ele>
      </trkpt>
      <trkpt lat="46.44204" lon="12.947402">
        <ele>829.2280772878795</ele>
      </trkpt>
      <trkpt lat="46.441954" lon="12.947362">
        <ele>829.8957687222642</ele>
      </trkpt>
      <trkpt lat="46.441888" lon="12.947285">
        <ele>831.3360688258128</ele>
      </trkpt>
      <trkpt lat="46.4418" lon="12.947259">
        <ele>831.6987350458762</ele>
      </trkpt>
      <trkpt lat="46.441703" lon="12.947309">
        <ele>830.4503603201364</ele>
      </trkpt>
      <trkpt lat="46.441524" lon="12.947297">
        <ele>831.6307930236217</ele>
      </trkpt>
      <trkpt lat="46.441486" lon="12.94726">
        <ele>833.0720184035836</ele>
      </trkpt>
      <trkpt lat="46.441445" lon="12.947231">
        <ele>834.3621405774214</ele>
      </trkpt>
      <trkpt lat="46.441413" lon="12.947229">
        <ele>834.8411753528103</ele>
      </trkpt>
      <trkpt lat="46.441321" lon="12.947263">
        <ele>835.0640348335053</ele>
      </trkpt>
      <trkpt lat="46.441116" lon="12.947313">
        <ele>836.1057808415977</ele>
      </trkpt>
      <trkpt lat="46.441056" lon="12.94734">
        <ele>836.0467130771964</ele>
      </trkpt>
      <trkpt lat="46.440884" lon="12.94735">
        <ele>836.4227015666193</ele>
      </trkpt>
      <trkpt lat="46.440825" lon="12.947484">
        <ele>834.3119851285622</ele>
      </trkpt>
      <trkpt lat="46.440809" lon="12.947554">
        <ele>833.4350369657839</ele>
      </trkpt>
      <trkpt lat="46.440697" lon="12.947766">
        <ele>830.6673630762393</ele>
      </trkpt>
      <trkpt lat="46.440636" lon="12.948001">
        <ele>828.8264439173291</ele>
      </trkpt>
    </trkseg>
  </trk>
</gpx>
