<?xml version="1.0" encoding="UTF-8"?>
<gpx creator="https://gpx.studio" version="1.1" schemaLocation="http://www.topografix.com/GPX/1/1 http://www.topografix.com/GPX/1/1/gpx.xsd http://www.garmin.com/xmlschemas/GpxExtensions/v3 http://www.garmin.com/xmlschemas/GpxExtensionsv3.xsd http://www.garmin.com/xmlschemas/TrackPointExtension/v1 http://www.garmin.com/xmlschemas/TrackPointExtensionv1.xsd http://www.garmin.com/xmlschemas/PowerExtension/v1 http://www.garmin.com/xmlschemas/PowerExtensionv1.xsd http://www.topografix.com/GPX/gpx_style/0/2 http://www.topografix.com/GPX/gpx_style/0/2/gpx_style.xsd" xmlns="http://www.topografix.com/GPX/1/1" xmlns:xsi="http://www.w3.org/2001/XMLSchema-instance" xsi:schemaLocation="http://www.topografix.com/GPX/1/1 http://www.topografix.com/GPX/1/1/gpx.xsd http://www.garmin.com/xmlschemas/GpxExtensions/v3 http://www.garmin.com/xmlschemas/GpxExtensionsv3.xsd http://www.garmin.com/xmlschemas/TrackPointExtension/v1 http://www.garmin.com/xmlschemas/TrackPointExtensionv1.xsd http://www.garmin.com/xmlschemas/PowerExtension/v1 http://www.garmin.com/xmlschemas/PowerExtensionv1.xsd http://www.topografix.com/GPX/gpx_style/0/2 http://www.topografix.com/GPX/gpx_style/0/2/gpx_style.xsd" xmlns:gpxtpx="http://www.garmin.com/xmlschemas/TrackPointExtension/v1" xmlns:gpxx="http://www.garmin.com/xmlschemas/GpxExtensions/v3" xmlns:gpxpx="http://www.garmin.com/xmlschemas/PowerExtension/v1" xmlns:gpx_style="http://www.topografix.com/GPX/gpx_style/0/2">
  <metadata>
    <name>LAUCO_#_1-V</name>
    <author>
      <name>gpx.studio</name>
      <link href="https://gpx.studio"/>
    </author>
  </metadata>
  <trk>
    <name>LAUCO_#_1-V</name>
    <trkseg>
      <trkpt lat="46.420295" lon="12.925826">
        <ele>665.3109109277239</ele>
        <time>2025-03-30T08:27:27.203Z</time>
      </trkpt>
      <trkpt lat="46.420293" lon="12.925811">
        <ele>665.17512757119</ele>
        <time>2025-03-30T08:27:27.983Z</time>
      </trkpt>
      <trkpt lat="46.420209" lon="12.925925">
        <ele>665.0508055804768</ele>
        <time>2025-03-30T08:27:36.510Z</time>
      </trkpt>
      <trkpt lat="46.420106" lon="12.925989">
        <ele>664.2732369874841</ele>
        <time>2025-03-30T08:27:44.816Z</time>
      </trkpt>
      <trkpt lat="46.419891" lon="12.926102">
        <ele>662.2470871561084</ele>
        <time>2025-03-30T08:28:01.768Z</time>
      </trkpt>
      <trkpt lat="46.419827" lon="12.926145">
        <ele>662.1512767947906</ele>
        <time>2025-03-30T08:28:06.996Z</time>
      </trkpt>
      <trkpt lat="46.41982338415291" lon="12.926188205454835">
        <ele>663.4146414167348</ele>
        <time>2025-03-30T08:28:07.000Z</time>
      </trkpt>
      <trkpt lat="46.41979761878914" lon="12.926254226025739">
        <ele>663.7796529566489</ele>
        <time>2025-03-30T08:28:10.000Z</time>
      </trkpt>
      <trkpt lat="46.41978778964308" lon="12.92632771674816">
        <ele>664.6875603927781</ele>
        <time>2025-03-30T08:28:13.000Z</time>
      </trkpt>
      <trkpt lat="46.41977780094379" lon="12.926414201409841">
        <ele>665.8312599257301</ele>
        <time>2025-03-30T08:28:17.000Z</time>
      </trkpt>
      <trkpt lat="46.419771551166946" lon="12.926484907338844">
        <ele>666.7727536899083</ele>
        <time>2025-03-30T08:28:21.000Z</time>
      </trkpt>
      <trkpt lat="46.41976234847682" lon="12.926567000986413">
        <ele>667.7178587254027</ele>
        <time>2025-03-30T08:28:26.000Z</time>
      </trkpt>
      <trkpt lat="46.419736167459675" lon="12.926640974233827">
        <ele>668.2160126570894</ele>
        <time>2025-03-30T08:28:29.000Z</time>
      </trkpt>
      <trkpt lat="46.41969897658091" lon="12.92669187693182">
        <ele>668.3129368683175</ele>
        <time>2025-03-30T08:28:34.000Z</time>
      </trkpt>
      <trkpt lat="46.41966982620484" lon="12.92675985898285">
        <ele>668.8091830008535</ele>
        <time>2025-03-30T08:28:38.000Z</time>
      </trkpt>
      <trkpt lat="46.41963704051311" lon="12.926816475683635">
        <ele>669.1430074225706</ele>
        <time>2025-03-30T08:28:44.000Z</time>
      </trkpt>
      <trkpt lat="46.41961061245804" lon="12.926881528089794">
        <ele>669.3963418198313</ele>
        <time>2025-03-30T08:28:48.000Z</time>
      </trkpt>
      <trkpt lat="46.419590112473045" lon="12.926948115012692">
        <ele>669.5729610757105</ele>
        <time>2025-03-30T08:28:52.000Z</time>
      </trkpt>
      <trkpt lat="46.41958110549639" lon="12.92701683225283">
        <ele>669.958853024366</ele>
        <time>2025-03-30T08:28:57.000Z</time>
      </trkpt>
      <trkpt lat="46.4195568021192" lon="12.927100997490333">
        <ele>669.8119015800776</ele>
        <time>2025-03-30T08:29:02.000Z</time>
      </trkpt>
      <trkpt lat="46.419518490885544" lon="12.927183866437149">
        <ele>669.427244444767</ele>
        <time>2025-03-30T08:29:05.000Z</time>
      </trkpt>
      <trkpt lat="46.419516593893675" lon="12.927260851996904">
        <ele>670.5765695878554</ele>
        <time>2025-03-30T08:29:10.000Z</time>
      </trkpt>
      <trkpt lat="46.419511878838684" lon="12.92732621369486">
        <ele>671.5107450666383</ele>
        <time>2025-03-30T08:29:14.000Z</time>
      </trkpt>
      <trkpt lat="46.41950070541982" lon="12.927404897320226">
        <ele>672.500220767938</ele>
        <time>2025-03-30T08:29:18.000Z</time>
      </trkpt>
      <trkpt lat="46.419471637638594" lon="12.92746629291312">
        <ele>672.6480083764006</ele>
        <time>2025-03-30T08:29:23.000Z</time>
      </trkpt>
      <trkpt lat="46.41944665506591" lon="12.927521875532559">
        <ele>672.593564975619</ele>
        <time>2025-03-30T08:29:27.000Z</time>
      </trkpt>
      <trkpt lat="46.41941590176293" lon="12.927578202365066">
        <ele>672.4043887570509</ele>
        <time>2025-03-30T08:29:30.000Z</time>
      </trkpt>
      <trkpt lat="46.41937403472375" lon="12.927646268282956">
        <ele>671.9040826359308</ele>
        <time>2025-03-30T08:29:35.000Z</time>
      </trkpt>
      <trkpt lat="46.41935585294966" lon="12.927709568698681">
        <ele>672.1236882228723</ele>
        <time>2025-03-30T08:29:39.000Z</time>
      </trkpt>
      <trkpt lat="46.41932277998878" lon="12.927763603499958">
        <ele>671.6015644386883</ele>
        <time>2025-03-30T08:29:43.000Z</time>
      </trkpt>
      <trkpt lat="46.419289099854005" lon="12.9278135847929">
        <ele>670.8760081290736</ele>
        <time>2025-03-30T08:29:47.000Z</time>
      </trkpt>
      <trkpt lat="46.419244232162825" lon="12.92787648305495">
        <ele>669.6329549859063</ele>
        <time>2025-03-30T08:29:53.000Z</time>
      </trkpt>
      <trkpt lat="46.419188536237115" lon="12.927909671751468">
        <ele>667.7062384713378</ele>
        <time>2025-03-30T08:30:01.000Z</time>
      </trkpt>
      <trkpt lat="46.419159360526066" lon="12.927982824522658">
        <ele>667.1760168144493</ele>
        <time>2025-03-30T08:30:05.000Z</time>
      </trkpt>
      <trkpt lat="46.41916628267478" lon="12.928066466986905">
        <ele>668.2614384555732</ele>
        <time>2025-03-30T08:30:10.000Z</time>
      </trkpt>
      <trkpt lat="46.41918289897451" lon="12.928135929794559">
        <ele>669.6248423281131</ele>
        <time>2025-03-30T08:30:14.000Z</time>
      </trkpt>
      <trkpt lat="46.41921945505372" lon="12.928185306423453">
        <ele>671.6197825530089</ele>
        <time>2025-03-30T08:30:18.000Z</time>
      </trkpt>
      <trkpt lat="46.419242926166206" lon="12.928242900081045">
        <ele>673.2351605493571</ele>
        <time>2025-03-30T08:30:21.000Z</time>
      </trkpt>
      <trkpt lat="46.419253961856654" lon="12.928311584579207">
        <ele>674.4082873106586</ele>
        <time>2025-03-30T08:30:26.000Z</time>
      </trkpt>
      <trkpt lat="46.419234554058264" lon="12.928371309332755">
        <ele>674.4361466301872</ele>
        <time>2025-03-30T08:30:32.000Z</time>
      </trkpt>
      <trkpt lat="46.41922336867668" lon="12.928445983253363">
        <ele>675.0333139114605</ele>
        <time>2025-03-30T08:30:38.000Z</time>
      </trkpt>
      <trkpt lat="46.41921878126776" lon="12.928515540169606">
        <ele>675.857067908753</ele>
        <time>2025-03-30T08:30:43.000Z</time>
      </trkpt>
      <trkpt lat="46.41917121268809" lon="12.928578873099692">
        <ele>675.2878564710181</ele>
        <time>2025-03-30T08:30:47.000Z</time>
      </trkpt>
      <trkpt lat="46.419144924142074" lon="12.928631972142384">
        <ele>675.1859676651237</ele>
        <time>2025-03-30T08:30:51.000Z</time>
      </trkpt>
      <trkpt lat="46.419098816660664" lon="12.928670199303475">
        <ele>674.1278068936812</ele>
        <time>2025-03-30T08:30:55.000Z</time>
      </trkpt>
      <trkpt lat="46.41906496132694" lon="12.928727765757845">
        <ele>673.9073594046358</ele>
        <time>2025-03-30T08:30:58.000Z</time>
      </trkpt>
      <trkpt lat="46.41903467900395" lon="12.928809411485325">
        <ele>674.2309106097565</ele>
        <time>2025-03-30T08:31:02.000Z</time>
      </trkpt>
      <trkpt lat="46.4189830659297" lon="12.928833485468076">
        <ele>672.7923354346794</ele>
        <time>2025-03-30T08:31:05.000Z</time>
      </trkpt>
      <trkpt lat="46.41895417859388" lon="12.928883446947053">
        <ele>672.5601547623314</ele>
        <time>2025-03-30T08:31:08.000Z</time>
      </trkpt>
      <trkpt lat="46.41890763870255" lon="12.92892315369646">
        <ele>671.302203650245</ele>
        <time>2025-03-30T08:31:12.000Z</time>
      </trkpt>
      <trkpt lat="46.41884690527903" lon="12.928951805662853">
        <ele>668.9756138992847</ele>
        <time>2025-03-30T08:31:15.000Z</time>
      </trkpt>
      <trkpt lat="46.418794757156974" lon="12.929002178469355">
        <ele>667.4440096790335</ele>
        <time>2025-03-30T08:31:20.000Z</time>
      </trkpt>
      <trkpt lat="46.41875110761622" lon="12.929036569537903">
        <ele>666.0958310381517</ele>
        <time>2025-03-30T08:31:24.000Z</time>
      </trkpt>
      <trkpt lat="46.418710854892865" lon="12.929080505069312">
        <ele>665.1329977584785</ele>
        <time>2025-03-30T08:31:28.000Z</time>
      </trkpt>
      <trkpt lat="46.41866164436906" lon="12.929129152485023">
        <ele>664.1053305050879</ele>
        <time>2025-03-30T08:31:32.000Z</time>
      </trkpt>
      <trkpt lat="46.41863233082571" lon="12.9291876059177">
        <ele>663.8343368397516</ele>
        <time>2025-03-30T08:31:36.000Z</time>
      </trkpt>
      <trkpt lat="46.41860190577302" lon="12.929235991902997">
        <ele>663.3208589001456</ele>
        <time>2025-03-30T08:31:39.000Z</time>
      </trkpt>
      <trkpt lat="46.41858625858507" lon="12.929300019685275">
        <ele>663.4198944707326</ele>
        <time>2025-03-30T08:31:42.000Z</time>
      </trkpt>
      <trkpt lat="46.4185807120003" lon="12.929376646947984">
        <ele>663.9984862415224</ele>
        <time>2025-03-30T08:31:46.000Z</time>
      </trkpt>
      <trkpt lat="46.418557079158994" lon="12.92944534549436">
        <ele>663.614381172602</ele>
        <time>2025-03-30T08:31:49.000Z</time>
      </trkpt>
      <trkpt lat="46.418519723919005" lon="12.929527945872946">
        <ele>662.6809932961144</ele>
        <time>2025-03-30T08:31:53.000Z</time>
      </trkpt>
      <trkpt lat="46.41849615785458" lon="12.929588207713735">
        <ele>662.0843253613485</ele>
        <time>2025-03-30T08:31:57.000Z</time>
      </trkpt>
      <trkpt lat="46.418461471993616" lon="12.929651397471964">
        <ele>661.0118178564597</ele>
        <time>2025-03-30T08:32:01.000Z</time>
      </trkpt>
      <trkpt lat="46.41842847014059" lon="12.929697994168803">
        <ele>659.7173920719458</ele>
        <time>2025-03-30T08:32:04.000Z</time>
      </trkpt>
      <trkpt lat="46.418395218626834" lon="12.929753575453349">
        <ele>658.4810886271714</ele>
        <time>2025-03-30T08:32:08.000Z</time>
      </trkpt>
      <trkpt lat="46.418371960951205" lon="12.929816817675997">
        <ele>657.911945331422</ele>
        <time>2025-03-30T08:32:11.000Z</time>
      </trkpt>
      <trkpt lat="46.418339367723874" lon="12.92986320134673">
        <ele>656.8776603325066</ele>
        <time>2025-03-30T08:32:14.000Z</time>
      </trkpt>
      <trkpt lat="46.418314305451865" lon="12.929918843071247">
        <ele>656.3549268607703</ele>
        <time>2025-03-30T08:32:17.000Z</time>
      </trkpt>
      <trkpt lat="46.41828769531335" lon="12.929980445272475">
        <ele>655.9376001589019</ele>
        <time>2025-03-30T08:32:21.000Z</time>
      </trkpt>
      <trkpt lat="46.41825161413163" lon="12.930040861540185">
        <ele>655.3137889832175</ele>
        <time>2025-03-30T08:32:25.000Z</time>
      </trkpt>
      <trkpt lat="46.418227716450005" lon="12.930099774088891">
        <ele>654.7077692153605</ele>
        <time>2025-03-30T08:32:28.000Z</time>
      </trkpt>
      <trkpt lat="46.4182183948" lon="12.930181100643297">
        <ele>654.6503500267128</ele>
        <time>2025-03-30T08:32:32.000Z</time>
      </trkpt>
      <trkpt lat="46.41820097116391" lon="12.930253006425199">
        <ele>654.2581813470849</ele>
        <time>2025-03-30T08:32:36.000Z</time>
      </trkpt>
      <trkpt lat="46.41817139697819" lon="12.930312243076232">
        <ele>653.4223040217717</ele>
        <time>2025-03-30T08:32:39.000Z</time>
      </trkpt>
      <trkpt lat="46.41814041075583" lon="12.930375651612716">
        <ele>652.6718783153233</ele>
        <time>2025-03-30T08:32:43.000Z</time>
      </trkpt>
      <trkpt lat="46.418129340892264" lon="12.930452064463482">
        <ele>652.9911654173591</ele>
        <time>2025-03-30T08:32:46.000Z</time>
      </trkpt>
      <trkpt lat="46.41812848406916" lon="12.930529065740624">
        <ele>653.7976769216168</ele>
        <time>2025-03-30T08:32:49.000Z</time>
      </trkpt>
      <trkpt lat="46.41816108907151" lon="12.930576013883885">
        <ele>655.2335536194037</ele>
        <time>2025-03-30T08:32:52.000Z</time>
      </trkpt>
      <trkpt lat="46.41817831229224" lon="12.93064632563813">
        <ele>656.3837364185142</ele>
        <time>2025-03-30T08:32:55.000Z</time>
      </trkpt>
      <trkpt lat="46.41819323572431" lon="12.930724585658423">
        <ele>657.2303868319045</ele>
        <time>2025-03-30T08:33:00.000Z</time>
      </trkpt>
      <trkpt lat="46.41814318613185" lon="12.930761273933681">
        <ele>655.8450818868716</ele>
        <time>2025-03-30T08:33:03.000Z</time>
      </trkpt>
      <trkpt lat="46.41809051791968" lon="12.93083144528077">
        <ele>654.0481643011841</ele>
        <time>2025-03-30T08:33:07.000Z</time>
      </trkpt>
      <trkpt lat="46.4180964789871" lon="12.930899649003747">
        <ele>653.8219390618412</ele>
        <time>2025-03-30T08:33:10.000Z</time>
      </trkpt>
      <trkpt lat="46.4180617295116" lon="12.930972391155514">
        <ele>652.325554675703</ele>
        <time>2025-03-30T08:33:14.000Z</time>
      </trkpt>
      <trkpt lat="46.418061530374" lon="12.931062865860605">
        <ele>651.946973599075</ele>
        <time>2025-03-30T08:33:18.000Z</time>
      </trkpt>
      <trkpt lat="46.41807438114196" lon="12.931149025751557">
        <ele>652.2099929655017</ele>
        <time>2025-03-30T08:33:23.000Z</time>
      </trkpt>
      <trkpt lat="46.4180669894875" lon="12.931218474628848">
        <ele>651.8591906453028</ele>
        <time>2025-03-30T08:33:26.000Z</time>
      </trkpt>
      <trkpt lat="46.418091904546074" lon="12.931287441111197">
        <ele>652.7010419840676</ele>
        <time>2025-03-30T08:33:29.000Z</time>
      </trkpt>
      <trkpt lat="46.41807918556812" lon="12.931376649962248">
        <ele>652.4023624589986</ele>
        <time>2025-03-30T08:33:34.000Z</time>
      </trkpt>
      <trkpt lat="46.41807939857961" lon="12.93144878151999">
        <ele>652.7891780096783</ele>
        <time>2025-03-30T08:33:37.000Z</time>
      </trkpt>
      <trkpt lat="46.41806683691322" lon="12.931532900405744">
        <ele>652.9897547011176</ele>
        <time>2025-03-30T08:33:42.000Z</time>
      </trkpt>
      <trkpt lat="46.41802094910002" lon="12.931556695371079">
        <ele>652.0286342453991</ele>
        <time>2025-03-30T08:33:47.000Z</time>
      </trkpt>
      <trkpt lat="46.41798728789356" lon="12.931610151530249">
        <ele>651.9109580191891</ele>
        <time>2025-03-30T08:33:50.000Z</time>
      </trkpt>
      <trkpt lat="46.41797135319908" lon="12.931682323905578">
        <ele>652.3870138807223</ele>
        <time>2025-03-30T08:33:53.000Z</time>
      </trkpt>
      <trkpt lat="46.417923056914255" lon="12.931701954705671">
        <ele>651.7766429389364</ele>
        <time>2025-03-30T08:33:59.000Z</time>
      </trkpt>
      <trkpt lat="46.417862449360626" lon="12.93170937423198">
        <ele>650.8947851713333</ele>
        <time>2025-03-30T08:34:03.000Z</time>
      </trkpt>
      <trkpt lat="46.41781629440711" lon="12.93169250999805">
        <ele>649.8844490675258</ele>
        <time>2025-03-30T08:34:07.000Z</time>
      </trkpt>
      <trkpt lat="46.41775984342453" lon="12.931707594647714">
        <ele>648.0594116657978</ele>
        <time>2025-03-30T08:34:11.000Z</time>
      </trkpt>
      <trkpt lat="46.417703302377724" lon="12.931714661055546">
        <ele>645.7659259869724</ele>
        <time>2025-03-30T08:34:16.000Z</time>
      </trkpt>
      <trkpt lat="46.417661983988225" lon="12.931757904597047">
        <ele>644.4591359522203</ele>
        <time>2025-03-30T08:34:19.000Z</time>
      </trkpt>
      <trkpt lat="46.417620310887635" lon="12.931819987084745">
        <ele>643.28226450861</ele>
        <time>2025-03-30T08:34:22.000Z</time>
      </trkpt>
      <trkpt lat="46.41758354758456" lon="12.931857796940777">
        <ele>641.5333213928906</ele>
        <time>2025-03-30T08:34:26.000Z</time>
      </trkpt>
      <trkpt lat="46.4175642468026" lon="12.931941181248654">
        <ele>641.3897337894481</ele>
        <time>2025-03-30T08:34:29.000Z</time>
      </trkpt>
      <trkpt lat="46.41751372787423" lon="12.931994118570717">
        <ele>637.8063265017809</ele>
        <time>2025-03-30T08:34:34.000Z</time>
      </trkpt>
      <trkpt lat="46.41748394683825" lon="12.93205537771862">
        <ele>636.9035114921337</ele>
        <time>2025-03-30T08:34:38.000Z</time>
      </trkpt>
      <trkpt lat="46.417459222190196" lon="12.932123288739332">
        <ele>637.2478949272517</ele>
        <time>2025-03-30T08:34:42.000Z</time>
      </trkpt>
      <trkpt lat="46.41741961700992" lon="12.93218188343472">
        <ele>636.3797708202314</ele>
        <time>2025-03-30T08:34:45.000Z</time>
      </trkpt>
      <trkpt lat="46.417401459613" lon="12.932253465160553">
        <ele>637.843303460172</ele>
        <time>2025-03-30T08:34:50.000Z</time>
      </trkpt>
      <trkpt lat="46.41737528284542" lon="12.93233517529348">
        <ele>638.2165216550377</ele>
        <time>2025-03-30T08:34:54.000Z</time>
      </trkpt>
      <trkpt lat="46.41735809420139" lon="12.932396010224481">
        <ele>637.9305550170836</ele>
        <time>2025-03-30T08:34:57.000Z</time>
      </trkpt>
      <trkpt lat="46.41734523300006" lon="12.93247268478753">
        <ele>638.1832405687983</ele>
        <time>2025-03-30T08:35:00.000Z</time>
      </trkpt>
      <trkpt lat="46.417343615858535" lon="12.932542692112547">
        <ele>639.3571837149957</ele>
        <time>2025-03-30T08:35:04.000Z</time>
      </trkpt>
      <trkpt lat="46.41733075822794" lon="12.932622219344353">
        <ele>640.0848611786805</ele>
        <time>2025-03-30T08:35:08.000Z</time>
      </trkpt>
      <trkpt lat="46.417285971916726" lon="12.932677477190408">
        <ele>638.8407624734458</ele>
        <time>2025-03-30T08:35:12.000Z</time>
      </trkpt>
      <trkpt lat="46.4172584485014" lon="12.932732885256655">
        <ele>639.0651087163158</ele>
        <time>2025-03-30T08:35:15.000Z</time>
      </trkpt>
      <trkpt lat="46.41722815629797" lon="12.932786107873737">
        <ele>639.3766168671143</ele>
        <time>2025-03-30T08:35:19.000Z</time>
      </trkpt>
    </trkseg>
  </trk>
</gpx>
