<?xml version="1.0" encoding="UTF-8"?>
<gpx creator="https://gpx.studio" version="1.1" schemaLocation="http://www.topografix.com/GPX/1/1 http://www.topografix.com/GPX/1/1/gpx.xsd http://www.garmin.com/xmlschemas/GpxExtensions/v3 http://www.garmin.com/xmlschemas/GpxExtensionsv3.xsd http://www.garmin.com/xmlschemas/TrackPointExtension/v1 http://www.garmin.com/xmlschemas/TrackPointExtensionv1.xsd http://www.garmin.com/xmlschemas/PowerExtension/v1 http://www.garmin.com/xmlschemas/PowerExtensionv1.xsd http://www.topografix.com/GPX/gpx_style/0/2 http://www.topografix.com/GPX/gpx_style/0/2/gpx_style.xsd" xmlns="http://www.topografix.com/GPX/1/1" xmlns:xsi="http://www.w3.org/2001/XMLSchema-instance" xsi:schemaLocation="http://www.topografix.com/GPX/1/1 http://www.topografix.com/GPX/1/1/gpx.xsd http://www.garmin.com/xmlschemas/GpxExtensions/v3 http://www.garmin.com/xmlschemas/GpxExtensionsv3.xsd http://www.garmin.com/xmlschemas/TrackPointExtension/v1 http://www.garmin.com/xmlschemas/TrackPointExtensionv1.xsd http://www.garmin.com/xmlschemas/PowerExtension/v1 http://www.garmin.com/xmlschemas/PowerExtensionv1.xsd http://www.topografix.com/GPX/gpx_style/0/2 http://www.topografix.com/GPX/gpx_style/0/2/gpx_style.xsd" xmlns:gpxtpx="http://www.garmin.com/xmlschemas/TrackPointExtension/v1" xmlns:gpxx="http://www.garmin.com/xmlschemas/GpxExtensions/v3" xmlns:gpxpx="http://www.garmin.com/xmlschemas/PowerExtension/v1" xmlns:gpx_style="http://www.topografix.com/GPX/gpx_style/0/2">
  <metadata>
    <name>LAUCO_#_5</name>
    <author>
      <name>gpx.studio</name>
      <link href="https://gpx.studio"/>
    </author>
  </metadata>
  <trk>
    <name>LAUCO_#_5</name>
    <trkseg>
      <trkpt lat="46.421786" lon="12.935854">
        <ele>724.7269959047799</ele>
        <time>2025-03-30T08:48:51.199Z</time>
      </trkpt>
      <trkpt lat="46.42168" lon="12.935959">
        <ele>726.0941965947869</ele>
        <time>2025-03-30T08:49:04.429Z</time>
      </trkpt>
      <trkpt lat="46.421637" lon="12.936078">
        <ele>727.88987603467</ele>
        <time>2025-03-30T08:49:13.975Z</time>
      </trkpt>
      <trkpt lat="46.421644" lon="12.936251">
        <ele>730.7924556875842</ele>
        <time>2025-03-30T08:49:26.288Z</time>
      </trkpt>
      <trkpt lat="46.421709" lon="12.936385">
        <ele>733.3108241497764</ele>
        <time>2025-03-30T08:49:37.930Z</time>
      </trkpt>
      <trkpt lat="46.421734" lon="12.936509">
        <ele>735.3770390840481</ele>
        <time>2025-03-30T08:49:47.109Z</time>
      </trkpt>
      <trkpt lat="46.421718" lon="12.936608">
        <ele>737.1053799722692</ele>
        <time>2025-03-30T08:49:54.334Z</time>
      </trkpt>
      <trkpt lat="46.421661" lon="12.936696">
        <ele>739.0687500221709</ele>
        <time>2025-03-30T08:50:02.914Z</time>
      </trkpt>
      <trkpt lat="46.421629" lon="12.936798">
        <ele>741.3827986494655</ele>
        <time>2025-03-30T08:50:10.876Z</time>
      </trkpt>
      <trkpt lat="46.421629" lon="12.936908">
        <ele>743.6418174819265</ele>
        <time>2025-03-30T08:50:18.692Z</time>
      </trkpt>
      <trkpt lat="46.421746" lon="12.937083">
        <ele>744.9134799618727</ele>
        <time>2025-03-30T08:50:36.014Z</time>
      </trkpt>
      <trkpt lat="46.421777" lon="12.937203">
        <ele>746.4840389477557</ele>
        <time>2025-03-30T08:50:45.119Z</time>
      </trkpt>
      <trkpt lat="46.421788" lon="12.937431">
        <ele>751.9305693850108</ele>
        <time>2025-03-30T08:51:01.359Z</time>
      </trkpt>
      <trkpt lat="46.421768" lon="12.937549">
        <ele>755.9971586968768</ele>
        <time>2025-03-30T08:51:09.993Z</time>
      </trkpt>
      <trkpt lat="46.42175900936127" lon="12.937558770179749">
        <ele>756.565031894856</ele>
        <time>2025-03-30T08:51:10.000Z</time>
      </trkpt>
      <trkpt lat="46.42175328731537" lon="12.937585592269897">
        <ele>757.669176217169</ele>
        <time>2025-03-30T08:51:13.000Z</time>
      </trkpt>
      <trkpt lat="46.42174959182739" lon="12.937591671943665">
        <ele>757.9762017092672</ele>
        <time>2025-03-30T08:51:14.000Z</time>
      </trkpt>
      <trkpt lat="46.42174732685089" lon="12.937593936920166">
        <ele>758.1116008428862</ele>
        <time>2025-03-30T08:51:15.000Z</time>
      </trkpt>
      <trkpt lat="46.421746373176575" lon="12.937611937522888">
        <ele>758.7808724964453</ele>
        <time>2025-03-30T08:51:17.000Z</time>
      </trkpt>
      <trkpt lat="46.42175269126892" lon="12.937615990638733">
        <ele>758.7778238279558</ele>
        <time>2025-03-30T08:51:20.000Z</time>
      </trkpt>
      <trkpt lat="46.42175590991974" lon="12.937617421150208">
        <ele>758.7538741072616</ele>
        <time>2025-03-30T08:51:21.000Z</time>
      </trkpt>
      <trkpt lat="46.4217574596405" lon="12.937624454498291">
        <ele>758.9705076190064</ele>
        <time>2025-03-30T08:51:23.000Z</time>
      </trkpt>
      <trkpt lat="46.42175900936127" lon="12.937626838684082">
        <ele>759.0202820343279</ele>
        <time>2025-03-30T08:51:24.000Z</time>
      </trkpt>
      <trkpt lat="46.42175781726837" lon="12.9376300573349">
        <ele>759.1636689827449</ele>
        <time>2025-03-30T08:51:25.000Z</time>
      </trkpt>
      <trkpt lat="46.421746492385864" lon="12.937660098075867">
        <ele>760.4991380968539</ele>
        <time>2025-03-30T08:51:28.000Z</time>
      </trkpt>
      <trkpt lat="46.42174446582794" lon="12.937674760818481">
        <ele>761.0682141455687</ele>
        <time>2025-03-30T08:51:29.000Z</time>
      </trkpt>
      <trkpt lat="46.42175245285034" lon="12.937724709510803">
        <ele>762.7136654939216</ele>
        <time>2025-03-30T08:51:32.000Z</time>
      </trkpt>
      <trkpt lat="46.421756982803345" lon="12.937739729881287">
        <ele>763.1752773770112</ele>
        <time>2025-03-30T08:51:33.000Z</time>
      </trkpt>
      <trkpt lat="46.42176008224487" lon="12.937753677368164">
        <ele>763.6302101531242</ele>
        <time>2025-03-30T08:51:34.000Z</time>
      </trkpt>
      <trkpt lat="46.421767711639404" lon="12.937798857688904">
        <ele>765.1353699309294</ele>
        <time>2025-03-30T08:51:36.000Z</time>
      </trkpt>
      <trkpt lat="46.42178738117218" lon="12.937849640846252">
        <ele>766.5991259233049</ele>
        <time>2025-03-30T08:51:39.000Z</time>
      </trkpt>
      <trkpt lat="46.42179298400879" lon="12.937905550003052">
        <ele>768.6000122484426</ele>
        <time>2025-03-30T08:51:41.000Z</time>
      </trkpt>
      <trkpt lat="46.421802401542664" lon="12.937938690185547">
        <ele>769.6926763953206</ele>
        <time>2025-03-30T08:51:43.000Z</time>
      </trkpt>
      <trkpt lat="46.421818017959595" lon="12.937965154647827">
        <ele>770.4376285281346</ele>
        <time>2025-03-30T08:51:45.000Z</time>
      </trkpt>
      <trkpt lat="46.42182278633118" lon="12.937980890274048">
        <ele>770.9641774654225</ele>
        <time>2025-03-30T08:51:46.000Z</time>
      </trkpt>
      <trkpt lat="46.42182016372681" lon="12.93800139427185">
        <ele>771.7893286322587</ele>
        <time>2025-03-30T08:51:47.000Z</time>
      </trkpt>
      <trkpt lat="46.42182469367981" lon="12.938039302825928">
        <ele>773.1713398080333</ele>
        <time>2025-03-30T08:51:49.000Z</time>
      </trkpt>
      <trkpt lat="46.42181885242462" lon="12.938074111938477">
        <ele>774.5480977024893</ele>
        <time>2025-03-30T08:51:51.000Z</time>
      </trkpt>
      <trkpt lat="46.421818017959595" lon="12.938088059425354">
        <ele>775.0793805744507</ele>
        <time>2025-03-30T08:51:52.000Z</time>
      </trkpt>
      <trkpt lat="46.42182123661041" lon="12.938137531280518">
        <ele>776.7436386981052</ele>
        <time>2025-03-30T08:51:55.000Z</time>
      </trkpt>
      <trkpt lat="46.421836733818054" lon="12.938171029090881">
        <ele>777.4895258198032</ele>
        <time>2025-03-30T08:51:57.000Z</time>
      </trkpt>
      <trkpt lat="46.42184269428253" lon="12.938183069229126">
        <ele>777.7434340670244</ele>
        <time>2025-03-30T08:51:58.000Z</time>
      </trkpt>
      <trkpt lat="46.42184388637543" lon="12.93819272518158">
        <ele>778.0137712698902</ele>
        <time>2025-03-30T08:51:59.000Z</time>
      </trkpt>
      <trkpt lat="46.421875" lon="12.938243508338928">
        <ele>778.8349054429455</ele>
        <time>2025-03-30T08:52:03.000Z</time>
      </trkpt>
      <trkpt lat="46.42187786102295" lon="12.938258171081543">
        <ele>779.1746313658319</ele>
        <time>2025-03-30T08:52:04.000Z</time>
      </trkpt>
      <trkpt lat="46.421886563301086" lon="12.938270330429077">
        <ele>779.3386761688407</ele>
        <time>2025-03-30T08:52:05.000Z</time>
      </trkpt>
      <trkpt lat="46.42189419269562" lon="12.938284397125244">
        <ele>779.5737785931457</ele>
        <time>2025-03-30T08:52:06.000Z</time>
      </trkpt>
      <trkpt lat="46.42190432548523" lon="12.938297033309937">
        <ele>779.7240057405563</ele>
        <time>2025-03-30T08:52:07.000Z</time>
      </trkpt>
      <trkpt lat="46.42191004753113" lon="12.938326120376587">
        <ele>780.3970686365627</ele>
        <time>2025-03-30T08:52:09.000Z</time>
      </trkpt>
      <trkpt lat="46.42192614078522" lon="12.938351392745972">
        <ele>780.7750926958403</ele>
        <time>2025-03-30T08:52:11.000Z</time>
      </trkpt>
      <trkpt lat="46.42193937301636" lon="12.93836510181427">
        <ele>780.8964463623245</ele>
        <time>2025-03-30T08:52:12.000Z</time>
      </trkpt>
      <trkpt lat="46.42196547985077" lon="12.938387393951416">
        <ele>781.0223301468653</ele>
        <time>2025-03-30T08:52:14.000Z</time>
      </trkpt>
      <trkpt lat="46.42198932170868" lon="12.93841004371643">
        <ele>781.2124064597307</ele>
        <time>2025-03-30T08:52:16.000Z</time>
      </trkpt>
      <trkpt lat="46.421998620033264" lon="12.93843936920166">
        <ele>781.8595361682596</ele>
        <time>2025-03-30T08:52:18.000Z</time>
      </trkpt>
      <trkpt lat="46.422009110450745" lon="12.938456654548645">
        <ele>782.137332092303</ele>
        <time>2025-03-30T08:52:21.000Z</time>
      </trkpt>
      <trkpt lat="46.422022342681885" lon="12.938482642173767">
        <ele>782.3961361400793</ele>
        <time>2025-03-30T08:52:24.000Z</time>
      </trkpt>
      <trkpt lat="46.4220290184021" lon="12.93848717212677">
        <ele>782.3451855930509</ele>
        <time>2025-03-30T08:52:25.000Z</time>
      </trkpt>
      <trkpt lat="46.42203664779663" lon="12.938493251800537">
        <ele>782.3037817727783</ele>
        <time>2025-03-30T08:52:26.000Z</time>
      </trkpt>
      <trkpt lat="46.42203617095947" lon="12.938515186309814">
        <ele>782.7223417339854</ele>
        <time>2025-03-30T08:52:28.000Z</time>
      </trkpt>
      <trkpt lat="46.422043561935425" lon="12.938526153564453">
        <ele>782.7768845416614</ele>
        <time>2025-03-30T08:52:29.000Z</time>
      </trkpt>
      <trkpt lat="46.422057151794434" lon="12.93858289718628">
        <ele>783.4789106341464</ele>
        <time>2025-03-30T08:52:32.000Z</time>
      </trkpt>
      <trkpt lat="46.422078013420105" lon="12.93861472606659">
        <ele>783.6151699160594</ele>
        <time>2025-03-30T08:52:35.000Z</time>
      </trkpt>
      <trkpt lat="46.422091007232666" lon="12.938634157180786">
        <ele>783.7262906288671</ele>
        <time>2025-03-30T08:52:37.000Z</time>
      </trkpt>
      <trkpt lat="46.42209804058075" lon="12.938640475273132">
        <ele>783.7225191583699</ele>
        <time>2025-03-30T08:52:38.000Z</time>
      </trkpt>
      <trkpt lat="46.42210853099823" lon="12.938654780387878">
        <ele>783.8099574687225</ele>
        <time>2025-03-30T08:52:40.000Z</time>
      </trkpt>
      <trkpt lat="46.422109603881836" lon="12.938663363456726">
        <ele>783.9503804779204</ele>
        <time>2025-03-30T08:52:41.000Z</time>
      </trkpt>
      <trkpt lat="46.42211663722992" lon="12.938669919967651">
        <ele>783.9573922096305</ele>
        <time>2025-03-30T08:52:42.000Z</time>
      </trkpt>
      <trkpt lat="46.4221054315567" lon="12.938690662384033">
        <ele>784.5189896367627</ele>
        <time>2025-03-30T08:52:44.000Z</time>
      </trkpt>
      <trkpt lat="46.4220826625824" lon="12.938717007637024">
        <ele>785.3492375704598</ele>
        <time>2025-03-30T08:52:46.000Z</time>
      </trkpt>
      <trkpt lat="46.42207646369934" lon="12.938721776008606">
        <ele>785.5354123410701</ele>
        <time>2025-03-30T08:52:47.000Z</time>
      </trkpt>
      <trkpt lat="46.422067046165466" lon="12.938724279403687">
        <ele>785.727959100528</ele>
        <time>2025-03-30T08:52:48.000Z</time>
      </trkpt>
      <trkpt lat="46.422064423561096" lon="12.938734650611877">
        <ele>785.9735407381431</ele>
        <time>2025-03-30T08:52:50.000Z</time>
      </trkpt>
      <trkpt lat="46.4220689535141" lon="12.938746929168701">
        <ele>786.1509953351328</ele>
        <time>2025-03-30T08:52:51.000Z</time>
      </trkpt>
      <trkpt lat="46.42208552360535" lon="12.938769698143005">
        <ele>786.3697734653133</ele>
        <time>2025-03-30T08:52:54.000Z</time>
      </trkpt>
      <trkpt lat="46.42208993434906" lon="12.938772439956665">
        <ele>786.3629310569793</ele>
        <time>2025-03-30T08:52:55.000Z</time>
      </trkpt>
      <trkpt lat="46.42208015918732" lon="12.93877398967743">
        <ele>786.532555604986</ele>
        <time>2025-03-30T08:52:57.000Z</time>
      </trkpt>
      <trkpt lat="46.4220666885376" lon="12.938781023025513">
        <ele>786.8628165449873</ele>
        <time>2025-03-30T08:52:59.000Z</time>
      </trkpt>
      <trkpt lat="46.42204928398132" lon="12.938778758049011">
        <ele>787.1605768766732</ele>
        <time>2025-03-30T08:53:02.000Z</time>
      </trkpt>
      <trkpt lat="46.42204821109772" lon="12.938771367073059">
        <ele>787.0377612334687</ele>
        <time>2025-03-30T08:53:03.000Z</time>
      </trkpt>
      <trkpt lat="46.42204666137695" lon="12.93876838684082">
        <ele>787.0127836979004</ele>
        <time>2025-03-30T08:53:04.000Z</time>
      </trkpt>
      <trkpt lat="46.42204451560974" lon="12.938766479492188">
        <ele>787.0221524077011</ele>
        <time>2025-03-30T08:53:05.000Z</time>
      </trkpt>
      <trkpt lat="46.422035694122314" lon="12.938765168190002">
        <ele>787.1900046146716</ele>
        <time>2025-03-30T08:53:06.000Z</time>
      </trkpt>
      <trkpt lat="46.422030448913574" lon="12.938765168190002">
        <ele>787.3052515573341</ele>
        <time>2025-03-30T08:53:07.000Z</time>
      </trkpt>
      <trkpt lat="46.42201888561249" lon="12.938767671585083">
        <ele>787.6089019764686</ele>
        <time>2025-03-30T08:53:08.000Z</time>
      </trkpt>
      <trkpt lat="46.42200481891632" lon="12.93876326084137">
        <ele>787.8306120919301</ele>
        <time>2025-03-30T08:53:10.000Z</time>
      </trkpt>
      <trkpt lat="46.42197942733765" lon="12.938769102096558">
        <ele>788.6281221700879</ele>
        <time>2025-03-30T08:53:13.000Z</time>
      </trkpt>
      <trkpt lat="46.42193269729614" lon="12.938775181770325">
        <ele>790.0368852080785</ele>
        <time>2025-03-30T08:53:18.000Z</time>
      </trkpt>
      <trkpt lat="46.42192625999451" lon="12.938783288002014">
        <ele>790.3904086206117</ele>
        <time>2025-03-30T08:53:19.000Z</time>
      </trkpt>
      <trkpt lat="46.42191696166992" lon="12.938791990280151">
        <ele>790.8344948712278</ele>
        <time>2025-03-30T08:53:20.000Z</time>
      </trkpt>
      <trkpt lat="46.42187988758087" lon="12.938809394836426">
        <ele>792.249710268476</ele>
        <time>2025-03-30T08:53:23.000Z</time>
      </trkpt>
      <trkpt lat="46.42186903953552" lon="12.938815832138062">
        <ele>792.720124157464</ele>
        <time>2025-03-30T08:53:24.000Z</time>
      </trkpt>
      <trkpt lat="46.42185866832733" lon="12.938824534416199">
        <ele>793.2372530519648</ele>
        <time>2025-03-30T08:53:25.000Z</time>
      </trkpt>
      <trkpt lat="46.42184793949127" lon="12.938829779624939">
        <ele>793.6660991922363</ele>
        <time>2025-03-30T08:53:26.000Z</time>
      </trkpt>
      <trkpt lat="46.4218213558197" lon="12.938839793205261">
        <ele>794.6207428877719</ele>
        <time>2025-03-30T08:53:28.000Z</time>
      </trkpt>
      <trkpt lat="46.421812295913696" lon="12.938843488693237">
        <ele>794.9116315856876</ele>
        <time>2025-03-30T08:53:29.000Z</time>
      </trkpt>
      <trkpt lat="46.42176282405853" lon="12.938883543014526">
        <ele>796.9846035921951</ele>
        <time>2025-03-30T08:53:35.000Z</time>
      </trkpt>
      <trkpt lat="46.42175102233887" lon="12.938895344734192">
        <ele>797.530726631611</ele>
        <time>2025-03-30T08:53:36.000Z</time>
      </trkpt>
      <trkpt lat="46.42172169685364" lon="12.938915848731995">
        <ele>798.6542803149531</ele>
        <time>2025-03-30T08:53:39.000Z</time>
      </trkpt>
      <trkpt lat="46.42167830467224" lon="12.938960194587708">
        <ele>800.6245126105629</ele>
        <time>2025-03-30T08:53:43.000Z</time>
      </trkpt>
      <trkpt lat="46.42167115211487" lon="12.93896484375">
        <ele>800.8756674188141</ele>
        <time>2025-03-30T08:53:44.000Z</time>
      </trkpt>
      <trkpt lat="46.42166554927826" lon="12.93896996974945">
        <ele>801.1083294782645</ele>
        <time>2025-03-30T08:53:45.000Z</time>
      </trkpt>
      <trkpt lat="46.42164206504822" lon="12.938974499702454">
        <ele>801.6580091503918</ele>
        <time>2025-03-30T08:53:49.000Z</time>
      </trkpt>
      <trkpt lat="46.42163562774658" lon="12.938968181610107">
        <ele>801.6231044698511</ele>
        <time>2025-03-30T08:53:50.000Z</time>
      </trkpt>
      <trkpt lat="46.42160952091217" lon="12.938952922821045">
        <ele>801.7351344148866</ele>
        <time>2025-03-30T08:53:53.000Z</time>
      </trkpt>
      <trkpt lat="46.42158329486847" lon="12.938931941986084">
        <ele>801.6880733078833</ele>
        <time>2025-03-30T08:53:55.000Z</time>
      </trkpt>
      <trkpt lat="46.421568632125854" lon="12.938929319381714">
        <ele>801.8359853400004</ele>
        <time>2025-03-30T08:53:56.000Z</time>
      </trkpt>
      <trkpt lat="46.421536684036255" lon="12.938939929008484">
        <ele>802.546288966069</ele>
        <time>2025-03-30T08:53:59.000Z</time>
      </trkpt>
      <trkpt lat="46.42152488231659" lon="12.938941955566406">
        <ele>802.7540547574306</ele>
        <time>2025-03-30T08:54:01.000Z</time>
      </trkpt>
      <trkpt lat="46.42151653766632" lon="12.93894636631012">
        <ele>802.9600983966882</ele>
        <time>2025-03-30T08:54:02.000Z</time>
      </trkpt>
      <trkpt lat="46.42149746417999" lon="12.938943266868591">
        <ele>803.1267075567762</ele>
        <time>2025-03-30T08:54:05.000Z</time>
      </trkpt>
      <trkpt lat="46.42149043083191" lon="12.938944339752197">
        <ele>803.2386723855534</ele>
        <time>2025-03-30T08:54:06.000Z</time>
      </trkpt>
      <trkpt lat="46.42146623134613" lon="12.93894338607788">
        <ele>803.5231243396652</ele>
        <time>2025-03-30T08:54:08.000Z</time>
      </trkpt>
      <trkpt lat="46.42143392562866" lon="12.938940644264221">
        <ele>803.8992353164131</ele>
        <time>2025-03-30T08:54:11.000Z</time>
      </trkpt>
      <trkpt lat="46.42142617702484" lon="12.938940405845642">
        <ele>803.9987263274382</ele>
        <time>2025-03-30T08:54:12.000Z</time>
      </trkpt>
      <trkpt lat="46.42139983177185" lon="12.93893313407898">
        <ele>804.1660361396714</ele>
        <time>2025-03-30T08:54:15.000Z</time>
      </trkpt>
      <trkpt lat="46.421390771865845" lon="12.93892753124237">
        <ele>804.1437985414232</ele>
        <time>2025-03-30T08:54:16.000Z</time>
      </trkpt>
      <trkpt lat="46.42137396335602" lon="12.938920974731445">
        <ele>804.1900127061274</ele>
        <time>2025-03-30T08:54:18.000Z</time>
      </trkpt>
      <trkpt lat="46.421351075172424" lon="12.938921928405762">
        <ele>804.4649127557275</ele>
        <time>2025-03-30T08:54:20.000Z</time>
      </trkpt>
      <trkpt lat="46.421342968940735" lon="12.938926339149475">
        <ele>804.6201332581754</ele>
        <time>2025-03-30T08:54:21.000Z</time>
      </trkpt>
      <trkpt lat="46.421321868896484" lon="12.938924312591553">
        <ele>804.7422233498942</ele>
        <time>2025-03-30T08:54:23.000Z</time>
      </trkpt>
      <trkpt lat="46.42130887508392" lon="12.93892526626587">
        <ele>804.8625621729038</ele>
        <time>2025-03-30T08:54:24.000Z</time>
      </trkpt>
      <trkpt lat="46.42128050327301" lon="12.938929557800293">
        <ele>805.1575932027652</ele>
        <time>2025-03-30T08:54:27.000Z</time>
      </trkpt>
      <trkpt lat="46.42125415802002" lon="12.938933968544006">
        <ele>805.4203522833338</ele>
        <time>2025-03-30T08:54:29.000Z</time>
      </trkpt>
      <trkpt lat="46.421245098114014" lon="12.938931584358215">
        <ele>805.4386207560201</ele>
        <time>2025-03-30T08:54:30.000Z</time>
      </trkpt>
      <trkpt lat="46.42122721672058" lon="12.938918948173523">
        <ele>805.3395001319248</ele>
        <time>2025-03-30T08:54:32.000Z</time>
      </trkpt>
      <trkpt lat="46.421215295791626" lon="12.938914895057678">
        <ele>805.3492578665737</ele>
        <time>2025-03-30T08:54:33.000Z</time>
      </trkpt>
      <trkpt lat="46.4211927652359" lon="12.93891716003418">
        <ele>805.5411582705574</ele>
        <time>2025-03-30T08:54:35.000Z</time>
      </trkpt>
      <trkpt lat="46.42118549346924" lon="12.93891429901123">
        <ele>805.5403187931523</ele>
        <time>2025-03-30T08:54:36.000Z</time>
      </trkpt>
      <trkpt lat="46.42116069793701" lon="12.938920021057129">
        <ele>805.7772673733132</ele>
        <time>2025-03-30T08:54:39.000Z</time>
      </trkpt>
      <trkpt lat="46.421138644218445" lon="12.938937067985535">
        <ele>806.162230141716</ele>
        <time>2025-03-30T08:54:41.000Z</time>
      </trkpt>
      <trkpt lat="46.421127915382385" lon="12.938945889472961">
        <ele>806.3529085268076</ele>
        <time>2025-03-30T08:54:42.000Z</time>
      </trkpt>
      <trkpt lat="46.42110896110535" lon="12.938964128494263">
        <ele>806.7031203820609</ele>
        <time>2025-03-30T08:54:44.000Z</time>
      </trkpt>
      <trkpt lat="46.42110323905945" lon="12.938976049423218">
        <ele>806.8961664791954</ele>
        <time>2025-03-30T08:54:45.000Z</time>
      </trkpt>
      <trkpt lat="46.42109656333923" lon="12.938996434211731">
        <ele>807.2051388888633</ele>
        <time>2025-03-30T08:54:47.000Z</time>
      </trkpt>
      <trkpt lat="46.42108678817749" lon="12.939009189605713">
        <ele>807.3983333332941</ele>
        <time>2025-03-30T08:54:48.000Z</time>
      </trkpt>
      <trkpt lat="46.421071" lon="12.939004">
        <ele>807.3197310578555</ele>
        <time>2025-03-30T08:54:49.663Z</time>
      </trkpt>
      <trkpt lat="46.420989" lon="12.939149">
        <ele>809.721877215195</ele>
        <time>2025-03-30T08:55:02.946Z</time>
      </trkpt>
      <trkpt lat="46.420841" lon="12.939541">
        <ele>815.5533811759212</ele>
        <time>2025-03-30T08:55:34.601Z</time>
      </trkpt>
      <trkpt lat="46.420735" lon="12.939858">
        <ele>818.2189674058505</ele>
        <time>2025-03-30T08:55:59.555Z</time>
      </trkpt>
      <trkpt lat="46.420592" lon="12.940115">
        <ele>818.9801619774678</ele>
        <time>2025-03-30T08:56:22.947Z</time>
      </trkpt>
      <trkpt lat="46.420467" lon="12.940447">
        <ele>821.0635841891183</ele>
        <time>2025-03-30T08:56:49.740Z</time>
      </trkpt>
      <trkpt lat="46.42039" lon="12.940714">
        <ele>823.1872982215234</ele>
        <time>2025-03-30T08:57:10.239Z</time>
      </trkpt>
      <trkpt lat="46.420218" lon="12.941221">
        <ele>826.2132613926202</ele>
        <time>2025-03-30T08:57:50.261Z</time>
      </trkpt>
      <trkpt lat="46.420091" lon="12.941667">
        <ele>828.0427079066781</ele>
        <time>2025-03-30T08:58:24.439Z</time>
      </trkpt>
      <trkpt lat="46.420069" lon="12.941873">
        <ele>829.3299902524102</ele>
        <time>2025-03-30T08:58:39.203Z</time>
      </trkpt>
      <trkpt lat="46.419948" lon="12.942444">
        <ele>829.5638298792765</ele>
        <time>2025-03-30T08:59:21.513Z</time>
      </trkpt>
      <trkpt lat="46.419834" lon="12.942742">
        <ele>825.4715050519451</ele>
        <time>2025-03-30T08:59:45.651Z</time>
      </trkpt>
      <trkpt lat="46.419821" lon="12.942925">
        <ele>824.5451396684173</ele>
        <time>2025-03-30T08:59:58.681Z</time>
      </trkpt>
      <trkpt lat="46.41985" lon="12.943381">
        <ele>826.167448350434</ele>
        <time>2025-03-30T09:00:31.115Z</time>
      </trkpt>
      <trkpt lat="46.419787" lon="12.944003">
        <ele>825.9267567148664</ele>
        <time>2025-03-30T09:01:15.643Z</time>
      </trkpt>
      <trkpt lat="46.419787" lon="12.944389">
        <ele>827.3053604736349</ele>
        <time>2025-03-30T09:01:42.982Z</time>
      </trkpt>
      <trkpt lat="46.41985" lon="12.944593">
        <ele>829.366063553678</ele>
        <time>2025-03-30T09:01:58.814Z</time>
      </trkpt>
      <trkpt lat="46.41991" lon="12.944829">
        <ele>832.8553354573877</ele>
        <time>2025-03-30T09:02:16.629Z</time>
      </trkpt>
      <trkpt lat="46.420043" lon="12.945076">
        <ele>838.0255157011867</ele>
        <time>2025-03-30T09:02:38.827Z</time>
      </trkpt>
      <trkpt lat="46.420043" lon="12.945349">
        <ele>841.3172447805999</ele>
        <time>2025-03-30T09:02:58.163Z</time>
      </trkpt>
      <trkpt lat="46.419972" lon="12.945542">
        <ele>842.3115566792601</ele>
        <time>2025-03-30T09:03:13.657Z</time>
      </trkpt>
      <trkpt lat="46.419969" lon="12.945671">
        <ele>843.6931869661438</ele>
        <time>2025-03-30T09:03:22.799Z</time>
      </trkpt>
      <trkpt lat="46.420034" lon="12.945727">
        <ele>845.4887962838172</ele>
        <time>2025-03-30T09:03:30.566Z</time>
      </trkpt>
      <trkpt lat="46.42003" lon="12.945727">
        <ele>845.4144327492456</ele>
        <time>2025-03-30T09:03:30.976Z</time>
      </trkpt>
      <trkpt lat="46.420018672943115" lon="12.945759654045105">
        <ele>845.546255262848</ele>
        <time>2025-03-30T09:03:33.524Z</time>
      </trkpt>
      <trkpt lat="46.420035004615784" lon="12.945773482322693">
        <ele>845.9948754596993</ele>
        <time>2025-03-30T09:03:34.524Z</time>
      </trkpt>
      <trkpt lat="46.42005467414856" lon="12.945810794830322">
        <ele>846.754736696339</ele>
        <time>2025-03-30T09:03:36.524Z</time>
      </trkpt>
      <trkpt lat="46.420053243637085" lon="12.945824265480042">
        <ele>846.8676333124283</ele>
        <time>2025-03-30T09:03:37.524Z</time>
      </trkpt>
      <trkpt lat="46.42004382610321" lon="12.94583809375763">
        <ele>846.8363747279162</ele>
        <time>2025-03-30T09:03:38.524Z</time>
      </trkpt>
      <trkpt lat="46.42000341415405" lon="12.945903301239014">
        <ele>846.9099421116761</ele>
        <time>2025-03-30T09:03:42.524Z</time>
      </trkpt>
      <trkpt lat="46.419981598854065" lon="12.945934653282166">
        <ele>846.9203489251205</ele>
        <time>2025-03-30T09:03:44.524Z</time>
      </trkpt>
      <trkpt lat="46.41995453834534" lon="12.945963382720947">
        <ele>846.8524096361602</ele>
        <time>2025-03-30T09:03:46.524Z</time>
      </trkpt>
      <trkpt lat="46.419936776161194" lon="12.946001052856445">
        <ele>847.0927510164687</ele>
        <time>2025-03-30T09:03:49.524Z</time>
      </trkpt>
      <trkpt lat="46.419928312301636" lon="12.946017026901245">
        <ele>847.177171850691</ele>
        <time>2025-03-30T09:03:50.524Z</time>
      </trkpt>
      <trkpt lat="46.419934034347534" lon="12.9461190700531">
        <ele>848.8332784220579</ele>
        <time>2025-03-30T09:03:54.524Z</time>
      </trkpt>
      <trkpt lat="46.41993737220764" lon="12.94614040851593">
        <ele>849.2241677675402</ele>
        <time>2025-03-30T09:03:55.524Z</time>
      </trkpt>
      <trkpt lat="46.41993701457977" lon="12.946160435676575">
        <ele>849.5202480758547</ele>
        <time>2025-03-30T09:03:56.524Z</time>
      </trkpt>
      <trkpt lat="46.41993582248688" lon="12.946178555488586">
        <ele>849.7705157693952</ele>
        <time>2025-03-30T09:03:57.524Z</time>
      </trkpt>
      <trkpt lat="46.419936180114746" lon="12.94621479511261">
        <ele>850.5274910170128</ele>
        <time>2025-03-30T09:03:59.524Z</time>
      </trkpt>
      <trkpt lat="46.4199333190918" lon="12.946232914924622">
        <ele>850.8705779281454</ele>
        <time>2025-03-30T09:04:01.524Z</time>
      </trkpt>
      <trkpt lat="46.419931054115295" lon="12.946242809295654">
        <ele>851.042633114593</ele>
        <time>2025-03-30T09:04:02.524Z</time>
      </trkpt>
      <trkpt lat="46.419925689697266" lon="12.94626522064209">
        <ele>851.4208825835035</ele>
        <time>2025-03-30T09:04:05.524Z</time>
      </trkpt>
      <trkpt lat="46.41991639137268" lon="12.946290373802185">
        <ele>851.8650637926306</ele>
        <time>2025-03-30T09:04:07.524Z</time>
      </trkpt>
      <trkpt lat="46.41990530490875" lon="12.946332097053528">
        <ele>852.765230988275</ele>
        <time>2025-03-30T09:04:10.524Z</time>
      </trkpt>
      <trkpt lat="46.419894099235535" lon="12.946359515190125">
        <ele>853.2880798307253</ele>
        <time>2025-03-30T09:04:13.524Z</time>
      </trkpt>
      <trkpt lat="46.419886350631714" lon="12.946378111839294">
        <ele>853.6509310840637</ele>
        <time>2025-03-30T09:04:14.524Z</time>
      </trkpt>
      <trkpt lat="46.41988003253937" lon="12.946394324302673">
        <ele>853.9761277653286</ele>
        <time>2025-03-30T09:04:15.524Z</time>
      </trkpt>
      <trkpt lat="46.41987407207489" lon="12.946410655975342">
        <ele>854.3119108098568</ele>
        <time>2025-03-30T09:04:16.524Z</time>
      </trkpt>
      <trkpt lat="46.41987073421478" lon="12.946423053741455">
        <ele>854.5879006528071</ele>
        <time>2025-03-30T09:04:17.524Z</time>
      </trkpt>
      <trkpt lat="46.41986656188965" lon="12.946465373039246">
        <ele>855.6795639216906</ele>
        <time>2025-03-30T09:04:20.524Z</time>
      </trkpt>
      <trkpt lat="46.41986930370331" lon="12.946479558944702">
        <ele>856.1364709160298</ele>
        <time>2025-03-30T09:04:21.524Z</time>
      </trkpt>
      <trkpt lat="46.419870376586914" lon="12.946496844291687">
        <ele>856.6433765516157</ele>
        <time>2025-03-30T09:04:23.524Z</time>
      </trkpt>
      <trkpt lat="46.419867515563965" lon="12.946510195732117">
        <ele>856.9538504110654</ele>
        <time>2025-03-30T09:04:24.524Z</time>
      </trkpt>
      <trkpt lat="46.41985869407654" lon="12.946533679962158">
        <ele>857.4028669247202</ele>
        <time>2025-03-30T09:04:26.524Z</time>
      </trkpt>
      <trkpt lat="46.419856548309326" lon="12.946544528007507">
        <ele>857.6247274183802</ele>
        <time>2025-03-30T09:04:27.524Z</time>
      </trkpt>
      <trkpt lat="46.41985464096069" lon="12.946556568145752">
        <ele>857.882206743255</ele>
        <time>2025-03-30T09:04:28.524Z</time>
      </trkpt>
      <trkpt lat="46.41984295845032" lon="12.946582913398743">
        <ele>858.2916905917132</ele>
        <time>2025-03-30T09:04:30.524Z</time>
      </trkpt>
      <trkpt lat="46.419832825660706" lon="12.946597814559937">
        <ele>858.4559668688307</ele>
        <time>2025-03-30T09:04:31.524Z</time>
      </trkpt>
      <trkpt lat="46.41980302333832" lon="12.946666955947876">
        <ele>859.653300320171</ele>
        <time>2025-03-30T09:04:36.524Z</time>
      </trkpt>
      <trkpt lat="46.419790625572205" lon="12.94670057296753">
        <ele>860.3737742626809</ele>
        <time>2025-03-30T09:04:38.524Z</time>
      </trkpt>
      <trkpt lat="46.41978049278259" lon="12.946735858917236">
        <ele>861.1851765879435</ele>
        <time>2025-03-30T09:04:41.524Z</time>
      </trkpt>
      <trkpt lat="46.41979134082794" lon="12.946749806404114">
        <ele>861.5814285439909</ele>
        <time>2025-03-30T09:04:42.524Z</time>
      </trkpt>
      <trkpt lat="46.41978359222412" lon="12.946777939796448">
        <ele>862.2304747649475</ele>
        <time>2025-03-30T09:04:44.524Z</time>
      </trkpt>
      <trkpt lat="46.419780015945435" lon="12.946791172027588">
        <ele>862.533277123505</ele>
        <time>2025-03-30T09:04:45.524Z</time>
      </trkpt>
      <trkpt lat="46.41978585720062" lon="12.946813344955444">
        <ele>863.0938926373418</ele>
        <time>2025-03-30T09:04:46.524Z</time>
      </trkpt>
      <trkpt lat="46.419769287109375" lon="12.946832060813904">
        <ele>863.4429295866753</ele>
        <time>2025-03-30T09:04:48.524Z</time>
      </trkpt>
      <trkpt lat="46.41975939273834" lon="12.946874618530273">
        <ele>864.3731486130051</ele>
        <time>2025-03-30T09:04:51.524Z</time>
      </trkpt>
      <trkpt lat="46.41974723339081" lon="12.946917295455933">
        <ele>865.1357704239529</ele>
        <time>2025-03-30T09:04:53.524Z</time>
      </trkpt>
      <trkpt lat="46.419740319252014" lon="12.946935892105103">
        <ele>865.4467708720941</ele>
        <time>2025-03-30T09:04:54.524Z</time>
      </trkpt>
      <trkpt lat="46.41973114013672" lon="12.946975708007812">
        <ele>866.1176877273733</ele>
        <time>2025-03-30T09:04:56.524Z</time>
      </trkpt>
      <trkpt lat="46.419718980789185" lon="12.94701600074768">
        <ele>866.7340265548329</ele>
        <time>2025-03-30T09:04:58.524Z</time>
      </trkpt>
      <trkpt lat="46.41971242427826" lon="12.947033762931824">
        <ele>866.987717436681</ele>
        <time>2025-03-30T09:04:59.524Z</time>
      </trkpt>
      <trkpt lat="46.419708371162415" lon="12.947051286697388">
        <ele>867.2520966327544</ele>
        <time>2025-03-30T09:05:00.524Z</time>
      </trkpt>
      <trkpt lat="46.41970753669739" lon="12.947067022323608">
        <ele>867.5078484384119</ele>
        <time>2025-03-30T09:05:01.524Z</time>
      </trkpt>
      <trkpt lat="46.41968643665314" lon="12.947091937065125">
        <ele>867.6810716409258</ele>
        <time>2025-03-30T09:05:03.524Z</time>
      </trkpt>
      <trkpt lat="46.4196594953537" lon="12.947110295295715">
        <ele>867.6692560542906</ele>
        <time>2025-03-30T09:05:05.524Z</time>
      </trkpt>
      <trkpt lat="46.41960024833679" lon="12.947108268737793">
        <ele>866.7819186231732</ele>
        <time>2025-03-30T09:05:09.524Z</time>
      </trkpt>
      <trkpt lat="46.41958498954773" lon="12.94711446762085">
        <ele>866.6183094953822</ele>
        <time>2025-03-30T09:05:11.524Z</time>
      </trkpt>
      <trkpt lat="46.41956615447998" lon="12.947135925292969">
        <ele>866.4062086872786</ele>
        <time>2025-03-30T09:05:14.524Z</time>
      </trkpt>
      <trkpt lat="46.41956877708435" lon="12.947152137756348">
        <ele>866.7237364273288</ele>
        <time>2025-03-30T09:05:16.524Z</time>
      </trkpt>
      <trkpt lat="46.419569969177246" lon="12.947155237197876">
        <ele>866.8094857439056</ele>
        <time>2025-03-30T09:05:17.524Z</time>
      </trkpt>
      <trkpt lat="46.419551730155945" lon="12.94716215133667">
        <ele>866.2464405981627</ele>
        <time>2025-03-30T09:05:21.524Z</time>
      </trkpt>
      <trkpt lat="46.419524788856506" lon="12.947217345237732">
        <ele>865.988609231883</ele>
        <time>2025-03-30T09:05:27.524Z</time>
      </trkpt>
      <trkpt lat="46.41951870918274" lon="12.947219252586365">
        <ele>865.7868918218843</ele>
        <time>2025-03-30T09:05:28.524Z</time>
      </trkpt>
      <trkpt lat="46.419512152671814" lon="12.947230577468872">
        <ele>865.6791628643413</ele>
        <time>2025-03-30T09:05:29.524Z</time>
      </trkpt>
      <trkpt lat="46.4194895029068" lon="12.947260737419128">
        <ele>865.185261006887</ele>
        <time>2025-03-30T09:05:33.524Z</time>
      </trkpt>
      <trkpt lat="46.4194837808609" lon="12.947267055511475">
        <ele>865.0438089583542</ele>
        <time>2025-03-30T09:05:34.524Z</time>
      </trkpt>
      <trkpt lat="46.41946196556091" lon="12.947261691093445">
        <ele>864.1270666398582</ele>
        <time>2025-03-30T09:05:36.524Z</time>
      </trkpt>
      <trkpt lat="46.419437408447266" lon="12.947270512580872">
        <ele>863.2855520123155</ele>
        <time>2025-03-30T09:05:39.524Z</time>
      </trkpt>
      <trkpt lat="46.41942536830902" lon="12.947272062301636">
        <ele>862.8373958610005</ele>
        <time>2025-03-30T09:05:40.524Z</time>
      </trkpt>
      <trkpt lat="46.41941273212433" lon="12.947287559509277">
        <ele>862.5448206491309</ele>
        <time>2025-03-30T09:05:41.524Z</time>
      </trkpt>
      <trkpt lat="46.419392704963684" lon="12.947294354438782">
        <ele>861.8217208662562</ele>
        <time>2025-03-30T09:05:43.524Z</time>
      </trkpt>
      <trkpt lat="46.419387" lon="12.947304">
        <ele>861.6937002839527</ele>
        <time>2025-03-30T09:05:44.409Z</time>
      </trkpt>
      <trkpt lat="46.419291" lon="12.947475">
        <ele>859.3391867684211</ele>
        <time>2025-03-30T09:05:59.781Z</time>
      </trkpt>
      <trkpt lat="46.419263" lon="12.947694">
        <ele>861.5900327757416</ele>
        <time>2025-03-30T09:06:15.306Z</time>
      </trkpt>
      <trkpt lat="46.419192" lon="12.947997">
        <ele>862.7210468901903</ele>
        <time>2025-03-30T09:06:37.613Z</time>
      </trkpt>
      <trkpt lat="46.419336" lon="12.948046">
        <ele>870.6397260762443</ele>
        <time>2025-03-30T09:06:52.568Z</time>
      </trkpt>
      <trkpt lat="46.419328" lon="12.948229">
        <ele>872.0977899329739</ele>
        <time>2025-03-30T09:07:05.349Z</time>
      </trkpt>
      <trkpt lat="46.419335" lon="12.948396">
        <ele>873.3005570959643</ele>
        <time>2025-03-30T09:07:17.011Z</time>
      </trkpt>
      <trkpt lat="46.419337" lon="12.948816">
        <ele>882.033926071792</ele>
        <time>2025-03-30T09:07:46.287Z</time>
      </trkpt>
      <trkpt lat="46.419267" lon="12.949091">
        <ele>886.2419473957565</ele>
        <time>2025-03-30T09:08:06.720Z</time>
      </trkpt>
      <trkpt lat="46.419263" lon="12.949309">
        <ele>895.7712430066554</ele>
        <time>2025-03-30T09:08:21.921Z</time>
      </trkpt>
      <trkpt lat="46.41931" lon="12.949526">
        <ele>908.1751432573767</ele>
        <time>2025-03-30T09:08:37.776Z</time>
      </trkpt>
      <trkpt lat="46.419385" lon="12.949491">
        <ele>908.9515478293647</ele>
        <time>2025-03-30T09:08:45.742Z</time>
      </trkpt>
      <trkpt lat="46.419506" lon="12.949565">
        <ele>914.5275536290923</ele>
        <time>2025-03-30T09:08:59.019Z</time>
      </trkpt>
      <trkpt lat="46.419546" lon="12.949548">
        <ele>914.7270969297606</ele>
        <time>2025-03-30T09:09:03.233Z</time>
      </trkpt>
      <trkpt lat="46.419858" lon="12.949641">
        <ele>927.1735730811832</ele>
        <time>2025-03-30T09:09:35.439Z</time>
      </trkpt>
      <trkpt lat="46.419969" lon="12.949806">
        <ele>932.3658484972091</ele>
        <time>2025-03-30T09:09:51.509Z</time>
      </trkpt>
    </trkseg>
  </trk>
</gpx>
