<?xml version="1.0" encoding="UTF-8"?>
<gpx creator="https://gpx.studio" version="1.1" schemaLocation="http://www.topografix.com/GPX/1/1 http://www.topografix.com/GPX/1/1/gpx.xsd http://www.garmin.com/xmlschemas/GpxExtensions/v3 http://www.garmin.com/xmlschemas/GpxExtensionsv3.xsd http://www.garmin.com/xmlschemas/TrackPointExtension/v1 http://www.garmin.com/xmlschemas/TrackPointExtensionv1.xsd http://www.garmin.com/xmlschemas/PowerExtension/v1 http://www.garmin.com/xmlschemas/PowerExtensionv1.xsd http://www.topografix.com/GPX/gpx_style/0/2 http://www.topografix.com/GPX/gpx_style/0/2/gpx_style.xsd" xmlns="http://www.topografix.com/GPX/1/1" xmlns:xsi="http://www.w3.org/2001/XMLSchema-instance" xsi:schemaLocation="http://www.topografix.com/GPX/1/1 http://www.topografix.com/GPX/1/1/gpx.xsd http://www.garmin.com/xmlschemas/GpxExtensions/v3 http://www.garmin.com/xmlschemas/GpxExtensionsv3.xsd http://www.garmin.com/xmlschemas/TrackPointExtension/v1 http://www.garmin.com/xmlschemas/TrackPointExtensionv1.xsd http://www.garmin.com/xmlschemas/PowerExtension/v1 http://www.garmin.com/xmlschemas/PowerExtensionv1.xsd http://www.topografix.com/GPX/gpx_style/0/2 http://www.topografix.com/GPX/gpx_style/0/2/gpx_style.xsd" xmlns:gpxtpx="http://www.garmin.com/xmlschemas/TrackPointExtension/v1" xmlns:gpxx="http://www.garmin.com/xmlschemas/GpxExtensions/v3" xmlns:gpxpx="http://www.garmin.com/xmlschemas/PowerExtension/v1" xmlns:gpx_style="http://www.topografix.com/GPX/gpx_style/0/2">
  <metadata>
    <name>LAUCO_#_11</name>
    <author>
      <name>gpx.studio</name>
      <link href="https://gpx.studio"/>
    </author>
  </metadata>
  <trk>
    <name>LAUCO_#_11</name>
    <trkseg>
      <trkpt lat="46.442225" lon="12.947424">
        <ele>826.8855486774229</ele>
        <time>2025-03-30T10:14:51.706Z</time>
      </trkpt>
      <trkpt lat="46.442489" lon="12.94753">
        <ele>827.2812996811542</ele>
        <time>2025-03-30T10:15:19.298Z</time>
      </trkpt>
      <trkpt lat="46.442522" lon="12.947568">
        <ele>826.8211735324845</ele>
        <time>2025-03-30T10:15:23.541Z</time>
      </trkpt>
      <trkpt lat="46.442611" lon="12.947487">
        <ele>829.7030559490454</ele>
        <time>2025-03-30T10:15:34.123Z</time>
      </trkpt>
      <trkpt lat="46.442631" lon="12.947434">
        <ele>831.1836827180952</ele>
        <time>2025-03-30T10:15:38.317Z</time>
      </trkpt>
      <trkpt lat="46.4427" lon="12.947452">
        <ele>831.5667541487635</ele>
        <time>2025-03-30T10:15:45.378Z</time>
      </trkpt>
      <trkpt lat="46.442729" lon="12.947565">
        <ele>829.0792130295189</ele>
        <time>2025-03-30T10:15:53.747Z</time>
      </trkpt>
      <trkpt lat="46.442785" lon="12.947664">
        <ele>827.0707561055126</ele>
        <time>2025-03-30T10:16:02.637Z</time>
      </trkpt>
      <trkpt lat="46.442984" lon="12.947736">
        <ele>826.6345400974163</ele>
        <time>2025-03-30T10:16:23.296Z</time>
      </trkpt>
      <trkpt lat="46.443088" lon="12.947739">
        <ele>827.1963007084145</ele>
        <time>2025-03-30T10:16:33.774Z</time>
      </trkpt>
      <trkpt lat="46.443193" lon="12.947774">
        <ele>826.6697427928686</ele>
        <time>2025-03-30T10:16:44.626Z</time>
      </trkpt>
      <trkpt lat="46.443269" lon="12.947742">
        <ele>827.7984358179436</ele>
        <time>2025-03-30T10:16:52.597Z</time>
      </trkpt>
      <trkpt lat="46.443317" lon="12.947603">
        <ele>832.4232300646659</ele>
        <time>2025-03-30T10:17:03.388Z</time>
      </trkpt>
      <trkpt lat="46.443347" lon="12.94746">
        <ele>837.0871311604211</ele>
        <time>2025-03-30T10:17:13.763Z</time>
      </trkpt>
      <trkpt lat="46.443411" lon="12.947396">
        <ele>839.3283717826033</ele>
        <time>2025-03-30T10:17:21.592Z</time>
      </trkpt>
      <trkpt lat="46.443437" lon="12.947393">
        <ele>839.6112759619955</ele>
        <time>2025-03-30T10:17:24.219Z</time>
      </trkpt>
      <trkpt lat="46.443509" lon="12.947511">
        <ele>836.6388054484391</ele>
        <time>2025-03-30T10:17:35.159Z</time>
      </trkpt>
      <trkpt lat="46.443581" lon="12.947562">
        <ele>835.78030587571</ele>
        <time>2025-03-30T10:17:43.229Z</time>
      </trkpt>
      <trkpt lat="46.443727" lon="12.947595">
        <ele>837.033972223849</ele>
        <time>2025-03-30T10:17:58.113Z</time>
      </trkpt>
      <trkpt lat="46.443833" lon="12.94764">
        <ele>837.716923967107</ele>
        <time>2025-03-30T10:18:09.237Z</time>
      </trkpt>
      <trkpt lat="46.443921" lon="12.947812">
        <ele>833.7967932976321</ele>
        <time>2025-03-30T10:18:24.106Z</time>
      </trkpt>
      <trkpt lat="46.444029" lon="12.948083">
        <ele>827.9396546032594</ele>
        <time>2025-03-30T10:18:45.835Z</time>
      </trkpt>
      <trkpt lat="46.44419" lon="12.948082">
        <ele>831.058937463165</ele>
        <time>2025-03-30T10:19:02.052Z</time>
      </trkpt>
      <trkpt lat="46.444264" lon="12.948108">
        <ele>831.7727981162266</ele>
        <time>2025-03-30T10:19:09.721Z</time>
      </trkpt>
      <trkpt lat="46.444544" lon="12.94816">
        <ele>837.258754746357</ele>
        <time>2025-03-30T10:19:38.155Z</time>
      </trkpt>
      <trkpt lat="46.444926" lon="12.948549">
        <ele>841.9573975516726</ele>
        <time>2025-03-30T10:20:25.161Z</time>
      </trkpt>
      <trkpt lat="46.445196" lon="12.948892">
        <ele>838.6913576364057</ele>
        <time>2025-03-30T10:21:01.306Z</time>
      </trkpt>
      <trkpt lat="46.445421" lon="12.949048">
        <ele>837.4025114763357</ele>
        <time>2025-03-30T10:21:26.424Z</time>
      </trkpt>
      <trkpt lat="46.445517" lon="12.949021">
        <ele>838.6986036927748</ele>
        <time>2025-03-30T10:21:36.274Z</time>
      </trkpt>
      <trkpt lat="46.445597" lon="12.948917">
        <ele>843.1404779602217</ele>
        <time>2025-03-30T10:21:47.092Z</time>
      </trkpt>
      <trkpt lat="46.445656" lon="12.94878">
        <ele>849.2032871507951</ele>
        <time>2025-03-30T10:21:58.305Z</time>
      </trkpt>
      <trkpt lat="46.445772" lon="12.948605">
        <ele>853.8200575013612</ele>
        <time>2025-03-30T10:22:15.159Z</time>
      </trkpt>
      <trkpt lat="46.445909" lon="12.948511">
        <ele>853.476249265443</ele>
        <time>2025-03-30T10:22:30.423Z</time>
      </trkpt>
      <trkpt lat="46.446048" lon="12.948442">
        <ele>848.7268665206485</ele>
        <time>2025-03-30T10:22:45.220Z</time>
      </trkpt>
      <trkpt lat="46.446269" lon="12.948415">
        <ele>836.1756616413846</ele>
        <time>2025-03-30T10:23:07.560Z</time>
      </trkpt>
      <trkpt lat="46.44646" lon="12.948372">
        <ele>827.8636299984207</ele>
        <time>2025-03-30T10:23:27.029Z</time>
      </trkpt>
      <trkpt lat="46.446563" lon="12.948286">
        <ele>826.7038121116818</ele>
        <time>2025-03-30T10:23:38.998Z</time>
      </trkpt>
      <trkpt lat="46.446667" lon="12.948144">
        <ele>828.9529264306931</ele>
        <time>2025-03-30T10:23:53.381Z</time>
      </trkpt>
      <trkpt lat="46.446894" lon="12.947986">
        <ele>828.2236535199528</ele>
        <time>2025-03-30T10:24:18.740Z</time>
      </trkpt>
      <trkpt lat="46.446968" lon="12.948047">
        <ele>822.9925463080006</ele>
        <time>2025-03-30T10:24:27.312Z</time>
      </trkpt>
      <trkpt lat="46.447164" lon="12.948045">
        <ele>821.54576573343</ele>
        <time>2025-03-30T10:24:47.055Z</time>
      </trkpt>
      <trkpt lat="46.447541" lon="12.948175">
        <ele>823.7505238258186</ele>
        <time>2025-03-30T10:25:26.087Z</time>
      </trkpt>
      <trkpt lat="46.44767" lon="12.948299">
        <ele>825.3183876734581</ele>
        <time>2025-03-30T10:25:41.672Z</time>
      </trkpt>
      <trkpt lat="46.448042" lon="12.948843">
        <ele>832.8155948088786</ele>
        <time>2025-03-30T10:26:34.866Z</time>
      </trkpt>
      <trkpt lat="46.448467" lon="12.949056">
        <ele>836.3457592267639</ele>
        <time>2025-03-30T10:27:20.157Z</time>
      </trkpt>
      <trkpt lat="46.448745" lon="12.949387">
        <ele>839.0277926153682</ele>
        <time>2025-03-30T10:27:56.377Z</time>
      </trkpt>
      <trkpt lat="46.448875" lon="12.949501">
        <ele>838.0230581714304</ele>
        <time>2025-03-30T10:28:11.676Z</time>
      </trkpt>
      <trkpt lat="46.449617" lon="12.949736">
        <ele>834.2459707342509</ele>
        <time>2025-03-30T10:29:28.177Z</time>
      </trkpt>
      <trkpt lat="46.450227" lon="12.949666">
        <ele>836.2232923950074</ele>
        <time>2025-03-30T10:30:29.814Z</time>
      </trkpt>
      <trkpt lat="46.450372" lon="12.949588">
        <ele>835.4335836546223</ele>
        <time>2025-03-30T10:30:45.390Z</time>
      </trkpt>
      <trkpt lat="46.450814" lon="12.94904">
        <ele>843.2578248210109</ele>
        <time>2025-03-30T10:31:43.945Z</time>
      </trkpt>
      <trkpt lat="46.451023" lon="12.948897">
        <ele>846.5422811145046</ele>
        <time>2025-03-30T10:32:07.219Z</time>
      </trkpt>
      <trkpt lat="46.451261" lon="12.948529">
        <ele>857.0709211466012</ele>
        <time>2025-03-30T10:32:42.247Z</time>
      </trkpt>
      <trkpt lat="46.451452" lon="12.94846">
        <ele>855.3138051255855</ele>
        <time>2025-03-30T10:33:02.073Z</time>
      </trkpt>
      <trkpt lat="46.452439" lon="12.948355">
        <ele>850.1540232366159</ele>
        <time>2025-03-30T10:34:41.761Z</time>
      </trkpt>
      <trkpt lat="46.452691" lon="12.948375">
        <ele>850.831563623902</ele>
        <time>2025-03-30T10:35:07.183Z</time>
      </trkpt>
      <trkpt lat="46.452763" lon="12.948436">
        <ele>850.7795343030388</ele>
        <time>2025-03-30T10:35:15.580Z</time>
      </trkpt>
      <trkpt lat="46.452823" lon="12.948576">
        <ele>852.4059108036142</ele>
        <time>2025-03-30T10:35:27.022Z</time>
      </trkpt>
      <trkpt lat="46.452869" lon="12.948637">
        <ele>853.6998182400133</ele>
        <time>2025-03-30T10:35:33.298Z</time>
      </trkpt>
      <trkpt lat="46.452965" lon="12.948676">
        <ele>854.4162731672084</ele>
        <time>2025-03-30T10:35:43.339Z</time>
      </trkpt>
      <trkpt lat="46.453191" lon="12.948504">
        <ele>852.5486448320277</ele>
        <time>2025-03-30T10:36:09.043Z</time>
      </trkpt>
      <trkpt lat="46.453239" lon="12.948479">
        <ele>852.9293672572292</ele>
        <time>2025-03-30T10:36:14.179Z</time>
      </trkpt>
      <trkpt lat="46.453274" lon="12.948481">
        <ele>853.4953196080784</ele>
        <time>2025-03-30T10:36:17.707Z</time>
      </trkpt>
      <trkpt lat="46.453308" lon="12.94854">
        <ele>854.8075228977034</ele>
        <time>2025-03-30T10:36:23.045Z</time>
      </trkpt>
      <trkpt lat="46.453309" lon="12.94859">
        <ele>855.7157994520218</ele>
        <time>2025-03-30T10:36:26.516Z</time>
      </trkpt>
      <trkpt lat="46.453268" lon="12.948801">
        <ele>858.9114210160346</ele>
        <time>2025-03-30T10:36:41.730Z</time>
      </trkpt>
      <trkpt lat="46.453277" lon="12.94891">
        <ele>862.1617111025568</ele>
        <time>2025-03-30T10:36:49.348Z</time>
      </trkpt>
      <trkpt lat="46.453332" lon="12.949004">
        <ele>866.2697387969353</ele>
        <time>2025-03-30T10:36:57.906Z</time>
      </trkpt>
      <trkpt lat="46.453512" lon="12.949138">
        <ele>873.1657669554919</ele>
        <time>2025-03-30T10:37:18.283Z</time>
      </trkpt>
      <trkpt lat="46.453718" lon="12.949222">
        <ele>878.7828702753798</ele>
        <time>2025-03-30T10:37:39.836Z</time>
      </trkpt>
      <trkpt lat="46.453741" lon="12.949275">
        <ele>881.0632041546411</ele>
        <time>2025-03-30T10:37:44.182Z</time>
      </trkpt>
      <trkpt lat="46.453739" lon="12.949334">
        <ele>883.1590006711393</ele>
        <time>2025-03-30T10:37:48.281Z</time>
      </trkpt>
      <trkpt lat="46.45371" lon="12.949404">
        <ele>884.9573282909006</ele>
        <time>2025-03-30T10:37:53.949Z</time>
      </trkpt>
      <trkpt lat="46.453655" lon="12.949463">
        <ele>885.7347416374997</ele>
        <time>2025-03-30T10:38:00.838Z</time>
      </trkpt>
      <trkpt lat="46.453561" lon="12.9495">
        <ele>885.0748810848229</ele>
        <time>2025-03-30T10:38:10.648Z</time>
      </trkpt>
      <trkpt lat="46.453387" lon="12.949474">
        <ele>881.2861842207618</ele>
        <time>2025-03-30T10:38:28.267Z</time>
      </trkpt>
      <trkpt lat="46.453273" lon="12.949493">
        <ele>880.6900079628724</ele>
        <time>2025-03-30T10:38:39.825Z</time>
      </trkpt>
      <trkpt lat="46.453234" lon="12.949529">
        <ele>881.3742545071428</ele>
        <time>2025-03-30T10:38:44.480Z</time>
      </trkpt>
      <trkpt lat="46.45314" lon="12.949765">
        <ele>887.8171153946669</ele>
        <time>2025-03-30T10:39:03.398Z</time>
      </trkpt>
      <trkpt lat="46.453067" lon="12.949915">
        <ele>891.5870750988831</ele>
        <time>2025-03-30T10:39:16.142Z</time>
      </trkpt>
      <trkpt lat="46.452954" lon="12.949996">
        <ele>893.4556947914891</ele>
        <time>2025-03-30T10:39:28.836Z</time>
      </trkpt>
      <trkpt lat="46.452882" lon="12.950098">
        <ele>896.0155529380963</ele>
        <time>2025-03-30T10:39:38.970Z</time>
      </trkpt>
      <trkpt lat="46.452802" lon="12.950143">
        <ele>897.0937330824335</ele>
        <time>2025-03-30T10:39:47.612Z</time>
      </trkpt>
      <trkpt lat="46.452655" lon="12.950161">
        <ele>897.2147684761549</ele>
        <time>2025-03-30T10:40:02.472Z</time>
      </trkpt>
      <trkpt lat="46.452454" lon="12.950121">
        <ele>894.3791810599628</ele>
        <time>2025-03-30T10:40:22.908Z</time>
      </trkpt>
      <trkpt lat="46.452321" lon="12.950182">
        <ele>894.7107549939309</ele>
        <time>2025-03-30T10:40:36.958Z</time>
      </trkpt>
      <trkpt lat="46.45230460166931" lon="12.950179100036621">
        <ele>894.3943039828915</ele>
        <time>2025-03-30T10:40:37.000Z</time>
      </trkpt>
      <trkpt lat="46.45228159427643" lon="12.950188636779785">
        <ele>894.384258990316</ele>
        <time>2025-03-30T10:40:40.000Z</time>
      </trkpt>
      <trkpt lat="46.45225512981415" lon="12.950156450271606">
        <ele>892.931477184967</ele>
        <time>2025-03-30T10:40:45.000Z</time>
      </trkpt>
      <trkpt lat="46.45222520828247" lon="12.950199961662292">
        <ele>893.896756797456</ele>
        <time>2025-03-30T10:40:52.000Z</time>
      </trkpt>
      <trkpt lat="46.4522203207016" lon="12.950300455093384">
        <ele>897.005859072135</ele>
        <time>2025-03-30T10:40:55.000Z</time>
      </trkpt>
      <trkpt lat="46.452189922332764" lon="12.950397849082947">
        <ele>899.6165228794291</ele>
        <time>2025-03-30T10:41:05.000Z</time>
      </trkpt>
      <trkpt lat="46.45219051837921" lon="12.950441360473633">
        <ele>901.0634041076186</ele>
        <time>2025-03-30T10:41:06.000Z</time>
      </trkpt>
      <trkpt lat="46.45220124721527" lon="12.950490117073059">
        <ele>902.8797957618737</ele>
        <time>2025-03-30T10:41:12.000Z</time>
      </trkpt>
      <trkpt lat="46.45223593711853" lon="12.95052695274353">
        <ele>904.7613428271529</ele>
        <time>2025-03-30T10:41:17.000Z</time>
      </trkpt>
      <trkpt lat="46.45224916934967" lon="12.950527667999268">
        <ele>905.0232709398016</ele>
        <time>2025-03-30T10:41:19.000Z</time>
      </trkpt>
      <trkpt lat="46.45227754116058" lon="12.950567245483398">
        <ele>906.9498135856453</ele>
        <time>2025-03-30T10:41:25.000Z</time>
      </trkpt>
      <trkpt lat="46.45234155654907" lon="12.950597167015076">
        <ele>909.0942062302493</ele>
        <time>2025-03-30T10:41:33.000Z</time>
      </trkpt>
      <trkpt lat="46.45235764980316" lon="12.950639128684998">
        <ele>910.7933753243435</ele>
        <time>2025-03-30T10:41:37.000Z</time>
      </trkpt>
      <trkpt lat="46.45234203338623" lon="12.950697302818298">
        <ele>912.6539380835865</ele>
        <time>2025-03-30T10:41:42.000Z</time>
      </trkpt>
      <trkpt lat="46.45234513282776" lon="12.950732111930847">
        <ele>913.9655152562668</ele>
        <time>2025-03-30T10:41:45.000Z</time>
      </trkpt>
      <trkpt lat="46.45240902900696" lon="12.950821876525879">
        <ele>917.5771787449811</ele>
        <time>2025-03-30T10:41:53.000Z</time>
      </trkpt>
      <trkpt lat="46.452409744262695" lon="12.950839519500732">
        <ele>918.0828124213529</ele>
        <time>2025-03-30T10:41:55.000Z</time>
      </trkpt>
      <trkpt lat="46.45237994194031" lon="12.95084810256958">
        <ele>917.8677516507455</ele>
        <time>2025-03-30T10:42:00.000Z</time>
      </trkpt>
      <trkpt lat="46.45234763622284" lon="12.950835943222046">
        <ele>917.0360666920201</ele>
        <time>2025-03-30T10:42:03.000Z</time>
      </trkpt>
      <trkpt lat="46.45231914520264" lon="12.950729131698608">
        <ele>913.3775938959075</ele>
        <time>2025-03-30T10:42:09.000Z</time>
      </trkpt>
      <trkpt lat="46.45227122306824" lon="12.95067024230957">
        <ele>910.4589763439727</ele>
        <time>2025-03-30T10:42:15.000Z</time>
      </trkpt>
      <trkpt lat="46.45224988460541" lon="12.950663566589355">
        <ele>909.8647924957331</ele>
        <time>2025-03-30T10:42:19.000Z</time>
      </trkpt>
      <trkpt lat="46.45216727256775" lon="12.950666069984436">
        <ele>908.4455854482032</ele>
        <time>2025-03-30T10:42:27.000Z</time>
      </trkpt>
      <trkpt lat="46.45206308364868" lon="12.950737237930298">
        <ele>907.6726260704642</ele>
        <time>2025-03-30T10:42:36.000Z</time>
      </trkpt>
      <trkpt lat="46.45202589035034" lon="12.95084273815155">
        <ele>908.7913221759732</ele>
        <time>2025-03-30T10:42:46.000Z</time>
      </trkpt>
      <trkpt lat="46.45198309421539" lon="12.951056361198425">
        <ele>912.0530515980981</ele>
        <time>2025-03-30T10:43:01.000Z</time>
      </trkpt>
      <trkpt lat="46.451964139938354" lon="12.95107901096344">
        <ele>911.7007294936851</ele>
        <time>2025-03-30T10:43:04.000Z</time>
      </trkpt>
      <trkpt lat="46.45198404788971" lon="12.951208472251892">
        <ele>914.616950448021</ele>
        <time>2025-03-30T10:43:14.000Z</time>
      </trkpt>
      <trkpt lat="46.45197534561157" lon="12.951221704483032">
        <ele>914.4200304127771</ele>
        <time>2025-03-30T10:43:15.000Z</time>
      </trkpt>
      <trkpt lat="46.45198464393616" lon="12.951336026191711">
        <ele>916.6759876023162</ele>
        <time>2025-03-30T10:43:23.000Z</time>
      </trkpt>
      <trkpt lat="46.45196878910065" lon="12.951374292373657">
        <ele>916.504441599827</ele>
        <time>2025-03-30T10:43:27.000Z</time>
      </trkpt>
      <trkpt lat="46.45212471485138" lon="12.951704025268555">
        <ele>926.6840414871454</ele>
        <time>2025-03-30T10:43:58.000Z</time>
      </trkpt>
      <trkpt lat="46.45211946964264" lon="12.951749920845032">
        <ele>926.922637876656</ele>
        <time>2025-03-30T10:44:01.000Z</time>
      </trkpt>
      <trkpt lat="46.45213484764099" lon="12.95182466506958">
        <ele>928.220239106799</ele>
        <time>2025-03-30T10:44:07.000Z</time>
      </trkpt>
      <trkpt lat="46.45219027996063" lon="12.951922416687012">
        <ele>931.28143058506</ele>
        <time>2025-03-30T10:44:15.000Z</time>
      </trkpt>
      <trkpt lat="46.452229380607605" lon="12.951958060264587">
        <ele>933.1670786090208</ele>
        <time>2025-03-30T10:44:20.000Z</time>
      </trkpt>
      <trkpt lat="46.45224213600159" lon="12.952154517173767">
        <ele>935.9808889040878</ele>
        <time>2025-03-30T10:44:37.000Z</time>
      </trkpt>
      <trkpt lat="46.45226800441742" lon="12.952261924743652">
        <ele>938.2914952062386</ele>
        <time>2025-03-30T10:44:42.000Z</time>
      </trkpt>
      <trkpt lat="46.45233225822449" lon="12.952370524406433">
        <ele>941.8264980250335</ele>
        <time>2025-03-30T10:44:50.000Z</time>
      </trkpt>
      <trkpt lat="46.452351093292236" lon="12.952427387237549">
        <ele>942.8749962031621</ele>
        <time>2025-03-30T10:44:54.000Z</time>
      </trkpt>
      <trkpt lat="46.45235550403595" lon="12.95248568058014">
        <ele>943.4518527842517</ele>
        <time>2025-03-30T10:44:58.000Z</time>
      </trkpt>
      <trkpt lat="46.45246148109436" lon="12.952776312828064">
        <ele>948.7376700960848</ele>
        <time>2025-03-30T10:45:18.000Z</time>
      </trkpt>
      <trkpt lat="46.45245587825775" lon="12.952838897705078">
        <ele>949.2324743320706</ele>
        <time>2025-03-30T10:45:23.000Z</time>
      </trkpt>
      <trkpt lat="46.4524872303009" lon="12.952892899513245">
        <ele>950.5887000889621</ele>
        <time>2025-03-30T10:45:27.000Z</time>
      </trkpt>
      <trkpt lat="46.45249116420746" lon="12.952991008758545">
        <ele>951.6937692439838</ele>
        <time>2025-03-30T10:45:33.000Z</time>
      </trkpt>
      <trkpt lat="46.45248281955719" lon="12.953049182891846">
        <ele>952.1573850353487</ele>
        <time>2025-03-30T10:45:36.000Z</time>
      </trkpt>
      <trkpt lat="46.45255661010742" lon="12.953178524971008">
        <ele>955.4769974082716</ele>
        <time>2025-03-30T10:45:46.000Z</time>
      </trkpt>
      <trkpt lat="46.452619433403015" lon="12.953262090682983">
        <ele>957.7000122672418</ele>
        <time>2025-03-30T10:45:53.000Z</time>
      </trkpt>
      <trkpt lat="46.4526401758194" lon="12.953343987464905">
        <ele>959.1413395122465</ele>
        <time>2025-03-30T10:45:59.000Z</time>
      </trkpt>
      <trkpt lat="46.45266819000244" lon="12.953400254249573">
        <ele>960.3645181561327</ele>
        <time>2025-03-30T10:46:03.000Z</time>
      </trkpt>
      <trkpt lat="46.45280194282532" lon="12.953542232513428">
        <ele>964.3370762391725</ele>
        <time>2025-03-30T10:46:19.676Z</time>
      </trkpt>
      <trkpt lat="46.452814" lon="12.953551">
        <ele>964.6023835642276</ele>
        <time>2025-03-30T10:46:21.033Z</time>
      </trkpt>
      <trkpt lat="46.452811" lon="12.95356">
        <ele>964.692699640944</ele>
        <time>2025-03-30T10:46:21.726Z</time>
      </trkpt>
      <trkpt lat="46.452828" lon="12.953686">
        <ele>966.6307208347965</ele>
        <time>2025-03-30T10:46:30.628Z</time>
      </trkpt>
      <trkpt lat="46.452917" lon="12.953869">
        <ele>969.862602803512</ele>
        <time>2025-03-30T10:46:46.159Z</time>
      </trkpt>
      <trkpt lat="46.453024" lon="12.954015">
        <ele>972.2233324345815</ele>
        <time>2025-03-30T10:47:00.938Z</time>
      </trkpt>
      <trkpt lat="46.453419" lon="12.954411">
        <ele>978.5014478290292</ele>
        <time>2025-03-30T10:47:49.252Z</time>
      </trkpt>
      <trkpt lat="46.453484" lon="12.954546">
        <ele>981.0693758061316</ele>
        <time>2025-03-30T10:48:00.671Z</time>
      </trkpt>
      <trkpt lat="46.453556" lon="12.954726">
        <ele>985.7023842993349</ele>
        <time>2025-03-30T10:48:15.102Z</time>
      </trkpt>
      <trkpt lat="46.453633" lon="12.954841">
        <ele>989.2436884050425</ele>
        <time>2025-03-30T10:48:26.221Z</time>
      </trkpt>
      <trkpt lat="46.453924" lon="12.95522">
        <ele>1003.1168500637871</ele>
        <time>2025-03-30T10:49:05.569Z</time>
      </trkpt>
      <trkpt lat="46.454071" lon="12.955487">
        <ele>1011.6761697925637</ele>
        <time>2025-03-30T10:49:29.266Z</time>
      </trkpt>
      <trkpt lat="46.454104" lon="12.955575">
        <ele>1013.9193925806547</ele>
        <time>2025-03-30T10:49:36.225Z</time>
      </trkpt>
      <trkpt lat="46.454125" lon="12.955628">
        <ele>1015.1902526307564</ele>
        <time>2025-03-30T10:49:40.471Z</time>
      </trkpt>
      <trkpt lat="46.454162" lon="12.95563">
        <ele>1015.9024278666276</ele>
        <time>2025-03-30T10:49:44.203Z</time>
      </trkpt>
      <trkpt lat="46.454291" lon="12.955486">
        <ele>1016.2736783154846</ele>
        <time>2025-03-30T10:50:00.609Z</time>
      </trkpt>
      <trkpt lat="46.454321" lon="12.955473">
        <ele>1016.7395102638121</ele>
        <time>2025-03-30T10:50:03.765Z</time>
      </trkpt>
      <trkpt lat="46.454379" lon="12.954943">
        <ele>1012.2328214896107</ele>
        <time>2025-03-30T10:50:41.039Z</time>
      </trkpt>
      <trkpt lat="46.454388" lon="12.954863">
        <ele>1012.2624089477174</ele>
        <time>2025-03-30T10:50:46.669Z</time>
      </trkpt>
      <trkpt lat="46.45441" lon="12.95482">
        <ele>1013.2430743673586</ele>
        <time>2025-03-30T10:50:50.389Z</time>
      </trkpt>
      <trkpt lat="46.454502" lon="12.954711">
        <ele>1017.9999299670467</ele>
        <time>2025-03-30T10:51:02.361Z</time>
      </trkpt>
      <trkpt lat="46.454572" lon="12.954654">
        <ele>1021.7619734584359</ele>
        <time>2025-03-30T10:51:10.453Z</time>
      </trkpt>
      <trkpt lat="46.454657" lon="12.954514">
        <ele>1025.523848786328</ele>
        <time>2025-03-30T10:51:23.414Z</time>
      </trkpt>
      <trkpt lat="46.454709" lon="12.954369">
        <ele>1027.7505706837874</ele>
        <time>2025-03-30T10:51:34.768Z</time>
      </trkpt>
      <trkpt lat="46.454746" lon="12.954332">
        <ele>1029.628008189891</ele>
        <time>2025-03-30T10:51:39.297Z</time>
      </trkpt>
      <trkpt lat="46.454768" lon="12.954091">
        <ele>1030.3328412342153</ele>
        <time>2025-03-30T10:51:56.182Z</time>
      </trkpt>
      <trkpt lat="46.454776" lon="12.953913">
        <ele>1031.5568594518172</ele>
        <time>2025-03-30T10:52:08.571Z</time>
      </trkpt>
      <trkpt lat="46.454768" lon="12.95364">
        <ele>1034.2246965738016</ele>
        <time>2025-03-30T10:52:27.550Z</time>
      </trkpt>
      <trkpt lat="46.454938" lon="12.953677">
        <ele>1046.6684695363513</ele>
        <time>2025-03-30T10:52:44.881Z</time>
      </trkpt>
      <trkpt lat="46.454968" lon="12.953543">
        <ele>1048.0638129835083</ele>
        <time>2025-03-30T10:52:54.667Z</time>
      </trkpt>
      <trkpt lat="46.45492" lon="12.953441">
        <ele>1044.1132227430085</ele>
        <time>2025-03-30T10:53:03.246Z</time>
      </trkpt>
      <trkpt lat="46.454942" lon="12.953399">
        <ele>1045.221100121793</ele>
        <time>2025-03-30T10:53:06.910Z</time>
      </trkpt>
      <trkpt lat="46.45492" lon="12.953334">
        <ele>1043.2810110086375</ele>
        <time>2025-03-30T10:53:11.940Z</time>
      </trkpt>
      <trkpt lat="46.454953" lon="12.953329">
        <ele>1045.2508767381275</ele>
        <time>2025-03-30T10:53:15.285Z</time>
      </trkpt>
      <trkpt lat="46.455053" lon="12.953066">
        <ele>1048.6326018813309</ele>
        <time>2025-03-30T10:53:36.149Z</time>
      </trkpt>
      <trkpt lat="46.45509" lon="12.953114">
        <ele>1051.3542494158194</ele>
        <time>2025-03-30T10:53:41.152Z</time>
      </trkpt>
      <trkpt lat="46.45516" lon="12.953002">
        <ele>1054.2370912389374</ele>
        <time>2025-03-30T10:53:51.655Z</time>
      </trkpt>
      <trkpt lat="46.455245" lon="12.952776">
        <ele>1056.8528431652562</ele>
        <time>2025-03-30T10:54:09.539Z</time>
      </trkpt>
      <trkpt lat="46.45523" lon="12.952508">
        <ele>1053.3526269566485</ele>
        <time>2025-03-30T10:54:28.214Z</time>
      </trkpt>
      <trkpt lat="46.45526" lon="12.952487">
        <ele>1054.9346999431866</ele>
        <time>2025-03-30T10:54:31.571Z</time>
      </trkpt>
      <trkpt lat="46.455319" lon="12.952347">
        <ele>1056.856737769428</ele>
        <time>2025-03-30T10:54:42.970Z</time>
      </trkpt>
      <trkpt lat="46.455489" lon="12.95202">
        <ele>1061.993122220332</ele>
        <time>2025-03-30T10:55:11.423Z</time>
      </trkpt>
      <trkpt lat="46.455522" lon="12.951939">
        <ele>1061.5590754496916</ele>
        <time>2025-03-30T10:55:17.959Z</time>
      </trkpt>
      <trkpt lat="46.455585" lon="12.95188">
        <ele>1064.548389136386</ele>
        <time>2025-03-30T10:55:25.517Z</time>
      </trkpt>
      <trkpt lat="46.455689" lon="12.951864">
        <ele>1071.7770668324933</ele>
        <time>2025-03-30T10:55:36.061Z</time>
      </trkpt>
      <trkpt lat="46.455888" lon="12.951859">
        <ele>1081.6623625306204</ele>
        <time>2025-03-30T10:55:56.127Z</time>
      </trkpt>
      <trkpt lat="46.456272" lon="12.951875">
        <ele>1098.8485864905492</ele>
        <time>2025-03-30T10:56:34.857Z</time>
      </trkpt>
      <trkpt lat="46.456413" lon="12.951811">
        <ele>1100.89652282172</ele>
        <time>2025-03-30T10:56:49.751Z</time>
      </trkpt>
      <trkpt lat="46.456677" lon="12.951774">
        <ele>1104.125703362795</ele>
        <time>2025-03-30T10:57:16.491Z</time>
      </trkpt>
      <trkpt lat="46.45668" lon="12.951772">
        <ele>1104.0699290262075</ele>
        <time>2025-03-30T10:57:16.823Z</time>
      </trkpt>
      <trkpt lat="46.456953" lon="12.951644">
        <ele>1101.490531459373</ele>
        <time>2025-03-30T10:57:45.746Z</time>
      </trkpt>
      <trkpt lat="46.457054" lon="12.951587">
        <ele>1100.6708236603079</ele>
        <time>2025-03-30T10:57:56.671Z</time>
      </trkpt>
      <trkpt lat="46.457205" lon="12.951531">
        <ele>1101.45623463781</ele>
        <time>2025-03-30T10:58:12.383Z</time>
      </trkpt>
      <trkpt lat="46.457297" lon="12.951483">
        <ele>1101.4642607409069</ele>
        <time>2025-03-30T10:58:22.239Z</time>
      </trkpt>
      <trkpt lat="46.457433" lon="12.951399">
        <ele>1100.9056675583267</ele>
        <time>2025-03-30T10:58:37.140Z</time>
      </trkpt>
      <trkpt lat="46.457638" lon="12.951233">
        <ele>1099.9357640070853</ele>
        <time>2025-03-30T10:59:00.806Z</time>
      </trkpt>
      <trkpt lat="46.457908" lon="12.951056">
        <ele>1101.5735076709655</ele>
        <time>2025-03-30T10:59:30.674Z</time>
      </trkpt>
      <trkpt lat="46.458049" lon="12.950944">
        <ele>1104.3935761562589</ele>
        <time>2025-03-30T10:59:46.878Z</time>
      </trkpt>
      <trkpt lat="46.458178" lon="12.950781">
        <ele>1105.917471605139</ele>
        <time>2025-03-30T11:00:04.120Z</time>
      </trkpt>
      <trkpt lat="46.458317" lon="12.950565">
        <ele>1109.4309859157074</ele>
        <time>2025-03-30T11:00:24.649Z</time>
      </trkpt>
      <trkpt lat="46.458571" lon="12.949888">
        <ele>1115.0445286515023</ele>
        <time>2025-03-30T11:01:18.189Z</time>
      </trkpt>
      <trkpt lat="46.458646" lon="12.949739">
        <ele>1116.4859839302026</ele>
        <time>2025-03-30T11:01:31.005Z</time>
      </trkpt>
      <trkpt lat="46.45876" lon="12.949588">
        <ele>1118.9316146671972</ele>
        <time>2025-03-30T11:01:46.563Z</time>
      </trkpt>
      <trkpt lat="46.458876" lon="12.949463">
        <ele>1121.0996307963574</ele>
        <time>2025-03-30T11:02:01.128Z</time>
      </trkpt>
      <trkpt lat="46.458965" lon="12.949413">
        <ele>1122.9588764808632</ele>
        <time>2025-03-30T11:02:10.749Z</time>
      </trkpt>
      <trkpt lat="46.459017" lon="12.949411">
        <ele>1124.7125026157717</ele>
        <time>2025-03-30T11:02:15.993Z</time>
      </trkpt>
      <trkpt lat="46.459059" lon="12.949445">
        <ele>1127.0438614113596</ele>
        <time>2025-03-30T11:02:20.841Z</time>
      </trkpt>
      <trkpt lat="46.459131" lon="12.949727">
        <ele>1136.4548996755107</ele>
        <time>2025-03-30T11:02:41.728Z</time>
      </trkpt>
      <trkpt lat="46.459228" lon="12.949794">
        <ele>1141.3559933977072</ele>
        <time>2025-03-30T11:02:52.558Z</time>
      </trkpt>
      <trkpt lat="46.459281" lon="12.949831">
        <ele>1143.7555309538739</ele>
        <time>2025-03-30T11:02:58.487Z</time>
      </trkpt>
      <trkpt lat="46.459391" lon="12.949895">
        <ele>1147.6525654322331</ele>
        <time>2025-03-30T11:03:10.434Z</time>
      </trkpt>
      <trkpt lat="46.459511" lon="12.949898">
        <ele>1150.1286682103785</ele>
        <time>2025-03-30T11:03:22.534Z</time>
      </trkpt>
      <trkpt lat="46.459647" lon="12.949885">
        <ele>1152.1654038812967</ele>
        <time>2025-03-30T11:03:36.275Z</time>
      </trkpt>
      <trkpt lat="46.459773" lon="12.949939">
        <ele>1155.6012780910028</ele>
        <time>2025-03-30T11:03:49.520Z</time>
      </trkpt>
      <trkpt lat="46.459885" lon="12.949947">
        <ele>1157.68056516948</ele>
        <time>2025-03-30T11:04:00.825Z</time>
      </trkpt>
      <trkpt lat="46.459972" lon="12.949939">
        <ele>1158.68322180226</ele>
        <time>2025-03-30T11:04:09.613Z</time>
      </trkpt>
      <trkpt lat="46.460095" lon="12.949952">
        <ele>1160.5702877469373</ele>
        <time>2025-03-30T11:04:22.046Z</time>
      </trkpt>
      <trkpt lat="46.460188" lon="12.950021">
        <ele>1162.752365218685</ele>
        <time>2025-03-30T11:04:32.575Z</time>
      </trkpt>
      <trkpt lat="46.460326" lon="12.950054">
        <ele>1161.7838920760373</ele>
        <time>2025-03-30T11:04:46.675Z</time>
      </trkpt>
      <trkpt lat="46.460418" lon="12.950065">
        <ele>1160.9830177165113</ele>
        <time>2025-03-30T11:04:55.981Z</time>
      </trkpt>
      <trkpt lat="46.460963" lon="12.9504">
        <ele>1162.956755057143</ele>
        <time>2025-03-30T11:05:55.650Z</time>
      </trkpt>
      <trkpt lat="46.461048" lon="12.950503">
        <ele>1163.9255905910982</ele>
        <time>2025-03-30T11:06:06.812Z</time>
      </trkpt>
      <trkpt lat="46.461153" lon="12.95042">
        <ele>1164.1280980913223</ele>
        <time>2025-03-30T11:06:18.865Z</time>
      </trkpt>
      <trkpt lat="46.461179" lon="12.950145">
        <ele>1163.5788647470804</ele>
        <time>2025-03-30T11:06:38.142Z</time>
      </trkpt>
      <trkpt lat="46.461191" lon="12.949741">
        <ele>1162.0608408336532</ele>
        <time>2025-03-30T11:07:06.225Z</time>
      </trkpt>
      <trkpt lat="46.461356" lon="12.949729">
        <ele>1165.256644476578</ele>
        <time>2025-03-30T11:07:22.881Z</time>
      </trkpt>
      <trkpt lat="46.461549" lon="12.950041">
        <ele>1170.0100945370282</ele>
        <time>2025-03-30T11:07:52.003Z</time>
      </trkpt>
      <trkpt lat="46.461687" lon="12.950196">
        <ele>1171.311976806611</ele>
        <time>2025-03-30T11:08:09.594Z</time>
      </trkpt>
      <trkpt lat="46.461831" lon="12.950262">
        <ele>1169.7654951543327</ele>
        <time>2025-03-30T11:08:24.818Z</time>
      </trkpt>
      <trkpt lat="46.462102" lon="12.950457">
        <ele>1167.3077986202213</ele>
        <time>2025-03-30T11:08:55.311Z</time>
      </trkpt>
      <trkpt lat="46.462387" lon="12.950662">
        <ele>1168.92546578864</ele>
        <time>2025-03-30T11:09:27.377Z</time>
      </trkpt>
      <trkpt lat="46.462657" lon="12.950909">
        <ele>1179.1241455122376</ele>
        <time>2025-03-30T11:09:59.551Z</time>
      </trkpt>
      <trkpt lat="46.462923" lon="12.951316">
        <ele>1184.8965474112147</ele>
        <time>2025-03-30T11:10:38.513Z</time>
      </trkpt>
      <trkpt lat="46.463128" lon="12.951643">
        <ele>1185.1041151019979</ele>
        <time>2025-03-30T11:11:09.218Z</time>
      </trkpt>
      <trkpt lat="46.463231" lon="12.951822">
        <ele>1184.9756158135376</ele>
        <time>2025-03-30T11:11:25.415Z</time>
      </trkpt>
      <trkpt lat="46.463288" lon="12.952059">
        <ele>1184.529188194895</ele>
        <time>2025-03-30T11:11:42.848Z</time>
      </trkpt>
      <trkpt lat="46.463309" lon="12.952321">
        <ele>1183.8486501308282</ele>
        <time>2025-03-30T11:12:01.165Z</time>
      </trkpt>
      <trkpt lat="46.463338" lon="12.952486">
        <ele>1183.7450270214597</ele>
        <time>2025-03-30T11:12:12.990Z</time>
      </trkpt>
      <trkpt lat="46.463468" lon="12.952308">
        <ele>1185.4487955381535</ele>
        <time>2025-03-30T11:12:31.006Z</time>
      </trkpt>
      <trkpt lat="46.463504" lon="12.952261">
        <ele>1185.734724658194</ele>
        <time>2025-03-30T11:12:35.887Z</time>
      </trkpt>
      <trkpt lat="46.463619" lon="12.952288">
        <ele>1186.84407959544</ele>
        <time>2025-03-30T11:12:47.631Z</time>
      </trkpt>
      <trkpt lat="46.463741" lon="12.952369">
        <ele>1187.6251112963907</ele>
        <time>2025-03-30T11:13:01.156Z</time>
      </trkpt>
      <trkpt lat="46.463807" lon="12.952551">
        <ele>1187.879205530223</ele>
        <time>2025-03-30T11:13:15.439Z</time>
      </trkpt>
      <trkpt lat="46.463889" lon="12.952605">
        <ele>1187.9079773599751</ele>
        <time>2025-03-30T11:13:24.516Z</time>
      </trkpt>
      <trkpt lat="46.463985" lon="12.952723">
        <ele>1187.3902333068627</ele>
        <time>2025-03-30T11:13:37.197Z</time>
      </trkpt>
      <trkpt lat="46.464014" lon="12.952808">
        <ele>1187.4209490900616</ele>
        <time>2025-03-30T11:13:43.784Z</time>
      </trkpt>
      <trkpt lat="46.464184" lon="12.952819">
        <ele>1183.7908426568845</ele>
        <time>2025-03-30T11:14:00.940Z</time>
      </trkpt>
      <trkpt lat="46.464317" lon="12.952948">
        <ele>1180.6452950947462</ele>
        <time>2025-03-30T11:14:17.066Z</time>
      </trkpt>
      <trkpt lat="46.46445" lon="12.952991">
        <ele>1176.6948445247726</ele>
        <time>2025-03-30T11:14:30.803Z</time>
      </trkpt>
      <trkpt lat="46.464524" lon="12.953098">
        <ele>1176.0977234463414</ele>
        <time>2025-03-30T11:14:41.332Z</time>
      </trkpt>
      <trkpt lat="46.46455" lon="12.953295">
        <ele>1179.7426706868232</ele>
        <time>2025-03-30T11:14:55.261Z</time>
      </trkpt>
      <trkpt lat="46.464665" lon="12.953313">
        <ele>1176.268562518302</ele>
        <time>2025-03-30T11:15:06.922Z</time>
      </trkpt>
      <trkpt lat="46.46479" lon="12.953399">
        <ele>1173.9867875552281</ele>
        <time>2025-03-30T11:15:20.867Z</time>
      </trkpt>
      <trkpt lat="46.464908" lon="12.953495">
        <ele>1173.9722898784994</ele>
        <time>2025-03-30T11:15:34.504Z</time>
      </trkpt>
      <trkpt lat="46.465004" lon="12.953554">
        <ele>1173.6670517340308</ele>
        <time>2025-03-30T11:15:45.014Z</time>
      </trkpt>
      <trkpt lat="46.465174" lon="12.953517">
        <ele>1169.1144299943476</ele>
        <time>2025-03-30T11:16:02.344Z</time>
      </trkpt>
      <trkpt lat="46.465477" lon="12.953559">
        <ele>1164.8952138551583</ele>
        <time>2025-03-30T11:16:33.030Z</time>
      </trkpt>
      <trkpt lat="46.46564" lon="12.953527">
        <ele>1162.333336706367</ele>
        <time>2025-03-30T11:16:49.613Z</time>
      </trkpt>
      <trkpt lat="46.46581" lon="12.953463">
        <ele>1159.1997420523405</ele>
        <time>2025-03-30T11:17:07.319Z</time>
      </trkpt>
      <trkpt lat="46.465958" lon="12.953463">
        <ele>1158.536455604994</ele>
        <time>2025-03-30T11:17:22.240Z</time>
      </trkpt>
      <trkpt lat="46.466207" lon="12.953618">
        <ele>1161.5219510525367</ele>
        <time>2025-03-30T11:17:49.554Z</time>
      </trkpt>
      <trkpt lat="46.466298" lon="12.953828">
        <ele>1166.2282670256166</ele>
        <time>2025-03-30T11:18:06.782Z</time>
      </trkpt>
      <trkpt lat="46.466423" lon="12.953913">
        <ele>1166.1832143934876</ele>
        <time>2025-03-30T11:18:20.698Z</time>
      </trkpt>
      <trkpt lat="46.466482" lon="12.954031">
        <ele>1167.6874711277435</ele>
        <time>2025-03-30T11:18:30.823Z</time>
      </trkpt>
      <trkpt lat="46.466638" lon="12.954128">
        <ele>1166.8290162934375</ele>
        <time>2025-03-30T11:18:47.932Z</time>
      </trkpt>
      <trkpt lat="46.4668" lon="12.954117">
        <ele>1164.9466986506018</ele>
        <time>2025-03-30T11:19:04.282Z</time>
      </trkpt>
      <trkpt lat="46.467044" lon="12.95416">
        <ele>1161.898473910755</ele>
        <time>2025-03-30T11:19:29.062Z</time>
      </trkpt>
      <trkpt lat="46.467199" lon="12.954257">
        <ele>1159.666451006365</ele>
        <time>2025-03-30T11:19:46.078Z</time>
      </trkpt>
      <trkpt lat="46.467273" lon="12.954407">
        <ele>1160.886683053048</ele>
        <time>2025-03-30T11:19:58.890Z</time>
      </trkpt>
      <trkpt lat="46.467391" lon="12.954439">
        <ele>1159.6796020428737</ele>
        <time>2025-03-30T11:20:10.992Z</time>
      </trkpt>
      <trkpt lat="46.467524" lon="12.954407">
        <ele>1156.7478352588387</ele>
        <time>2025-03-30T11:20:24.583Z</time>
      </trkpt>
      <trkpt lat="46.467635" lon="12.954461">
        <ele>1156.2904205100451</ele>
        <time>2025-03-30T11:20:36.385Z</time>
      </trkpt>
      <trkpt lat="46.46785" lon="12.954461">
        <ele>1153.345263888119</ele>
        <time>2025-03-30T11:20:58.061Z</time>
      </trkpt>
      <trkpt lat="46.467931" lon="12.954536">
        <ele>1154.9778855250486</ele>
        <time>2025-03-30T11:21:07.746Z</time>
      </trkpt>
      <trkpt lat="46.468263" lon="12.954493">
        <ele>1151.7238944100222</ele>
        <time>2025-03-30T11:21:41.350Z</time>
      </trkpt>
      <trkpt lat="46.468441" lon="12.954514">
        <ele>1150.1020460054208</ele>
        <time>2025-03-30T11:21:59.354Z</time>
      </trkpt>
      <trkpt lat="46.468515" lon="12.954568">
        <ele>1151.1167155255575</ele>
        <time>2025-03-30T11:22:07.703Z</time>
      </trkpt>
      <trkpt lat="46.468662" lon="12.95475">
        <ele>1154.9809091422765</ele>
        <time>2025-03-30T11:22:27.180Z</time>
      </trkpt>
      <trkpt lat="46.46881" lon="12.955072">
        <ele>1160.0819232759354</ele>
        <time>2025-03-30T11:22:54.060Z</time>
      </trkpt>
      <trkpt lat="46.468899" lon="12.955158">
        <ele>1159.950583440096</ele>
        <time>2025-03-30T11:23:04.838Z</time>
      </trkpt>
      <trkpt lat="46.468967" lon="12.95528">
        <ele>1161.2051460203652</ele>
        <time>2025-03-30T11:23:15.736Z</time>
      </trkpt>
      <trkpt lat="46.469182" lon="12.955369">
        <ele>1161.1313916548538</ele>
        <time>2025-03-30T11:23:38.275Z</time>
      </trkpt>
      <trkpt lat="46.469344" lon="12.955307">
        <ele>1160.4195753170186</ele>
        <time>2025-03-30T11:23:55.165Z</time>
      </trkpt>
      <trkpt lat="46.469478" lon="12.955212">
        <ele>1159.8371482772764</ele>
        <time>2025-03-30T11:24:10.199Z</time>
      </trkpt>
      <trkpt lat="46.469676" lon="12.955127">
        <ele>1159.4760457410641</ele>
        <time>2025-03-30T11:24:31.015Z</time>
      </trkpt>
      <trkpt lat="46.469791" lon="12.955171">
        <ele>1161.8714070878896</ele>
        <time>2025-03-30T11:24:43.004Z</time>
      </trkpt>
      <trkpt lat="46.469798" lon="12.955174">
        <ele>1162.042294376326</ele>
        <time>2025-03-30T11:24:43.739Z</time>
      </trkpt>
    </trkseg>
  </trk>
</gpx>
