<?xml version="1.0" encoding="UTF-8"?>
<gpx creator="OziExplorer Version 3956f - http://www.oziexplorer.com" version="1.1" schemaLocation="http://www.topografix.com/GPX/1/1 http://www.topografix.com/GPX/1/1/gpx.xsd http://www.garmin.com/xmlschemas/GpxExtensions/v3 http://www.garmin.com/xmlschemas/GpxExtensionsv3.xsd http://www.garmin.com/xmlschemas/TrackPointExtension/v1 http://www.garmin.com/xmlschemas/TrackPointExtensionv1.xsd http://www.garmin.com/xmlschemas/PowerExtension/v1 http://www.garmin.com/xmlschemas/PowerExtensionv1.xsd http://www.topografix.com/GPX/gpx_style/0/2 http://www.topografix.com/GPX/gpx_style/0/2/gpx_style.xsd" xmlns="http://www.topografix.com/GPX/1/1" xmlns:xsi="http://www.w3.org/2001/XMLSchema-instance" xsi:schemaLocation="http://www.topografix.com/GPX/1/1 http://www.topografix.com/GPX/1/1/gpx.xsd http://www.garmin.com/xmlschemas/GpxExtensions/v3 http://www.garmin.com/xmlschemas/GpxExtensionsv3.xsd http://www.garmin.com/xmlschemas/TrackPointExtension/v1 http://www.garmin.com/xmlschemas/TrackPointExtensionv1.xsd http://www.garmin.com/xmlschemas/PowerExtension/v1 http://www.garmin.com/xmlschemas/PowerExtensionv1.xsd http://www.topografix.com/GPX/gpx_style/0/2 http://www.topografix.com/GPX/gpx_style/0/2/gpx_style.xsd" xmlns:gpxtpx="http://www.garmin.com/xmlschemas/TrackPointExtension/v1" xmlns:gpxx="http://www.garmin.com/xmlschemas/GpxExtensions/v3" xmlns:gpxpx="http://www.garmin.com/xmlschemas/PowerExtension/v1" xmlns:gpx_style="http://www.topografix.com/GPX/gpx_style/0/2">
  <metadata>
    <name>LAUCO_#_13</name>
    <author>
      <name>gpx.studio</name>
      <link href="https://gpx.studio"/>
    </author>
    <time>2024-05-04T14:59:49.000Z</time>
  </metadata>
  <trk>
    <name>LAUCO_#_13</name>
    <desc>FORNAS-BUTTEA</desc>
    <trkseg>
      <trkpt lat="46.44051516056061" lon="12.963561534881592">
        <ele>997.1488196194247</ele>
        <time>2024-04-29T15:07:21.000Z</time>
      </trkpt>
      <trkpt lat="46.44054341316223" lon="12.963567733764648">
        <ele>998.0114870362456</ele>
        <time>2024-04-29T15:07:23.000Z</time>
      </trkpt>
      <trkpt lat="46.44055676460266" lon="12.963576078414917">
        <ele>998.3008083768198</ele>
        <time>2024-04-29T15:07:24.000Z</time>
      </trkpt>
      <trkpt lat="46.44060242176056" lon="12.96358335018158">
        <ele>999.7737255634363</ele>
        <time>2024-04-29T15:07:27.000Z</time>
      </trkpt>
      <trkpt lat="46.4406179189682" lon="12.963580131530762">
        <ele>1000.4057975635928</ele>
        <time>2024-04-29T15:07:28.000Z</time>
      </trkpt>
      <trkpt lat="46.44064116477966" lon="12.963598012924194">
        <ele>1000.825499140426</ele>
        <time>2024-04-29T15:07:30.000Z</time>
      </trkpt>
      <trkpt lat="46.44067418575287" lon="12.963614106178284">
        <ele>1001.6280516553908</ele>
        <time>2024-04-29T15:07:33.000Z</time>
      </trkpt>
      <trkpt lat="46.44068205356598" lon="12.96362042427063">
        <ele>1001.767538300157</ele>
        <time>2024-04-29T15:07:34.000Z</time>
      </trkpt>
      <trkpt lat="46.44068133831024" lon="12.963646650314331">
        <ele>1001.1615874923768</ele>
        <time>2024-04-29T15:07:36.000Z</time>
      </trkpt>
      <trkpt lat="46.44069015979767" lon="12.963667273521423">
        <ele>1001.0182678485293</ele>
        <time>2024-04-29T15:07:38.000Z</time>
      </trkpt>
      <trkpt lat="46.440696239471436" lon="12.963677287101746">
        <ele>1001.0125490167617</ele>
        <time>2024-04-29T15:07:40.000Z</time>
      </trkpt>
      <trkpt lat="46.44070112705231" lon="12.963685274124146">
        <ele>1001.0102261721282</ele>
        <time>2024-04-29T15:07:41.000Z</time>
      </trkpt>
      <trkpt lat="46.44070529937744" lon="12.963721871376038">
        <ele>1000.413407650806</ele>
        <time>2024-04-29T15:07:43.000Z</time>
      </trkpt>
      <trkpt lat="46.440706968307495" lon="12.963740944862366">
        <ele>1000.0998747637294</ele>
        <time>2024-04-29T15:07:44.000Z</time>
      </trkpt>
      <trkpt lat="46.4407297372818" lon="12.96379005908966">
        <ele>1000.1551061444925</ele>
        <time>2024-04-29T15:07:47.000Z</time>
      </trkpt>
      <trkpt lat="46.44073748588562" lon="12.963801860809326">
        <ele>1000.4433223760693</ele>
        <time>2024-04-29T15:07:48.000Z</time>
      </trkpt>
      <trkpt lat="46.44074332714081" lon="12.963814854621887">
        <ele>1000.6605931015691</ele>
        <time>2024-04-29T15:07:49.000Z</time>
      </trkpt>
      <trkpt lat="46.44074845314026" lon="12.963827729225159">
        <ele>1000.8512592677963</ele>
        <time>2024-04-29T15:07:50.000Z</time>
      </trkpt>
      <trkpt lat="46.44075691699982" lon="12.96385657787323">
        <ele>1001.1630765403858</ele>
        <time>2024-04-29T15:07:52.000Z</time>
      </trkpt>
      <trkpt lat="46.44076371192932" lon="12.963884592056274">
        <ele>999.4451175721365</ele>
        <time>2024-04-29T15:07:54.000Z</time>
      </trkpt>
      <trkpt lat="46.440765380859375" lon="12.963900566101074">
        <ele>999.1851626629946</ele>
        <time>2024-04-29T15:07:55.000Z</time>
      </trkpt>
      <trkpt lat="46.440767884254456" lon="12.963916540145874">
        <ele>998.9534247468232</ele>
        <time>2024-04-29T15:07:56.000Z</time>
      </trkpt>
      <trkpt lat="46.44076681137085" lon="12.964001417160034">
        <ele>997.2360346470036</ele>
        <time>2024-04-29T15:08:00.000Z</time>
      </trkpt>
      <trkpt lat="46.440770506858826" lon="12.964036107063293">
        <ele>996.6739122775388</ele>
        <time>2024-04-29T15:08:02.000Z</time>
      </trkpt>
      <trkpt lat="46.440773725509644" lon="12.964051723480225">
        <ele>996.4734436980918</ele>
        <time>2024-04-29T15:08:03.000Z</time>
      </trkpt>
      <trkpt lat="46.44076597690582" lon="12.964099645614624">
        <ele>995.2622620999358</ele>
        <time>2024-04-29T15:08:05.000Z</time>
      </trkpt>
      <trkpt lat="46.440762519836426" lon="12.964120626449585">
        <ele>994.729807587435</ele>
        <time>2024-04-29T15:08:06.000Z</time>
      </trkpt>
      <trkpt lat="46.44076335430145" lon="12.964164137840271">
        <ele>993.9026033393422</ele>
        <time>2024-04-29T15:08:08.000Z</time>
      </trkpt>
      <trkpt lat="46.44076478481293" lon="12.96419095993042">
        <ele>993.4259328118301</ele>
        <time>2024-04-29T15:08:09.000Z</time>
      </trkpt>
      <trkpt lat="46.440773606300354" lon="12.964243531227112">
        <ele>992.701605556021</ele>
        <time>2024-04-29T15:08:11.000Z</time>
      </trkpt>
      <trkpt lat="46.44078755378723" lon="12.964300155639648">
        <ele>992.0752860943323</ele>
        <time>2024-04-29T15:08:14.000Z</time>
      </trkpt>
      <trkpt lat="46.44079053401947" lon="12.964339256286621">
        <ele>991.406655409607</ele>
        <time>2024-04-29T15:08:16.000Z</time>
      </trkpt>
      <trkpt lat="46.440789580345154" lon="12.96436095237732">
        <ele>990.9430727840877</ele>
        <time>2024-04-29T15:08:17.000Z</time>
      </trkpt>
      <trkpt lat="46.44079077243805" lon="12.964383244514465">
        <ele>990.5438705101856</ele>
        <time>2024-04-29T15:08:18.000Z</time>
      </trkpt>
      <trkpt lat="46.440800070762634" lon="12.964420676231384">
        <ele>990.1326205895991</ele>
        <time>2024-04-29T15:08:20.000Z</time>
      </trkpt>
      <trkpt lat="46.44080889225006" lon="12.964468836784363">
        <ele>989.4927353948339</ele>
        <time>2024-04-29T15:08:22.000Z</time>
      </trkpt>
      <trkpt lat="46.44081246852875" lon="12.964489698410034">
        <ele>989.2294463062101</ele>
        <time>2024-04-29T15:08:23.000Z</time>
      </trkpt>
      <trkpt lat="46.44082510471344" lon="12.96455991268158">
        <ele>988.3819690322043</ele>
        <time>2024-04-29T15:08:26.000Z</time>
      </trkpt>
      <trkpt lat="46.44082534313202" lon="12.964605450630188">
        <ele>987.4888927942617</ele>
        <time>2024-04-29T15:08:28.000Z</time>
      </trkpt>
      <trkpt lat="46.440826177597046" lon="12.96462631225586">
        <ele>987.1067370739311</ele>
        <time>2024-04-29T15:08:29.000Z</time>
      </trkpt>
      <trkpt lat="46.44083571434021" lon="12.964739918708801">
        <ele>985.4918830250492</ele>
        <time>2024-04-29T15:08:35.000Z</time>
      </trkpt>
      <trkpt lat="46.44084024429321" lon="12.964759349822998">
        <ele>985.3398707742059</ele>
        <time>2024-04-29T15:08:36.000Z</time>
      </trkpt>
      <trkpt lat="46.440847754478455" lon="12.96477723121643">
        <ele>985.3234533555228</ele>
        <time>2024-04-29T15:08:37.000Z</time>
      </trkpt>
      <trkpt lat="46.440876603126526" lon="12.9649099111557">
        <ele>984.2098636847932</ele>
        <time>2024-04-29T15:08:42.000Z</time>
      </trkpt>
      <trkpt lat="46.44088315963745" lon="12.964932203292847">
        <ele>984.090128501459</ele>
        <time>2024-04-29T15:08:43.000Z</time>
      </trkpt>
      <trkpt lat="46.440905809402466" lon="12.965001702308655">
        <ele>983.9516369836414</ele>
        <time>2024-04-29T15:08:46.000Z</time>
      </trkpt>
      <trkpt lat="46.44091749191284" lon="12.965045094490051">
        <ele>984.0322909107443</ele>
        <time>2024-04-29T15:08:48.000Z</time>
      </trkpt>
      <trkpt lat="46.440924286842346" lon="12.96506416797638">
        <ele>984.129479689292</ele>
        <time>2024-04-29T15:08:49.000Z</time>
      </trkpt>
      <trkpt lat="46.44093918800354" lon="12.96510136127472">
        <ele>984.3804103560291</ele>
        <time>2024-04-29T15:08:51.000Z</time>
      </trkpt>
      <trkpt lat="46.440972089767456" lon="12.965187072753906">
        <ele>984.9051980276603</ele>
        <time>2024-04-29T15:08:55.000Z</time>
      </trkpt>
      <trkpt lat="46.44099223613739" lon="12.96526551246643">
        <ele>985.0137254224301</ele>
        <time>2024-04-29T15:08:59.000Z</time>
      </trkpt>
      <trkpt lat="46.44099283218384" lon="12.965283751487732">
        <ele>984.8854465760717</ele>
        <time>2024-04-29T15:09:00.000Z</time>
      </trkpt>
      <trkpt lat="46.44099771976471" lon="12.965325951576233">
        <ele>984.7056657000412</ele>
        <time>2024-04-29T15:09:02.000Z</time>
      </trkpt>
      <trkpt lat="46.440999150276184" lon="12.96535050868988">
        <ele>984.4691345482133</ele>
        <time>2024-04-29T15:09:03.000Z</time>
      </trkpt>
      <trkpt lat="46.441004276275635" lon="12.965376734733582">
        <ele>984.3369126846083</ele>
        <time>2024-04-29T15:09:04.000Z</time>
      </trkpt>
      <trkpt lat="46.44102203845978" lon="12.965447545051575">
        <ele>984.1326428772252</ele>
        <time>2024-04-29T15:09:07.000Z</time>
      </trkpt>
      <trkpt lat="46.44103169441223" lon="12.965498447418213">
        <ele>983.8784137731419</ele>
        <time>2024-04-29T15:09:09.000Z</time>
      </trkpt>
      <trkpt lat="46.441038846969604" lon="12.965517282485962">
        <ele>983.8887373873033</ele>
        <time>2024-04-29T15:09:10.000Z</time>
      </trkpt>
      <trkpt lat="46.441072940826416" lon="12.965612769126892">
        <ele>983.7153090146217</ele>
        <time>2024-04-29T15:09:15.000Z</time>
      </trkpt>
      <trkpt lat="46.441078424453735" lon="12.96563446521759">
        <ele>983.5272028049815</ele>
        <time>2024-04-29T15:09:16.000Z</time>
      </trkpt>
      <trkpt lat="46.44109344482422" lon="12.965676546096802">
        <ele>983.28881687751</ele>
        <time>2024-04-29T15:09:18.000Z</time>
      </trkpt>
      <trkpt lat="46.4411016702652" lon="12.965692400932312">
        <ele>983.217471802983</ele>
        <time>2024-04-29T15:09:19.000Z</time>
      </trkpt>
      <trkpt lat="46.44110941886902" lon="12.96572744846344">
        <ele>982.7005926357449</ele>
        <time>2024-04-29T15:09:21.000Z</time>
      </trkpt>
      <trkpt lat="46.44111502170563" lon="12.965789556503296">
        <ele>981.5575917198541</ele>
        <time>2024-04-29T15:09:24.000Z</time>
      </trkpt>
      <trkpt lat="46.44111609458923" lon="12.96580982208252">
        <ele>981.1720176444969</ele>
        <time>2024-04-29T15:09:25.000Z</time>
      </trkpt>
      <trkpt lat="46.44111919403076" lon="12.965864896774292">
        <ele>980.1308322980543</ele>
        <time>2024-04-29T15:09:28.000Z</time>
      </trkpt>
      <trkpt lat="46.44111692905426" lon="12.965928196907043">
        <ele>978.7165172757669</ele>
        <time>2024-04-29T15:09:31.000Z</time>
      </trkpt>
      <trkpt lat="46.44111740589142" lon="12.965947031974792">
        <ele>978.2259738577345</ele>
        <time>2024-04-29T15:09:32.000Z</time>
      </trkpt>
      <trkpt lat="46.441123962402344" lon="12.965965390205383">
        <ele>977.9592068778813</ele>
        <time>2024-04-29T15:09:33.000Z</time>
      </trkpt>
      <trkpt lat="46.44112813472748" lon="12.96603548526764">
        <ele>976.1665614687778</ele>
        <time>2024-04-29T15:09:36.000Z</time>
      </trkpt>
      <trkpt lat="46.4411324262619" lon="12.966055631637573">
        <ele>975.7267494210455</ele>
        <time>2024-04-29T15:09:37.000Z</time>
      </trkpt>
      <trkpt lat="46.44114065170288" lon="12.96607506275177">
        <ele>975.4242754579097</ele>
        <time>2024-04-29T15:09:38.000Z</time>
      </trkpt>
      <trkpt lat="46.44114124774933" lon="12.966094732284546">
        <ele>974.8687708542402</ele>
        <time>2024-04-29T15:09:39.000Z</time>
      </trkpt>
      <trkpt lat="46.441168785095215" lon="12.966130495071411">
        <ele>974.62818164571</ele>
        <time>2024-04-29T15:09:41.000Z</time>
      </trkpt>
      <trkpt lat="46.44117856025696" lon="12.966148853302002">
        <ele>974.3785926815228</ele>
        <time>2024-04-29T15:09:42.000Z</time>
      </trkpt>
      <trkpt lat="46.441187381744385" lon="12.966173768043518">
        <ele>973.9099788151921</ele>
        <time>2024-04-29T15:09:43.000Z</time>
      </trkpt>
      <trkpt lat="46.44120907783508" lon="12.96621298789978">
        <ele>973.4227816385228</ele>
        <time>2024-04-29T15:09:45.000Z</time>
      </trkpt>
      <trkpt lat="46.441227197647095" lon="12.966248512268066">
        <ele>972.9287515622111</ele>
        <time>2024-04-29T15:09:47.000Z</time>
      </trkpt>
      <trkpt lat="46.44123661518097" lon="12.966258525848389">
        <ele>972.9661781757404</ele>
        <time>2024-04-29T15:09:48.000Z</time>
      </trkpt>
      <trkpt lat="46.441264510154724" lon="12.966281294822693">
        <ele>973.3053064579615</ele>
        <time>2024-04-29T15:09:50.000Z</time>
      </trkpt>
      <trkpt lat="46.44128489494324" lon="12.966300010681152">
        <ele>973.4747943832542</ele>
        <time>2024-04-29T15:09:52.000Z</time>
      </trkpt>
      <trkpt lat="46.44129729270935" lon="12.966308116912842">
        <ele>973.6902785209215</ele>
        <time>2024-04-29T15:09:53.000Z</time>
      </trkpt>
      <trkpt lat="46.44132375717163" lon="12.966346383094788">
        <ele>973.4686503469173</ele>
        <time>2024-04-29T15:09:56.000Z</time>
      </trkpt>
      <trkpt lat="46.44133961200714" lon="12.966381907463074">
        <ele>972.9074830403442</ele>
        <time>2024-04-29T15:09:58.000Z</time>
      </trkpt>
      <trkpt lat="46.44135344028473" lon="12.96640956401825">
        <ele>972.5017338808805</ele>
        <time>2024-04-29T15:10:00.000Z</time>
      </trkpt>
      <trkpt lat="46.44136321544647" lon="12.966423392295837">
        <ele>972.3846495250446</ele>
        <time>2024-04-29T15:10:01.000Z</time>
      </trkpt>
      <trkpt lat="46.44138729572296" lon="12.966463446617126">
        <ele>971.8551412877636</ele>
        <time>2024-04-29T15:10:04.000Z</time>
      </trkpt>
      <trkpt lat="46.4413948059082" lon="12.966470718383789">
        <ele>971.8634026711348</ele>
        <time>2024-04-29T15:10:05.000Z</time>
      </trkpt>
      <trkpt lat="46.44140934944153" lon="12.966488718986511">
        <ele>971.7099140668934</ele>
        <time>2024-04-29T15:10:07.000Z</time>
      </trkpt>
      <trkpt lat="46.44144129753113" lon="12.966505646705627">
        <ele>971.8658331255091</ele>
        <time>2024-04-29T15:10:10.000Z</time>
      </trkpt>
      <trkpt lat="46.44145309925079" lon="12.966508388519287">
        <ele>972.0378419687661</ele>
        <time>2024-04-29T15:10:11.000Z</time>
      </trkpt>
      <trkpt lat="46.441476583480835" lon="12.966512799263">
        <ele>972.3444897568788</ele>
        <time>2024-04-29T15:10:13.000Z</time>
      </trkpt>
      <trkpt lat="46.44150114059448" lon="12.966525316238403">
        <ele>972.3076047927144</ele>
        <time>2024-04-29T15:10:15.000Z</time>
      </trkpt>
      <trkpt lat="46.44151020050049" lon="12.966539144515991">
        <ele>971.9643945585494</ele>
        <time>2024-04-29T15:10:16.000Z</time>
      </trkpt>
      <trkpt lat="46.44151306152344" lon="12.966561675071716">
        <ele>971.2032567481201</ele>
        <time>2024-04-29T15:10:17.000Z</time>
      </trkpt>
      <trkpt lat="46.441502928733826" lon="12.966638207435608">
        <ele>968.39989262658</ele>
        <time>2024-04-29T15:10:20.000Z</time>
      </trkpt>
      <trkpt lat="46.441506028175354" lon="12.966663360595703">
        <ele>967.6483750185382</ele>
        <time>2024-04-29T15:10:21.000Z</time>
      </trkpt>
      <trkpt lat="46.44151818752289" lon="12.966752409934998">
        <ele>965.0398529071833</ele>
        <time>2024-04-29T15:10:25.000Z</time>
      </trkpt>
      <trkpt lat="46.44152796268463" lon="12.966774106025696">
        <ele>964.5217503522263</ele>
        <time>2024-04-29T15:10:26.000Z</time>
      </trkpt>
      <trkpt lat="46.44153535366058" lon="12.966798067092896">
        <ele>963.8819335735923</ele>
        <time>2024-04-29T15:10:27.000Z</time>
      </trkpt>
      <trkpt lat="46.4415568113327" lon="12.966817021369934">
        <ele>963.6439735872964</ele>
        <time>2024-04-29T15:10:29.000Z</time>
      </trkpt>
      <trkpt lat="46.44161283969879" lon="12.96682357788086">
        <ele>964.4014328547762</ele>
        <time>2024-04-29T15:10:32.000Z</time>
      </trkpt>
      <trkpt lat="46.441627502441406" lon="12.96682858467102">
        <ele>964.4918431586595</ele>
        <time>2024-04-29T15:10:33.000Z</time>
      </trkpt>
      <trkpt lat="46.441645860672" lon="12.966833591461182">
        <ele>964.6686290201741</ele>
        <time>2024-04-29T15:10:35.000Z</time>
      </trkpt>
      <trkpt lat="46.441646575927734" lon="12.966854810714722">
        <ele>964.0180594890855</ele>
        <time>2024-04-29T15:10:36.000Z</time>
      </trkpt>
      <trkpt lat="46.441651463508606" lon="12.966870307922363">
        <ele>963.646251023795</ele>
        <time>2024-04-29T15:10:37.000Z</time>
      </trkpt>
      <trkpt lat="46.44165599346161" lon="12.966891884803772">
        <ele>963.1893144802372</ele>
        <time>2024-04-29T15:10:38.000Z</time>
      </trkpt>
      <trkpt lat="46.44166016578674" lon="12.96690845489502">
        <ele>962.8558358023143</ele>
        <time>2024-04-29T15:10:39.000Z</time>
      </trkpt>
      <trkpt lat="46.44166827201843" lon="12.966927289962769">
        <ele>962.549371577551</ele>
        <time>2024-04-29T15:10:40.000Z</time>
      </trkpt>
      <trkpt lat="46.44167625904083" lon="12.966946482658386">
        <ele>962.22484048326</ele>
        <time>2024-04-29T15:10:41.000Z</time>
      </trkpt>
      <trkpt lat="46.44168293476105" lon="12.966979265213013">
        <ele>961.6275353325535</ele>
        <time>2024-04-29T15:10:43.000Z</time>
      </trkpt>
      <trkpt lat="46.44167447090149" lon="12.966999650001526">
        <ele>961.0140016287106</ele>
        <time>2024-04-29T15:10:44.000Z</time>
      </trkpt>
      <trkpt lat="46.44167387485504" lon="12.967023015022278">
        <ele>960.5109006645632</ele>
        <time>2024-04-29T15:10:45.000Z</time>
      </trkpt>
      <trkpt lat="46.44168710708618" lon="12.967049479484558">
        <ele>960.2467420985931</ele>
        <time>2024-04-29T15:10:47.000Z</time>
      </trkpt>
      <trkpt lat="46.44170308113098" lon="12.967076897621155">
        <ele>960.0217717645862</ele>
        <time>2024-04-29T15:10:49.000Z</time>
      </trkpt>
      <trkpt lat="46.441709756851196" lon="12.96709418296814">
        <ele>959.7987142139904</ele>
        <time>2024-04-29T15:10:50.000Z</time>
      </trkpt>
      <trkpt lat="46.44171178340912" lon="12.967125654220581">
        <ele>959.1748192842313</ele>
        <time>2024-04-29T15:10:52.000Z</time>
      </trkpt>
      <trkpt lat="46.44170808792114" lon="12.967135667800903">
        <ele>958.8892119038863</ele>
        <time>2024-04-29T15:10:53.000Z</time>
      </trkpt>
      <trkpt lat="46.44170415401459" lon="12.967146754264832">
        <ele>958.5768967532565</ele>
        <time>2024-04-29T15:10:54.000Z</time>
      </trkpt>
      <trkpt lat="46.44170844554901" lon="12.967194557189941">
        <ele>957.661467827019</ele>
        <time>2024-04-29T15:10:57.000Z</time>
      </trkpt>
      <trkpt lat="46.441712737083435" lon="12.967215418815613">
        <ele>957.3102518439623</ele>
        <time>2024-04-29T15:10:58.000Z</time>
      </trkpt>
      <trkpt lat="46.441723346710205" lon="12.967257380485535">
        <ele>956.6148771029629</ele>
        <time>2024-04-29T15:11:00.000Z</time>
      </trkpt>
      <trkpt lat="46.441730976104736" lon="12.967317700386047">
        <ele>955.4658347761032</ele>
        <time>2024-04-29T15:11:03.000Z</time>
      </trkpt>
      <trkpt lat="46.44173324108124" lon="12.967334985733032">
        <ele>955.1329796026465</ele>
        <time>2024-04-29T15:11:04.000Z</time>
      </trkpt>
      <trkpt lat="46.4417405128479" lon="12.967380046844482">
        <ele>954.2953115475602</ele>
        <time>2024-04-29T15:11:06.000Z</time>
      </trkpt>
      <trkpt lat="46.44174301624298" lon="12.967399716377258">
        <ele>953.9259426967727</ele>
        <time>2024-04-29T15:11:07.000Z</time>
      </trkpt>
      <trkpt lat="46.4417450428009" lon="12.967416167259216">
        <ele>953.6209764192878</ele>
        <time>2024-04-29T15:11:08.000Z</time>
      </trkpt>
      <trkpt lat="46.4417507648468" lon="12.96743130683899">
        <ele>953.4296799527034</ele>
        <time>2024-04-29T15:11:09.000Z</time>
      </trkpt>
      <trkpt lat="46.44175732135773" lon="12.967446565628052">
        <ele>953.2586196800859</ele>
        <time>2024-04-29T15:11:10.000Z</time>
      </trkpt>
      <trkpt lat="46.44175601005554" lon="12.967483520507812">
        <ele>952.448846042977</ele>
        <time>2024-04-29T15:11:12.000Z</time>
      </trkpt>
      <trkpt lat="46.44174921512604" lon="12.967506408691406">
        <ele>951.7946601533934</ele>
        <time>2024-04-29T15:11:13.000Z</time>
      </trkpt>
      <trkpt lat="46.44174909591675" lon="12.967552304267883">
        <ele>950.808343020926</ele>
        <time>2024-04-29T15:11:16.000Z</time>
      </trkpt>
      <trkpt lat="46.44174838066101" lon="12.96757423877716">
        <ele>950.2923318953686</ele>
        <time>2024-04-29T15:11:18.000Z</time>
      </trkpt>
      <trkpt lat="46.44174408912659" lon="12.967607259750366">
        <ele>949.4189248906968</ele>
        <time>2024-04-29T15:11:20.000Z</time>
      </trkpt>
      <trkpt lat="46.44174516201019" lon="12.96762502193451">
        <ele>949.0384246580877</ele>
        <time>2024-04-29T15:11:21.000Z</time>
      </trkpt>
      <trkpt lat="46.441742300987244" lon="12.967654585838318">
        <ele>948.2953137259233</ele>
        <time>2024-04-29T15:11:22.000Z</time>
      </trkpt>
      <trkpt lat="46.44174611568451" lon="12.967671036720276">
        <ele>948.0278927636101</ele>
        <time>2024-04-29T15:11:23.000Z</time>
      </trkpt>
      <trkpt lat="46.441749572753906" lon="12.967689275741577">
        <ele>947.7118185641011</ele>
        <time>2024-04-29T15:11:24.000Z</time>
      </trkpt>
      <trkpt lat="46.4417530298233" lon="12.9677072763443">
        <ele>947.4010221479929</ele>
        <time>2024-04-29T15:11:25.000Z</time>
      </trkpt>
      <trkpt lat="46.441755175590515" lon="12.967725276947021">
        <ele>947.0569693942559</ele>
        <time>2024-04-29T15:11:26.000Z</time>
      </trkpt>
      <trkpt lat="46.441760301589966" lon="12.967770338058472">
        <ele>946.1894714672123</ele>
        <time>2024-04-29T15:11:29.000Z</time>
      </trkpt>
      <trkpt lat="46.441771388053894" lon="12.96779465675354">
        <ele>945.9323054497834</ele>
        <time>2024-04-29T15:11:31.000Z</time>
      </trkpt>
      <trkpt lat="46.441771268844604" lon="12.967809557914734">
        <ele>945.5994210342418</ele>
        <time>2024-04-29T15:11:32.000Z</time>
      </trkpt>
      <trkpt lat="46.441771388053894" lon="12.967818975448608">
        <ele>945.3939721166862</ele>
        <time>2024-04-29T15:11:33.000Z</time>
      </trkpt>
      <trkpt lat="46.441770911216736" lon="12.967889189720154">
        <ele>943.8275733416677</ele>
        <time>2024-04-29T15:11:37.000Z</time>
      </trkpt>
      <trkpt lat="46.44176781177521" lon="12.967907071113586">
        <ele>943.3811840443753</ele>
        <time>2024-04-29T15:11:38.000Z</time>
      </trkpt>
      <trkpt lat="46.441763520240784" lon="12.967928171157837">
        <ele>942.9043075114124</ele>
        <time>2024-04-29T15:11:39.000Z</time>
      </trkpt>
      <trkpt lat="46.441757678985596" lon="12.967950701713562">
        <ele>942.3580111284796</ele>
        <time>2024-04-29T15:11:40.000Z</time>
      </trkpt>
      <trkpt lat="46.441752314567566" lon="12.967987775802612">
        <ele>941.5627537830595</ele>
        <time>2024-04-29T15:11:42.000Z</time>
      </trkpt>
      <trkpt lat="46.4417439699173" lon="12.968017220497131">
        <ele>940.8126565289891</ele>
        <time>2024-04-29T15:11:44.000Z</time>
      </trkpt>
      <trkpt lat="46.44174420833588" lon="12.968044519424438">
        <ele>940.3333401148551</ele>
        <time>2024-04-29T15:11:46.000Z</time>
      </trkpt>
      <trkpt lat="46.44175183773041" lon="12.968054294586182">
        <ele>940.3758423413179</ele>
        <time>2024-04-29T15:11:47.000Z</time>
      </trkpt>
      <trkpt lat="46.44175887107849" lon="12.968054175376892">
        <ele>940.5775115036449</ele>
        <time>2024-04-29T15:11:48.000Z</time>
      </trkpt>
      <trkpt lat="46.441787242889404" lon="12.968038320541382">
        <ele>941.6244209354757</ele>
        <time>2024-04-29T15:11:52.000Z</time>
      </trkpt>
      <trkpt lat="46.44178783893585" lon="12.968034148216248">
        <ele>941.7134618989204</ele>
        <time>2024-04-29T15:11:54.000Z</time>
      </trkpt>
      <trkpt lat="46.44179928302765" lon="12.968032360076904">
        <ele>942.0542984334766</ele>
        <time>2024-04-29T15:12:00.000Z</time>
      </trkpt>
      <trkpt lat="46.441799998283386" lon="12.96803343296051">
        <ele>942.0548975943135</ele>
        <time>2024-04-29T15:12:02.000Z</time>
      </trkpt>
      <trkpt lat="46.44180071353912" lon="12.968035340309143">
        <ele>942.040913421662</ele>
        <time>2024-04-29T15:12:05.000Z</time>
      </trkpt>
      <trkpt lat="46.44180130958557" lon="12.968036532402039">
        <ele>942.0362043888322</ele>
        <time>2024-04-29T15:12:07.000Z</time>
      </trkpt>
      <trkpt lat="46.44180166721344" lon="12.968037724494934">
        <ele>942.0250456364838</ele>
        <time>2024-04-29T15:12:09.000Z</time>
      </trkpt>
      <trkpt lat="46.44180178642273" lon="12.968037962913513">
        <ele>942.0241038301973</ele>
        <time>2024-04-29T15:12:10.000Z</time>
      </trkpt>
      <trkpt lat="46.4418021440506" lon="12.968038439750671">
        <ele>942.0254450770574</ele>
        <time>2024-04-29T15:12:12.000Z</time>
      </trkpt>
      <trkpt lat="46.44180405139923" lon="12.96804130077362">
        <ele>942.0270428423316</ele>
        <time>2024-04-29T15:12:17.000Z</time>
      </trkpt>
      <trkpt lat="46.44180405139923" lon="12.968043684959412">
        <ele>941.9853761760531</ele>
        <time>2024-04-29T15:12:23.000Z</time>
      </trkpt>
      <trkpt lat="46.44180417060852" lon="12.968043804168701">
        <ele>941.9865177026497</ele>
        <time>2024-04-29T15:12:28.000Z</time>
      </trkpt>
      <trkpt lat="46.44180476665497" lon="12.968044400215149">
        <ele>941.9922253376818</ele>
        <time>2024-04-29T15:12:32.000Z</time>
      </trkpt>
      <trkpt lat="46.44180500507355" lon="12.968044519424438">
        <ele>941.9965917254813</ele>
        <time>2024-04-29T15:12:33.000Z</time>
      </trkpt>
      <trkpt lat="46.441805958747864" lon="12.968045234680176">
        <ele>942.0098906088169</ele>
        <time>2024-04-29T15:12:38.000Z</time>
      </trkpt>
      <trkpt lat="46.44180607795715" lon="12.96804392337799">
        <ele>942.0360321360188</ele>
        <time>2024-04-29T15:12:44.000Z</time>
      </trkpt>
      <trkpt lat="46.44180154800415" lon="12.968065619468689">
        <ele>941.5343207767712</ele>
        <time>2024-04-29T15:12:50.000Z</time>
      </trkpt>
      <trkpt lat="46.44179284572601" lon="12.968091487884521">
        <ele>940.8369619314601</ele>
        <time>2024-04-29T15:12:52.000Z</time>
      </trkpt>
      <trkpt lat="46.44178795814514" lon="12.96812379360199">
        <ele>940.118128655865</ele>
        <time>2024-04-29T15:12:54.000Z</time>
      </trkpt>
      <trkpt lat="46.441784739494324" lon="12.968141078948975">
        <ele>939.713821149377</ele>
        <time>2024-04-29T15:12:55.000Z</time>
      </trkpt>
      <trkpt lat="46.44178032875061" lon="12.968159079551697">
        <ele>939.2600104048267</ele>
        <time>2024-04-29T15:12:56.000Z</time>
      </trkpt>
      <trkpt lat="46.441760659217834" lon="12.96821403503418">
        <ele>937.6701138609528</ele>
        <time>2024-04-29T15:12:59.000Z</time>
      </trkpt>
      <trkpt lat="46.441757678985596" lon="12.9682297706604">
        <ele>937.2919313469805</ele>
        <time>2024-04-29T15:13:00.000Z</time>
      </trkpt>
      <trkpt lat="46.441752195358276" lon="12.968244075775146">
        <ele>936.8668730449731</ele>
        <time>2024-04-29T15:13:01.000Z</time>
      </trkpt>
      <trkpt lat="46.44174838066101" lon="12.968258261680603">
        <ele>936.4734273707926</ele>
        <time>2024-04-29T15:13:02.000Z</time>
      </trkpt>
      <trkpt lat="46.44173181056976" lon="12.968327164649963">
        <ele>934.5888588498628</ele>
        <time>2024-04-29T15:13:06.000Z</time>
      </trkpt>
      <trkpt lat="46.441731452941895" lon="12.968364596366882">
        <ele>933.795447594639</ele>
        <time>2024-04-29T15:13:08.000Z</time>
      </trkpt>
      <trkpt lat="46.44173550605774" lon="12.968400597572327">
        <ele>933.1755881472038</ele>
        <time>2024-04-29T15:13:10.000Z</time>
      </trkpt>
      <trkpt lat="46.44174873828888" lon="12.968441009521484">
        <ele>932.778281326686</ele>
        <time>2024-04-29T15:13:12.000Z</time>
      </trkpt>
      <trkpt lat="46.44175159931183" lon="12.968456745147705">
        <ele>932.545027042554</ele>
        <time>2024-04-29T15:13:13.000Z</time>
      </trkpt>
      <trkpt lat="46.441750168800354" lon="12.968491315841675">
        <ele>931.7716541839777</ele>
        <time>2024-04-29T15:13:15.000Z</time>
      </trkpt>
      <trkpt lat="46.44175851345062" lon="12.96854841709137">
        <ele>931.0164899415934</ele>
        <time>2024-04-29T15:13:18.000Z</time>
      </trkpt>
      <trkpt lat="46.44176781177521" lon="12.968586921691895">
        <ele>930.6600546635036</ele>
        <time>2024-04-29T15:13:20.000Z</time>
      </trkpt>
      <trkpt lat="46.44177556037903" lon="12.968605160713196">
        <ele>930.5981014575366</ele>
        <time>2024-04-29T15:13:21.000Z</time>
      </trkpt>
      <trkpt lat="46.44177532196045" lon="12.968623518943787">
        <ele>930.2639697695755</ele>
        <time>2024-04-29T15:13:22.000Z</time>
      </trkpt>
      <trkpt lat="46.441773653030396" lon="12.968648076057434">
        <ele>929.7732343504863</ele>
        <time>2024-04-29T15:13:24.000Z</time>
      </trkpt>
      <trkpt lat="46.44176518917084" lon="12.968671441078186">
        <ele>929.0866280737011</ele>
        <time>2024-04-29T15:13:26.000Z</time>
      </trkpt>
      <trkpt lat="46.44176440336582" lon="12.968674905278078">
        <ele>929.0006393854288</ele>
        <time>2024-04-29T15:13:27.000Z</time>
      </trkpt>
      <trkpt lat="46.44176" lon="12.968846">
        <ele>925.8745697457279</ele>
        <time>2024-04-29T15:13:35.301Z</time>
      </trkpt>
      <trkpt lat="46.441866" lon="12.968946">
        <ele>927.8602839433566</ele>
        <time>2024-04-29T15:13:44.196Z</time>
      </trkpt>
      <trkpt lat="46.441901" lon="12.969019">
        <ele>928.0835581057393</ele>
        <time>2024-04-29T15:13:48.507Z</time>
      </trkpt>
      <trkpt lat="46.441938" lon="12.969144">
        <ele>927.5232734233545</ele>
        <time>2024-04-29T15:13:55.103Z</time>
      </trkpt>
      <trkpt lat="46.44198" lon="12.969223">
        <ele>927.5383322289946</ele>
        <time>2024-04-29T15:13:59.940Z</time>
      </trkpt>
      <trkpt lat="46.442015" lon="12.969265">
        <ele>927.7990155492121</ele>
        <time>2024-04-29T15:14:03.135Z</time>
      </trkpt>
      <trkpt lat="46.442229" lon="12.969295">
        <ele>933.6889563589823</ele>
        <time>2024-04-29T15:14:18.262Z</time>
      </trkpt>
      <trkpt lat="46.442306" lon="12.969334">
        <ele>935.3600857250506</ele>
        <time>2024-04-29T15:14:24.000Z</time>
      </trkpt>
      <trkpt lat="46.442367" lon="12.969365">
        <ele>937.0611907540836</ele>
        <time>2024-04-29T15:14:28.547Z</time>
      </trkpt>
      <trkpt lat="46.442477" lon="12.969453">
        <ele>939.6005433084927</ele>
        <time>2024-04-29T15:14:37.385Z</time>
      </trkpt>
      <trkpt lat="46.442592" lon="12.969589">
        <ele>940.2340568181987</ele>
        <time>2024-04-29T15:14:47.823Z</time>
      </trkpt>
      <trkpt lat="46.442662" lon="12.969715">
        <ele>938.8723360138953</ele>
        <time>2024-04-29T15:14:55.670Z</time>
      </trkpt>
      <trkpt lat="46.442746" lon="12.969931">
        <ele>935.6395304751431</ele>
        <time>2024-04-29T15:15:07.695Z</time>
      </trkpt>
      <trkpt lat="46.442883" lon="12.970188">
        <ele>934.5909145515911</ele>
        <time>2024-04-29T15:15:23.449Z</time>
      </trkpt>
      <trkpt lat="46.443221" lon="12.971108">
        <ele>926.29519503546</ele>
        <time>2024-04-29T15:16:14.000Z</time>
      </trkpt>
      <trkpt lat="46.443351" lon="12.971396">
        <ele>920.4726756442349</ele>
        <time>2024-04-29T15:16:30.693Z</time>
      </trkpt>
      <trkpt lat="46.443416" lon="12.971491">
        <ele>919.0763099190522</ele>
        <time>2024-04-29T15:16:37.184Z</time>
      </trkpt>
      <trkpt lat="46.443479" lon="12.97154">
        <ele>919.360178635084</ele>
        <time>2024-04-29T15:16:42.213Z</time>
      </trkpt>
      <trkpt lat="46.443568" lon="12.971537">
        <ele>921.9146563739989</ele>
        <time>2024-04-29T15:16:48.477Z</time>
      </trkpt>
      <trkpt lat="46.443601" lon="12.971546">
        <ele>922.5843154155843</ele>
        <time>2024-04-29T15:16:50.839Z</time>
      </trkpt>
      <trkpt lat="46.443646" lon="12.971559">
        <ele>923.456549271271</ele>
        <time>2024-04-29T15:16:54.067Z</time>
      </trkpt>
      <trkpt lat="46.443683" lon="12.971589">
        <ele>924.1917628778697</ele>
        <time>2024-04-29T15:16:57.051Z</time>
      </trkpt>
      <trkpt lat="46.4437" lon="12.971628">
        <ele>923.8885176453957</ele>
        <time>2024-04-29T15:16:59.290Z</time>
      </trkpt>
      <trkpt lat="46.443706" lon="12.971689">
        <ele>922.4731641854016</ele>
        <time>2024-04-29T15:17:02.280Z</time>
      </trkpt>
      <trkpt lat="46.44369" lon="12.971773">
        <ele>919.3706022217879</ele>
        <time>2024-04-29T15:17:06.509Z</time>
      </trkpt>
      <trkpt lat="46.4436898" lon="12.9717735">
        <ele>919.3481301674626</ele>
        <time>2024-04-29T15:17:06.537Z</time>
      </trkpt>
      <trkpt lat="46.4436822" lon="12.9717711">
        <ele>918.9928482577213</ele>
        <time>2024-04-29T15:17:09.537Z</time>
      </trkpt>
      <trkpt lat="46.4436746" lon="12.9717703">
        <ele>918.6002837030222</ele>
        <time>2024-04-29T15:17:10.537Z</time>
      </trkpt>
      <trkpt lat="46.4436687" lon="12.9717711">
        <ele>918.2624167539185</ele>
        <time>2024-04-29T15:17:11.537Z</time>
      </trkpt>
      <trkpt lat="46.4436576" lon="12.9717805">
        <ele>917.4428039997819</ele>
        <time>2024-04-29T15:17:13.537Z</time>
      </trkpt>
      <trkpt lat="46.4436547" lon="12.9717853">
        <ele>917.1740484405314</ele>
        <time>2024-04-29T15:17:15.537Z</time>
      </trkpt>
      <trkpt lat="46.443651" lon="12.971787">
        <ele>916.9908447605095</ele>
        <time>2024-04-29T15:17:16.537Z</time>
      </trkpt>
      <trkpt lat="46.443644" lon="12.971777">
        <ele>917.0226549266843</ele>
        <time>2024-04-29T15:17:17.537Z</time>
      </trkpt>
      <trkpt lat="46.44361" lon="12.9718251">
        <ele>914.9245542603323</ele>
        <time>2024-04-29T15:17:23.537Z</time>
      </trkpt>
      <trkpt lat="46.4436057" lon="12.9718355">
        <ele>914.5586183705846</ele>
        <time>2024-04-29T15:17:24.537Z</time>
      </trkpt>
      <trkpt lat="46.4435867" lon="12.9718784">
        <ele>912.996136363195</ele>
        <time>2024-04-29T15:17:28.537Z</time>
      </trkpt>
      <trkpt lat="46.443572" lon="12.9719085">
        <ele>911.8258837753351</ele>
        <time>2024-04-29T15:17:31.537Z</time>
      </trkpt>
      <trkpt lat="46.443563" lon="12.971943">
        <ele>910.7211975350051</ele>
        <time>2024-04-29T15:17:34.537Z</time>
      </trkpt>
      <trkpt lat="46.4435595" lon="12.9720124">
        <ele>908.9916214534087</ele>
        <time>2024-04-29T15:17:40.537Z</time>
      </trkpt>
      <trkpt lat="46.4435608" lon="12.972057">
        <ele>908.0124122818721</ele>
        <time>2024-04-29T15:17:43.537Z</time>
      </trkpt>
      <trkpt lat="46.4435701" lon="12.9721413">
        <ele>906.5557213394763</ele>
        <time>2024-04-29T15:17:49.537Z</time>
      </trkpt>
      <trkpt lat="46.4435831" lon="12.9722229">
        <ele>905.5801304027907</ele>
        <time>2024-04-29T15:17:55.537Z</time>
      </trkpt>
      <trkpt lat="46.4435841" lon="12.9722363">
        <ele>905.392629283724</ele>
        <time>2024-04-29T15:17:56.537Z</time>
      </trkpt>
      <trkpt lat="46.443589" lon="12.9722644">
        <ele>905.1207112557036</ele>
        <time>2024-04-29T15:17:59.537Z</time>
      </trkpt>
      <trkpt lat="46.4435933" lon="12.9722863">
        <ele>904.9317734027186</ele>
        <time>2024-04-29T15:18:02.537Z</time>
      </trkpt>
      <trkpt lat="46.4436047" lon="12.9723213">
        <ele>904.8110637570851</ele>
        <time>2024-04-29T15:18:06.537Z</time>
      </trkpt>
      <trkpt lat="46.4436088" lon="12.9723364">
        <ele>904.7370237523833</ele>
        <time>2024-04-29T15:18:08.537Z</time>
      </trkpt>
      <trkpt lat="46.4436119" lon="12.9723462">
        <ele>904.7124585665459</ele>
        <time>2024-04-29T15:18:12.537Z</time>
      </trkpt>
      <trkpt lat="46.4436202" lon="12.9723837">
        <ele>904.542391614575</ele>
        <time>2024-04-29T15:18:14.537Z</time>
      </trkpt>
      <trkpt lat="46.4436162" lon="12.9724773">
        <ele>903.2556970393979</ele>
        <time>2024-04-29T15:18:18.537Z</time>
      </trkpt>
      <trkpt lat="46.4436201" lon="12.9724964">
        <ele>903.2926324048899</ele>
        <time>2024-04-29T15:18:19.537Z</time>
      </trkpt>
      <trkpt lat="46.4436554" lon="12.9726355">
        <ele>904.2407004638583</ele>
        <time>2024-04-29T15:18:23.537Z</time>
      </trkpt>
      <trkpt lat="46.4436642" lon="12.9727511">
        <ele>903.9831266650002</ele>
        <time>2024-04-29T15:18:29.537Z</time>
      </trkpt>
      <trkpt lat="46.4436591" lon="12.9727829">
        <ele>903.4417720946949</ele>
        <time>2024-04-29T15:18:31.537Z</time>
      </trkpt>
      <trkpt lat="46.4436505" lon="12.9728012">
        <ele>902.7716203884517</ele>
        <time>2024-04-29T15:18:34.537Z</time>
      </trkpt>
      <trkpt lat="46.4436444" lon="12.9728535">
        <ele>902.0241013939315</ele>
        <time>2024-04-29T15:18:40.537Z</time>
      </trkpt>
      <trkpt lat="46.443643" lon="12.9728627">
        <ele>901.8733444070589</ele>
        <time>2024-04-29T15:18:41.537Z</time>
      </trkpt>
      <trkpt lat="46.4436288" lon="12.9729041">
        <ele>900.6989525815018</ele>
        <time>2024-04-29T15:18:47.537Z</time>
      </trkpt>
      <trkpt lat="46.443622" lon="12.9729215">
        <ele>900.1519094374971</ele>
        <time>2024-04-29T15:18:51.537Z</time>
      </trkpt>
      <trkpt lat="46.4436091" lon="12.9729729">
        <ele>898.992231863391</ele>
        <time>2024-04-29T15:18:54.537Z</time>
      </trkpt>
      <trkpt lat="46.4436073" lon="12.9730465">
        <ele>898.4319893859254</ele>
        <time>2024-04-29T15:18:58.537Z</time>
      </trkpt>
      <trkpt lat="46.4436077" lon="12.9730653">
        <ele>898.2461627021435</ele>
        <time>2024-04-29T15:18:59.537Z</time>
      </trkpt>
      <trkpt lat="46.4436159" lon="12.9731401">
        <ele>897.782932724245</ele>
        <time>2024-04-29T15:19:03.537Z</time>
      </trkpt>
      <trkpt lat="46.4436241" lon="12.9731737">
        <ele>897.8122983629821</ele>
        <time>2024-04-29T15:19:05.537Z</time>
      </trkpt>
      <trkpt lat="46.4436325" lon="12.9732153">
        <ele>897.7419898178441</ele>
        <time>2024-04-29T15:19:07.537Z</time>
      </trkpt>
      <trkpt lat="46.4436463" lon="12.9732618">
        <ele>897.9318683728586</ele>
        <time>2024-04-29T15:19:10.537Z</time>
      </trkpt>
      <trkpt lat="46.4436332" lon="12.9733328">
        <ele>896.1135913420011</ele>
        <time>2024-04-29T15:19:13.537Z</time>
      </trkpt>
      <trkpt lat="46.4436251" lon="12.9734136">
        <ele>894.2379298006559</ele>
        <time>2024-04-29T15:19:17.537Z</time>
      </trkpt>
      <trkpt lat="46.4436373" lon="12.9734585">
        <ele>893.8675673874243</ele>
        <time>2024-04-29T15:19:19.537Z</time>
      </trkpt>
      <trkpt lat="46.4436771" lon="12.9735082">
        <ele>894.626978357359</ele>
        <time>2024-04-29T15:19:22.537Z</time>
      </trkpt>
      <trkpt lat="46.4436914" lon="12.9735208">
        <ele>894.9704883827297</ele>
        <time>2024-04-29T15:19:23.537Z</time>
      </trkpt>
      <trkpt lat="46.4437085" lon="12.973528">
        <ele>895.5813993930483</ele>
        <time>2024-04-29T15:19:24.537Z</time>
      </trkpt>
      <trkpt lat="46.4438052" lon="12.9735321">
        <ele>899.9112983105683</ele>
        <time>2024-04-29T15:19:30.537Z</time>
      </trkpt>
      <trkpt lat="46.4438428" lon="12.9735447">
        <ele>901.2405253539212</ele>
        <time>2024-04-29T15:19:32.537Z</time>
      </trkpt>
      <trkpt lat="46.4438897" lon="12.9735737">
        <ele>902.3371575332292</ele>
        <time>2024-04-29T15:19:35.537Z</time>
      </trkpt>
      <trkpt lat="46.443904" lon="12.9735919">
        <ele>902.3676329627821</ele>
        <time>2024-04-29T15:19:36.537Z</time>
      </trkpt>
      <trkpt lat="46.4439504" lon="12.9736533">
        <ele>902.316074596856</ele>
        <time>2024-04-29T15:19:40.537Z</time>
      </trkpt>
      <trkpt lat="46.4439631" lon="12.9736714">
        <ele>902.2574310316118</ele>
        <time>2024-04-29T15:19:41.537Z</time>
      </trkpt>
      <trkpt lat="46.4440303" lon="12.9738026">
        <ele>900.5142391169313</ele>
        <time>2024-04-29T15:19:47.537Z</time>
      </trkpt>
      <trkpt lat="46.4440502" lon="12.9738524">
        <ele>899.4812931573134</ele>
        <time>2024-04-29T15:19:49.537Z</time>
      </trkpt>
      <trkpt lat="46.4440867" lon="12.97401">
        <ele>894.8917071652824</ele>
        <time>2024-04-29T15:19:55.537Z</time>
      </trkpt>
      <trkpt lat="46.4440919" lon="12.9740778">
        <ele>892.7611623416803</ele>
        <time>2024-04-29T15:19:57.537Z</time>
      </trkpt>
      <trkpt lat="46.444103" lon="12.974218">
        <ele>888.6107184881837</ele>
        <time>2024-04-29T15:20:01.537Z</time>
      </trkpt>
      <trkpt lat="46.4441701" lon="12.9743179">
        <ele>886.9614062466248</ele>
        <time>2024-04-29T15:20:06.537Z</time>
      </trkpt>
      <trkpt lat="46.4441845" lon="12.9743296">
        <ele>886.8979626721914</ele>
        <time>2024-04-29T15:20:07.537Z</time>
      </trkpt>
      <trkpt lat="46.444239" lon="12.9743712">
        <ele>886.9290498386158</ele>
        <time>2024-04-29T15:20:11.537Z</time>
      </trkpt>
      <trkpt lat="46.4442788" lon="12.9744003">
        <ele>886.8843859246917</ele>
        <time>2024-04-29T15:20:14.537Z</time>
      </trkpt>
      <trkpt lat="46.4442883" lon="12.9744123">
        <ele>886.6941131436942</ele>
        <time>2024-04-29T15:20:15.537Z</time>
      </trkpt>
      <trkpt lat="46.4443005" lon="12.9744254">
        <ele>886.5050586343108</ele>
        <time>2024-04-29T15:20:17.537Z</time>
      </trkpt>
      <trkpt lat="46.4443104" lon="12.9744234">
        <ele>886.7211316824428</ele>
        <time>2024-04-29T15:20:19.537Z</time>
      </trkpt>
      <trkpt lat="46.4443256" lon="12.9744086">
        <ele>887.4361211879209</ele>
        <time>2024-04-29T15:20:24.537Z</time>
      </trkpt>
      <trkpt lat="46.4443629" lon="12.9743974">
        <ele>888.4045208635131</ele>
        <time>2024-04-29T15:20:28.537Z</time>
      </trkpt>
      <trkpt lat="46.4443835" lon="12.9743907">
        <ele>888.9950768975793</ele>
        <time>2024-04-29T15:20:30.537Z</time>
      </trkpt>
      <trkpt lat="46.4443917" lon="12.9743881">
        <ele>889.2306166217151</ele>
        <time>2024-04-29T15:20:31.537Z</time>
      </trkpt>
      <trkpt lat="46.4443986" lon="12.974394">
        <ele>889.1172194134991</ele>
        <time>2024-04-29T15:20:32.537Z</time>
      </trkpt>
      <trkpt lat="46.444438" lon="12.9744078">
        <ele>889.1868987149891</ele>
        <time>2024-04-29T15:20:38.537Z</time>
      </trkpt>
      <trkpt lat="46.4444493" lon="12.9744116">
        <ele>889.1941707111239</ele>
        <time>2024-04-29T15:20:40.537Z</time>
      </trkpt>
      <trkpt lat="46.4444598" lon="12.9744267">
        <ele>888.7140482851039</ele>
        <time>2024-04-29T15:20:44.537Z</time>
      </trkpt>
      <trkpt lat="46.4445307" lon="12.9744881">
        <ele>886.9094677782965</ele>
        <time>2024-04-29T15:20:49.537Z</time>
      </trkpt>
      <trkpt lat="46.4445431" lon="12.9744927">
        <ele>886.8732691746674</ele>
        <time>2024-04-29T15:20:50.537Z</time>
      </trkpt>
      <trkpt lat="46.4445612" lon="12.974493">
        <ele>887.3799094230872</ele>
        <time>2024-04-29T15:20:52.537Z</time>
      </trkpt>
      <trkpt lat="46.4445966" lon="12.9745247">
        <ele>886.9570640646394</ele>
        <time>2024-04-29T15:20:55.537Z</time>
      </trkpt>
      <trkpt lat="46.4446073" lon="12.9745284">
        <ele>887.109671760584</ele>
        <time>2024-04-29T15:20:56.537Z</time>
      </trkpt>
      <trkpt lat="46.4446412" lon="12.974546">
        <ele>887.3417102673559</ele>
        <time>2024-04-29T15:20:59.537Z</time>
      </trkpt>
      <trkpt lat="46.4446824" lon="12.9745629">
        <ele>887.8277332286357</ele>
        <time>2024-04-29T15:21:02.537Z</time>
      </trkpt>
      <trkpt lat="46.4447308" lon="12.9745651">
        <ele>889.1929130532853</ele>
        <time>2024-04-29T15:21:05.537Z</time>
      </trkpt>
      <trkpt lat="46.4448154" lon="12.97456">
        <ele>891.7703309872425</ele>
        <time>2024-04-29T15:21:10.537Z</time>
      </trkpt>
      <trkpt lat="46.4448373" lon="12.9745517">
        <ele>892.6932426447984</ele>
        <time>2024-04-29T15:21:11.537Z</time>
      </trkpt>
      <trkpt lat="46.44488" lon="12.974558">
        <ele>893.497311103717</ele>
        <time>2024-04-29T15:21:13.537Z</time>
      </trkpt>
      <trkpt lat="46.4448968" lon="12.9745768">
        <ele>893.0916662739472</ele>
        <time>2024-04-29T15:21:14.537Z</time>
      </trkpt>
      <trkpt lat="46.4449127" lon="12.9746106">
        <ele>891.9979030069205</ele>
        <time>2024-04-29T15:21:15.537Z</time>
      </trkpt>
      <trkpt lat="46.4449199" lon="12.9746958">
        <ele>888.6359093454447</ele>
        <time>2024-04-29T15:21:18.537Z</time>
      </trkpt>
      <trkpt lat="46.4449229" lon="12.9747375">
        <ele>887.5459811883518</ele>
        <time>2024-04-29T15:21:20.537Z</time>
      </trkpt>
      <trkpt lat="46.4449569" lon="12.974856">
        <ele>885.2119584605105</ele>
        <time>2024-04-29T15:21:25.537Z</time>
      </trkpt>
      <trkpt lat="46.4449787" lon="12.9749041">
        <ele>884.5673366120559</ele>
        <time>2024-04-29T15:21:27.537Z</time>
      </trkpt>
      <trkpt lat="46.4450214" lon="12.9749982">
        <ele>883.5936832668264</ele>
        <time>2024-04-29T15:21:31.537Z</time>
      </trkpt>
      <trkpt lat="46.4450297" lon="12.9750161">
        <ele>883.5065805547874</ele>
        <time>2024-04-29T15:21:32.537Z</time>
      </trkpt>
      <trkpt lat="46.4450941" lon="12.9751654">
        <ele>883.8007016107479</ele>
        <time>2024-04-29T15:21:38.537Z</time>
      </trkpt>
      <trkpt lat="46.4450978" lon="12.9751811">
        <ele>883.6895687741376</ele>
        <time>2024-04-29T15:21:39.537Z</time>
      </trkpt>
      <trkpt lat="46.4451325" lon="12.9752718">
        <ele>883.5015903298458</ele>
        <time>2024-04-29T15:21:43.537Z</time>
      </trkpt>
      <trkpt lat="46.4451506" lon="12.9753836">
        <ele>882.9283179728765</ele>
        <time>2024-04-29T15:21:48.537Z</time>
      </trkpt>
      <trkpt lat="46.4452039" lon="12.9754809">
        <ele>884.1140474277911</ele>
        <time>2024-04-29T15:21:52.537Z</time>
      </trkpt>
      <trkpt lat="46.4452534" lon="12.9756436">
        <ele>884.7360653754798</ele>
        <time>2024-04-29T15:21:58.537Z</time>
      </trkpt>
      <trkpt lat="46.4452591" lon="12.9756691">
        <ele>884.8196230308395</ele>
        <time>2024-04-29T15:21:59.537Z</time>
      </trkpt>
      <trkpt lat="46.4453034" lon="12.9757496">
        <ele>886.021803529244</ele>
        <time>2024-04-29T15:22:05.537Z</time>
      </trkpt>
      <trkpt lat="46.4453112" lon="12.9757643">
        <ele>886.2225758360705</ele>
        <time>2024-04-29T15:22:06.537Z</time>
      </trkpt>
      <trkpt lat="46.4453185" lon="12.9757755">
        <ele>886.4172462772583</ele>
        <time>2024-04-29T15:22:07.537Z</time>
      </trkpt>
      <trkpt lat="46.4453408" lon="12.9758109">
        <ele>887.0063961138019</ele>
        <time>2024-04-29T15:22:10.537Z</time>
      </trkpt>
      <trkpt lat="46.4453652" lon="12.9758554">
        <ele>887.624153560959</ele>
        <time>2024-04-29T15:22:13.537Z</time>
      </trkpt>
      <trkpt lat="46.4453973" lon="12.9759065">
        <ele>888.3957904729062</ele>
        <time>2024-04-29T15:22:16.537Z</time>
      </trkpt>
      <trkpt lat="46.4454211" lon="12.9759419">
        <ele>888.9541808000766</ele>
        <time>2024-04-29T15:22:18.537Z</time>
      </trkpt>
      <trkpt lat="46.445466" lon="12.9759939">
        <ele>890.3901756555852</ele>
        <time>2024-04-29T15:22:22.537Z</time>
      </trkpt>
      <trkpt lat="46.4454905" lon="12.9760154">
        <ele>891.292526146282</ele>
        <time>2024-04-29T15:22:24.537Z</time>
      </trkpt>
      <trkpt lat="46.4455273" lon="12.9760681">
        <ele>892.7968759637804</ele>
        <time>2024-04-29T15:22:28.537Z</time>
      </trkpt>
      <trkpt lat="46.4455431" lon="12.9761078">
        <ele>893.5819986694039</ele>
        <time>2024-04-29T15:22:30.537Z</time>
      </trkpt>
      <trkpt lat="46.4455936" lon="12.9761854">
        <ele>895.6950963049674</ele>
        <time>2024-04-29T15:22:34.537Z</time>
      </trkpt>
      <trkpt lat="46.445608" lon="12.976195">
        <ele>896.208436462191</ele>
        <time>2024-04-29T15:22:35.537Z</time>
      </trkpt>
      <trkpt lat="46.4456458" lon="12.9762366">
        <ele>897.6582953096373</ele>
        <time>2024-04-29T15:22:39.537Z</time>
      </trkpt>
      <trkpt lat="46.4456843" lon="12.9762599">
        <ele>898.719747628043</ele>
        <time>2024-04-29T15:22:42.537Z</time>
      </trkpt>
      <trkpt lat="46.4457006" lon="12.9762609">
        <ele>898.9178492575228</ele>
        <time>2024-04-29T15:22:43.537Z</time>
      </trkpt>
      <trkpt lat="46.4457706" lon="12.9762942">
        <ele>899.9649239182286</ele>
        <time>2024-04-29T15:22:48.537Z</time>
      </trkpt>
      <trkpt lat="46.4457991" lon="12.9762998">
        <ele>900.2994551587213</ele>
        <time>2024-04-29T15:22:50.537Z</time>
      </trkpt>
      <trkpt lat="46.4458556" lon="12.9763248">
        <ele>901.0837133413498</ele>
        <time>2024-04-29T15:22:54.537Z</time>
      </trkpt>
      <trkpt lat="46.4458961" lon="12.9763402">
        <ele>901.5300076396837</ele>
        <time>2024-04-29T15:22:57.537Z</time>
      </trkpt>
      <trkpt lat="46.4459214" lon="12.9763488">
        <ele>901.6893133766731</ele>
        <time>2024-04-29T15:22:59.537Z</time>
      </trkpt>
      <trkpt lat="46.4459491" lon="12.9763713">
        <ele>901.9476848141846</ele>
        <time>2024-04-29T15:23:01.537Z</time>
      </trkpt>
      <trkpt lat="46.4459845" lon="12.9764082">
        <ele>902.2346592540956</ele>
        <time>2024-04-29T15:23:04.537Z</time>
      </trkpt>
      <trkpt lat="46.4460456" lon="12.9764785">
        <ele>902.3917742853746</ele>
        <time>2024-04-29T15:23:09.537Z</time>
      </trkpt>
      <trkpt lat="46.4460973" lon="12.976511">
        <ele>902.120424862148</ele>
        <time>2024-04-29T15:23:14.537Z</time>
      </trkpt>
      <trkpt lat="46.4461236" lon="12.9765154">
        <ele>901.8956690213199</ele>
        <time>2024-04-29T15:23:16.537Z</time>
      </trkpt>
      <trkpt lat="46.4461397" lon="12.9765178">
        <ele>901.7509126680126</ele>
        <time>2024-04-29T15:23:17.537Z</time>
      </trkpt>
      <trkpt lat="46.4461743" lon="12.9765449">
        <ele>901.4203821472211</ele>
        <time>2024-04-29T15:23:21.537Z</time>
      </trkpt>
      <trkpt lat="46.4461946" lon="12.9765638">
        <ele>901.2128594790288</ele>
        <time>2024-04-29T15:23:23.537Z</time>
      </trkpt>
      <trkpt lat="46.4462111" lon="12.9765713">
        <ele>901.0302658925078</ele>
        <time>2024-04-29T15:23:25.537Z</time>
      </trkpt>
      <trkpt lat="46.4462186" lon="12.9765742">
        <ele>900.9535636180849</ele>
        <time>2024-04-29T15:23:26.537Z</time>
      </trkpt>
      <trkpt lat="46.4462367" lon="12.9765846">
        <ele>900.7780719038774</ele>
        <time>2024-04-29T15:23:29.537Z</time>
      </trkpt>
      <trkpt lat="46.4462571" lon="12.9765991">
        <ele>900.5819431774787</ele>
        <time>2024-04-29T15:23:31.537Z</time>
      </trkpt>
      <trkpt lat="46.446278" lon="12.9766213">
        <ele>900.4121599913581</ele>
        <time>2024-04-29T15:23:33.537Z</time>
      </trkpt>
      <trkpt lat="46.4462901" lon="12.9766228">
        <ele>900.2741840959766</ele>
        <time>2024-04-29T15:23:36.537Z</time>
      </trkpt>
      <trkpt lat="46.4463407" lon="12.9765816">
        <ele>899.3989094760746</ele>
        <time>2024-04-29T15:23:42.537Z</time>
      </trkpt>
      <trkpt lat="46.4463576" lon="12.9765795">
        <ele>899.1058079093239</ele>
        <time>2024-04-29T15:23:45.537Z</time>
      </trkpt>
      <trkpt lat="46.4463974" lon="12.9766263">
        <ele>898.5564163518842</ele>
        <time>2024-04-29T15:23:50.537Z</time>
      </trkpt>
      <trkpt lat="46.4464124" lon="12.9766513">
        <ele>898.3647994518283</ele>
        <time>2024-04-29T15:23:53.537Z</time>
      </trkpt>
      <trkpt lat="46.446427" lon="12.9766668">
        <ele>898.2219364988401</ele>
        <time>2024-04-29T15:23:56.537Z</time>
      </trkpt>
      <trkpt lat="46.4464496" lon="12.9766717">
        <ele>897.859398548684</ele>
        <time>2024-04-29T15:23:58.537Z</time>
      </trkpt>
      <trkpt lat="46.4464836" lon="12.9766891">
        <ele>897.4373800622789</ele>
        <time>2024-04-29T15:24:01.537Z</time>
      </trkpt>
      <trkpt lat="46.4465013" lon="12.9766908">
        <ele>897.1334709684843</ele>
        <time>2024-04-29T15:24:02.537Z</time>
      </trkpt>
      <trkpt lat="46.4465503" lon="12.9767557">
        <ele>896.9941818701682</ele>
        <time>2024-04-29T15:24:06.537Z</time>
      </trkpt>
      <trkpt lat="46.4465631" lon="12.9767764">
        <ele>896.8400605148647</ele>
        <time>2024-04-29T15:24:07.537Z</time>
      </trkpt>
      <trkpt lat="46.4465753" lon="12.9767858">
        <ele>896.5479497960781</ele>
        <time>2024-04-29T15:24:08.537Z</time>
      </trkpt>
      <trkpt lat="46.4465855" lon="12.9767859">
        <ele>896.2042870074522</ele>
        <time>2024-04-29T15:24:09.537Z</time>
      </trkpt>
      <trkpt lat="46.4466237" lon="12.9767749">
        <ele>894.7714606878826</ele>
        <time>2024-04-29T15:24:12.537Z</time>
      </trkpt>
      <trkpt lat="46.4466716" lon="12.9767723">
        <ele>893.1182514009078</ele>
        <time>2024-04-29T15:24:18.537Z</time>
      </trkpt>
      <trkpt lat="46.4467331" lon="12.9767908">
        <ele>891.2973318528841</ele>
        <time>2024-04-29T15:24:24.537Z</time>
      </trkpt>
      <trkpt lat="46.4467443" lon="12.9768018">
        <ele>891.1068593448329</ele>
        <time>2024-04-29T15:24:25.537Z</time>
      </trkpt>
      <trkpt lat="46.4467621" lon="12.9768246">
        <ele>890.8453000023223</ele>
        <time>2024-04-29T15:24:29.537Z</time>
      </trkpt>
      <trkpt lat="46.4467967" lon="12.9768671">
        <ele>890.3413263606396</ele>
        <time>2024-04-29T15:24:33.537Z</time>
      </trkpt>
      <trkpt lat="46.4468017" lon="12.9768879">
        <ele>890.4460428420025</ele>
        <time>2024-04-29T15:24:35.537Z</time>
      </trkpt>
      <trkpt lat="46.4468038" lon="12.9768997">
        <ele>890.5155759404392</ele>
        <time>2024-04-29T15:24:36.537Z</time>
      </trkpt>
      <trkpt lat="46.4468707" lon="12.9769987">
        <ele>891.0424755748329</ele>
        <time>2024-04-29T15:24:42.537Z</time>
      </trkpt>
      <trkpt lat="46.4468924" lon="12.9769969">
        <ele>890.4190387989145</ele>
        <time>2024-04-29T15:24:43.537Z</time>
      </trkpt>
      <trkpt lat="46.4469525" lon="12.9770392">
        <ele>890.0103312040877</ele>
        <time>2024-04-29T15:24:47.537Z</time>
      </trkpt>
      <trkpt lat="46.4469682" lon="12.9770494">
        <ele>889.8720014798718</ele>
        <time>2024-04-29T15:24:48.537Z</time>
      </trkpt>
      <trkpt lat="46.4469844" lon="12.9770592">
        <ele>889.7467616433048</ele>
        <time>2024-04-29T15:24:52.537Z</time>
      </trkpt>
      <trkpt lat="46.4469914" lon="12.9770689">
        <ele>889.8248161422753</ele>
        <time>2024-04-29T15:24:54.537Z</time>
      </trkpt>
      <trkpt lat="46.4469981" lon="12.9770833">
        <ele>890.0191302971436</ele>
        <time>2024-04-29T15:24:55.537Z</time>
      </trkpt>
      <trkpt lat="46.4470149" lon="12.9771304">
        <ele>890.7184593796277</ele>
        <time>2024-04-29T15:25:01.537Z</time>
      </trkpt>
      <trkpt lat="46.4470164" lon="12.9771333">
        <ele>890.7453256243684</ele>
        <time>2024-04-29T15:25:02.537Z</time>
      </trkpt>
      <trkpt lat="46.4470195" lon="12.9771888">
        <ele>891.9668145624657</ele>
        <time>2024-04-29T15:25:08.537Z</time>
      </trkpt>
      <trkpt lat="46.4470209" lon="12.9771982">
        <ele>892.1436434377046</ele>
        <time>2024-04-29T15:25:09.537Z</time>
      </trkpt>
      <trkpt lat="46.4470205" lon="12.9772242">
        <ele>892.7681252571375</ele>
        <time>2024-04-29T15:25:14.537Z</time>
      </trkpt>
      <trkpt lat="46.4470215" lon="12.9772316">
        <ele>892.9081925342339</ele>
        <time>2024-04-29T15:25:15.537Z</time>
      </trkpt>
      <trkpt lat="46.4470222" lon="12.9773014">
        <ele>895.0375295730138</ele>
        <time>2024-04-29T15:25:21.537Z</time>
      </trkpt>
      <trkpt lat="46.4470216" lon="12.9773604">
        <ele>897.1292773481655</ele>
        <time>2024-04-29T15:25:26.537Z</time>
      </trkpt>
      <trkpt lat="46.447023" lon="12.9773773">
        <ele>897.6653405288569</ele>
        <time>2024-04-29T15:25:27.537Z</time>
      </trkpt>
      <trkpt lat="46.4470327" lon="12.9773937">
        <ele>897.7594321992242</ele>
        <time>2024-04-29T15:25:29.537Z</time>
      </trkpt>
      <trkpt lat="46.4470607" lon="12.9773951">
        <ele>896.3840871044956</ele>
        <time>2024-04-29T15:25:32.537Z</time>
      </trkpt>
      <trkpt lat="46.4470688" lon="12.9773908">
        <ele>895.8409574171043</ele>
        <time>2024-04-29T15:25:33.537Z</time>
      </trkpt>
      <trkpt lat="46.4470773" lon="12.9773879">
        <ele>895.326320768244</ele>
        <time>2024-04-29T15:25:34.537Z</time>
      </trkpt>
      <trkpt lat="46.447106" lon="12.977398">
        <ele>894.1843383365508</ele>
        <time>2024-04-29T15:25:37.537Z</time>
      </trkpt>
      <trkpt lat="46.4471294" lon="12.9774419">
        <ele>894.1369976248446</ele>
        <time>2024-04-29T15:25:40.537Z</time>
      </trkpt>
      <trkpt lat="46.4471369" lon="12.9774569">
        <ele>894.1092846884187</ele>
        <time>2024-04-29T15:25:41.537Z</time>
      </trkpt>
      <trkpt lat="46.4471512" lon="12.9774899">
        <ele>894.1093970519662</ele>
        <time>2024-04-29T15:25:44.537Z</time>
      </trkpt>
      <trkpt lat="46.4471558" lon="12.9774984">
        <ele>894.0450944010332</ele>
        <time>2024-04-29T15:25:45.537Z</time>
      </trkpt>
      <trkpt lat="46.4471662" lon="12.9774978">
        <ele>893.4290399903552</ele>
        <time>2024-04-29T15:25:47.537Z</time>
      </trkpt>
      <trkpt lat="46.4471868" lon="12.9775248">
        <ele>892.7908311667672</ele>
        <time>2024-04-29T15:25:51.537Z</time>
      </trkpt>
      <trkpt lat="46.4471769" lon="12.9776093">
        <ele>895.0796638859777</ele>
        <time>2024-04-29T15:25:56.537Z</time>
      </trkpt>
      <trkpt lat="46.4471811" lon="12.9776443">
        <ele>895.3462503959888</ele>
        <time>2024-04-29T15:25:58.537Z</time>
      </trkpt>
      <trkpt lat="46.4471895" lon="12.9776838">
        <ele>895.3927577709518</ele>
        <time>2024-04-29T15:26:04.537Z</time>
      </trkpt>
      <trkpt lat="46.4471951" lon="12.9776945">
        <ele>895.177681417621</ele>
        <time>2024-04-29T15:26:07.537Z</time>
      </trkpt>
      <trkpt lat="46.4472028" lon="12.9777073">
        <ele>894.8662965213887</ele>
        <time>2024-04-29T15:26:11.537Z</time>
      </trkpt>
      <trkpt lat="46.4472063" lon="12.9777135">
        <ele>894.7767371592585</ele>
        <time>2024-04-29T15:26:13.537Z</time>
      </trkpt>
      <trkpt lat="46.4472076" lon="12.9777566">
        <ele>895.36138976575</ele>
        <time>2024-04-29T15:26:17.537Z</time>
      </trkpt>
      <trkpt lat="46.4472084" lon="12.9777621">
        <ele>895.4027584047302</ele>
        <time>2024-04-29T15:26:18.537Z</time>
      </trkpt>
      <trkpt lat="46.4472246" lon="12.9777688">
        <ele>894.6550554394269</ele>
        <time>2024-04-29T15:26:22.537Z</time>
      </trkpt>
      <trkpt lat="46.4472336" lon="12.9777905">
        <ele>894.5237339402661</ele>
        <time>2024-04-29T15:26:27.537Z</time>
      </trkpt>
      <trkpt lat="46.447238" lon="12.9777921">
        <ele>894.3200942230409</ele>
        <time>2024-04-29T15:26:28.537Z</time>
      </trkpt>
      <trkpt lat="46.4472475" lon="12.9778149">
        <ele>894.1918249880255</ele>
        <time>2024-04-29T15:26:32.537Z</time>
      </trkpt>
      <trkpt lat="46.4472576" lon="12.9778192">
        <ele>893.7408437851882</ele>
        <time>2024-04-29T15:26:36.537Z</time>
      </trkpt>
      <trkpt lat="46.447258" lon="12.9778253">
        <ele>893.8194065743348</ele>
        <time>2024-04-29T15:26:37.537Z</time>
      </trkpt>
      <trkpt lat="46.4472665" lon="12.9778253">
        <ele>893.4210676006776</ele>
        <time>2024-04-29T15:26:39.537Z</time>
      </trkpt>
      <trkpt lat="46.4472758" lon="12.9778275">
        <ele>893.0428186651047</ele>
        <time>2024-04-29T15:26:42.537Z</time>
      </trkpt>
      <trkpt lat="46.4472758" lon="12.9778267">
        <ele>893.0295340079936</ele>
        <time>2024-04-29T15:26:44.537Z</time>
      </trkpt>
      <trkpt lat="46.4472704" lon="12.9778311">
        <ele>893.3428236172224</ele>
        <time>2024-04-29T15:26:48.537Z</time>
      </trkpt>
      <trkpt lat="46.4472635" lon="12.9778303">
        <ele>893.6366856631744</ele>
        <time>2024-04-29T15:26:51.537Z</time>
      </trkpt>
      <trkpt lat="46.4472591" lon="12.9778278">
        <ele>893.8035983589396</ele>
        <time>2024-04-29T15:26:53.537Z</time>
      </trkpt>
      <trkpt lat="46.4472437" lon="12.9778192">
        <ele>894.4564719896404</ele>
        <time>2024-04-29T15:26:56.537Z</time>
      </trkpt>
      <trkpt lat="46.4472402" lon="12.9778326">
        <ele>894.8497861009463</ele>
        <time>2024-04-29T15:27:02.537Z</time>
      </trkpt>
      <trkpt lat="46.4472328" lon="12.9778665">
        <ele>895.7630340452298</ele>
        <time>2024-04-29T15:27:05.537Z</time>
      </trkpt>
      <trkpt lat="46.4472364" lon="12.9778968">
        <ele>896.0606834824412</ele>
        <time>2024-04-29T15:27:06.537Z</time>
      </trkpt>
      <trkpt lat="46.4472417" lon="12.9779264">
        <ele>896.2675678316874</ele>
        <time>2024-04-29T15:27:07.537Z</time>
      </trkpt>
      <trkpt lat="46.4472321" lon="12.9779601">
        <ele>897.2821311031178</ele>
        <time>2024-04-29T15:27:09.537Z</time>
      </trkpt>
      <trkpt lat="46.4472208" lon="12.977966">
        <ele>897.9226214787991</ele>
        <time>2024-04-29T15:27:10.537Z</time>
      </trkpt>
      <trkpt lat="46.4472069" lon="12.9779627">
        <ele>898.5412087659813</ele>
        <time>2024-04-29T15:27:11.537Z</time>
      </trkpt>
      <trkpt lat="46.4471879" lon="12.9779534">
        <ele>899.5767341791735</ele>
        <time>2024-04-29T15:27:12.537Z</time>
      </trkpt>
      <trkpt lat="46.447149" lon="12.9779557">
        <ele>902.2125367825082</ele>
        <time>2024-04-29T15:27:14.537Z</time>
      </trkpt>
      <trkpt lat="46.4470996" lon="12.9779783">
        <ele>905.766991489149</ele>
        <time>2024-04-29T15:27:16.537Z</time>
      </trkpt>
      <trkpt lat="46.4470857" lon="12.977998">
        <ele>906.8336838763012</ele>
        <time>2024-04-29T15:27:17.537Z</time>
      </trkpt>
      <trkpt lat="46.4470921" lon="12.9780432">
        <ele>906.7782468820585</ele>
        <time>2024-04-29T15:27:18.537Z</time>
      </trkpt>
      <trkpt lat="46.4470832" lon="12.9780655">
        <ele>907.5095219715395</ele>
        <time>2024-04-29T15:27:19.537Z</time>
      </trkpt>
      <trkpt lat="46.4470717" lon="12.9780935">
        <ele>908.4180868102803</ele>
        <time>2024-04-29T15:27:21.537Z</time>
      </trkpt>
      <trkpt lat="46.4470437" lon="12.978164">
        <ele>910.4680128424852</ele>
        <time>2024-04-29T15:27:24.537Z</time>
      </trkpt>
      <trkpt lat="46.4470332" lon="12.9782103">
        <ele>911.3563897337197</ele>
        <time>2024-04-29T15:27:26.537Z</time>
      </trkpt>
      <trkpt lat="46.4470189" lon="12.9782367">
        <ele>912.4190021410556</ele>
        <time>2024-04-29T15:27:28.537Z</time>
      </trkpt>
      <trkpt lat="46.4470042" lon="12.9782425">
        <ele>913.2015133175968</ele>
        <time>2024-04-29T15:27:29.537Z</time>
      </trkpt>
      <trkpt lat="46.4469876" lon="12.9782439">
        <ele>914.018850707572</ele>
        <time>2024-04-29T15:27:30.537Z</time>
      </trkpt>
      <trkpt lat="46.4469557" lon="12.9782456">
        <ele>915.5519596826523</ele>
        <time>2024-04-29T15:27:31.537Z</time>
      </trkpt>
      <trkpt lat="46.4469011" lon="12.978243">
        <ele>918.0144138420011</ele>
        <time>2024-04-29T15:27:33.537Z</time>
      </trkpt>
      <trkpt lat="46.4468354" lon="12.9782255">
        <ele>920.8100342222723</ele>
        <time>2024-04-29T15:27:35.537Z</time>
      </trkpt>
      <trkpt lat="46.4467584" lon="12.9782223">
        <ele>923.6806986066663</ele>
        <time>2024-04-29T15:27:38.537Z</time>
      </trkpt>
      <trkpt lat="46.4466695" lon="12.9782214">
        <ele>925.4378089457273</ele>
        <time>2024-04-29T15:27:41.537Z</time>
      </trkpt>
      <trkpt lat="46.4465925" lon="12.9782174">
        <ele>926.6316421475266</ele>
        <time>2024-04-29T15:27:43.537Z</time>
      </trkpt>
      <trkpt lat="46.4464917" lon="12.9781833">
        <ele>927.3765036505185</ele>
        <time>2024-04-29T15:27:48.537Z</time>
      </trkpt>
      <trkpt lat="46.4464731" lon="12.9781808">
        <ele>927.4702668470333</ele>
        <time>2024-04-29T15:27:49.537Z</time>
      </trkpt>
      <trkpt lat="46.4464307" lon="12.9781513">
        <ele>927.3768343496429</ele>
        <time>2024-04-29T15:27:51.537Z</time>
      </trkpt>
      <trkpt lat="46.4464025" lon="12.9781235">
        <ele>927.1670796182304</ele>
        <time>2024-04-29T15:27:52.537Z</time>
      </trkpt>
      <trkpt lat="46.4463743" lon="12.978068">
        <ele>926.5389515389693</ele>
        <time>2024-04-29T15:27:54.537Z</time>
      </trkpt>
      <trkpt lat="46.4463485" lon="12.9780307">
        <ele>926.149055864033</ele>
        <time>2024-04-29T15:27:56.537Z</time>
      </trkpt>
      <trkpt lat="46.4462966" lon="12.9780085">
        <ele>926.1316793376589</ele>
        <time>2024-04-29T15:27:59.537Z</time>
      </trkpt>
      <trkpt lat="46.4462763" lon="12.9779902">
        <ele>926.0131274440331</ele>
        <time>2024-04-29T15:28:01.537Z</time>
      </trkpt>
      <trkpt lat="46.4462546" lon="12.9779688">
        <ele>925.8607033625248</ele>
        <time>2024-04-29T15:28:03.537Z</time>
      </trkpt>
      <trkpt lat="46.4462472" lon="12.9779602">
        <ele>925.7905170986432</ele>
        <time>2024-04-29T15:28:04.537Z</time>
      </trkpt>
      <trkpt lat="46.4462191" lon="12.9780083">
        <ele>926.6530602195306</ele>
        <time>2024-04-29T15:28:06.537Z</time>
      </trkpt>
      <trkpt lat="46.4461083" lon="12.9781375">
        <ele>929.319861503653</ele>
        <time>2024-04-29T15:28:09.537Z</time>
      </trkpt>
      <trkpt lat="46.446012" lon="12.978231">
        <ele>931.8800907324238</ele>
        <time>2024-04-29T15:28:11.537Z</time>
      </trkpt>
      <trkpt lat="46.44598" lon="12.9783292">
        <ele>933.8360988816921</ele>
        <time>2024-04-29T15:28:13.537Z</time>
      </trkpt>
      <trkpt lat="46.4459759" lon="12.9783857">
        <ele>934.7958519330257</ele>
        <time>2024-04-29T15:28:14.537Z</time>
      </trkpt>
      <trkpt lat="46.4459717" lon="12.9785006">
        <ele>936.7268205063424</ele>
        <time>2024-04-29T15:28:16.537Z</time>
      </trkpt>
      <trkpt lat="46.445955" lon="12.9785558">
        <ele>937.880047826842</ele>
        <time>2024-04-29T15:28:17.537Z</time>
      </trkpt>
      <trkpt lat="46.4459404" lon="12.9786031">
        <ele>938.9592790080239</ele>
        <time>2024-04-29T15:28:18.537Z</time>
      </trkpt>
      <trkpt lat="46.4458984" lon="12.9787047">
        <ele>941.5201092057546</ele>
        <time>2024-04-29T15:28:20.537Z</time>
      </trkpt>
      <trkpt lat="46.4458764" lon="12.978766">
        <ele>943.1190352954932</ele>
        <time>2024-04-29T15:28:21.537Z</time>
      </trkpt>
      <trkpt lat="46.4458562" lon="12.9788283">
        <ele>944.6542280498802</ele>
        <time>2024-04-29T15:28:22.537Z</time>
      </trkpt>
      <trkpt lat="46.4458396" lon="12.978886">
        <ele>946.0060027026105</ele>
        <time>2024-04-29T15:28:23.537Z</time>
      </trkpt>
      <trkpt lat="46.445825" lon="12.9789335">
        <ele>947.0261310515262</ele>
        <time>2024-04-29T15:28:24.537Z</time>
      </trkpt>
      <trkpt lat="46.4457896" lon="12.9790199">
        <ele>948.9006839225026</ele>
        <time>2024-04-29T15:28:26.537Z</time>
      </trkpt>
      <trkpt lat="46.4457279" lon="12.9791114">
        <ele>951.1069154918252</ele>
        <time>2024-04-29T15:28:28.537Z</time>
      </trkpt>
      <trkpt lat="46.4456952" lon="12.9791539">
        <ele>952.0399800770964</ele>
        <time>2024-04-29T15:28:29.537Z</time>
      </trkpt>
      <trkpt lat="46.4456688" lon="12.9791987">
        <ele>952.8739910164204</ele>
        <time>2024-04-29T15:28:30.537Z</time>
      </trkpt>
      <trkpt lat="46.4456465" lon="12.9792453">
        <ele>953.4898813809743</ele>
        <time>2024-04-29T15:28:31.537Z</time>
      </trkpt>
      <trkpt lat="46.4456035" lon="12.9793473">
        <ele>954.4558180471139</ele>
        <time>2024-04-29T15:28:33.537Z</time>
      </trkpt>
      <trkpt lat="46.4455671" lon="12.9794406">
        <ele>955.2939435860146</ele>
        <time>2024-04-29T15:28:35.537Z</time>
      </trkpt>
      <trkpt lat="46.4455367" lon="12.9795228">
        <ele>956.0577473473261</ele>
        <time>2024-04-29T15:28:37.537Z</time>
      </trkpt>
      <trkpt lat="46.44548" lon="12.9796889">
        <ele>958.3073914176514</ele>
        <time>2024-04-29T15:28:41.537Z</time>
      </trkpt>
      <trkpt lat="46.4454659" lon="12.979741">
        <ele>959.0759285307429</ele>
        <time>2024-04-29T15:28:43.537Z</time>
      </trkpt>
      <trkpt lat="46.4454654" lon="12.9797509">
        <ele>959.2065225236353</ele>
        <time>2024-04-29T15:28:46.537Z</time>
      </trkpt>
      <trkpt lat="46.445442" lon="12.9797952">
        <ele>959.9634754677022</ele>
        <time>2024-04-29T15:36:21.537Z</time>
      </trkpt>
      <trkpt lat="46.4454223" lon="12.9798027">
        <ele>960.182856169105</ele>
        <time>2024-04-29T15:36:24.537Z</time>
      </trkpt>
      <trkpt lat="46.445359" lon="12.9798621">
        <ele>961.1059879697865</ele>
        <time>2024-04-29T15:36:27.537Z</time>
      </trkpt>
      <trkpt lat="46.4453243" lon="12.9798774">
        <ele>961.309506168031</ele>
        <time>2024-04-29T15:36:28.537Z</time>
      </trkpt>
      <trkpt lat="46.4452828" lon="12.9798918">
        <ele>961.4711543273188</ele>
        <time>2024-04-29T15:36:29.537Z</time>
      </trkpt>
      <trkpt lat="46.4452319" lon="12.9799087">
        <ele>961.6258745790944</ele>
        <time>2024-04-29T15:36:30.537Z</time>
      </trkpt>
      <trkpt lat="46.4451174" lon="12.9799644">
        <ele>962.0177857892783</ele>
        <time>2024-04-29T15:36:32.537Z</time>
      </trkpt>
      <trkpt lat="46.4449805" lon="12.9800342">
        <ele>962.3990909071545</ele>
        <time>2024-04-29T15:36:34.537Z</time>
      </trkpt>
      <trkpt lat="46.4449124" lon="12.9800783">
        <ele>963.1187259505186</ele>
        <time>2024-04-29T15:36:35.537Z</time>
      </trkpt>
      <trkpt lat="46.4448502" lon="12.9801219">
        <ele>963.8426757125586</ele>
        <time>2024-04-29T15:36:36.537Z</time>
      </trkpt>
      <trkpt lat="46.4447937" lon="12.980167">
        <ele>964.510939821175</ele>
        <time>2024-04-29T15:36:37.537Z</time>
      </trkpt>
      <trkpt lat="46.4447381" lon="12.98022">
        <ele>966.091428986977</ele>
        <time>2024-04-29T15:36:38.537Z</time>
      </trkpt>
    </trkseg>
  </trk>
</gpx>
