<?xml version="1.0" encoding="UTF-8"?>
<gpx creator="https://gpx.studio" version="1.1" schemaLocation="http://www.topografix.com/GPX/1/1 http://www.topografix.com/GPX/1/1/gpx.xsd http://www.garmin.com/xmlschemas/GpxExtensions/v3 http://www.garmin.com/xmlschemas/GpxExtensionsv3.xsd http://www.garmin.com/xmlschemas/TrackPointExtension/v1 http://www.garmin.com/xmlschemas/TrackPointExtensionv1.xsd http://www.garmin.com/xmlschemas/PowerExtension/v1 http://www.garmin.com/xmlschemas/PowerExtensionv1.xsd http://www.topografix.com/GPX/gpx_style/0/2 http://www.topografix.com/GPX/gpx_style/0/2/gpx_style.xsd" xmlns="http://www.topografix.com/GPX/1/1" xmlns:xsi="http://www.w3.org/2001/XMLSchema-instance" xsi:schemaLocation="http://www.topografix.com/GPX/1/1 http://www.topografix.com/GPX/1/1/gpx.xsd http://www.garmin.com/xmlschemas/GpxExtensions/v3 http://www.garmin.com/xmlschemas/GpxExtensionsv3.xsd http://www.garmin.com/xmlschemas/TrackPointExtension/v1 http://www.garmin.com/xmlschemas/TrackPointExtensionv1.xsd http://www.garmin.com/xmlschemas/PowerExtension/v1 http://www.garmin.com/xmlschemas/PowerExtensionv1.xsd http://www.topografix.com/GPX/gpx_style/0/2 http://www.topografix.com/GPX/gpx_style/0/2/gpx_style.xsd" xmlns:gpxtpx="http://www.garmin.com/xmlschemas/TrackPointExtension/v1" xmlns:gpxx="http://www.garmin.com/xmlschemas/GpxExtensions/v3" xmlns:gpxpx="http://www.garmin.com/xmlschemas/PowerExtension/v1" xmlns:gpx_style="http://www.topografix.com/GPX/gpx_style/0/2">
  <metadata>
    <name>LAUCO_#_7</name>
    <author>
      <name>gpx.studio</name>
      <link href="https://gpx.studio"/>
    </author>
  </metadata>
  <trk>
    <name>LAUCO_#_7</name>
    <trkseg>
      <trkpt lat="46.419971" lon="12.949809">
        <ele>932.4556892152185</ele>
      </trkpt>
      <trkpt lat="46.419978" lon="12.949818">
        <ele>932.740422083159</ele>
      </trkpt>
      <trkpt lat="46.419831" lon="12.949954">
        <ele>933.4582237389882</ele>
      </trkpt>
      <trkpt lat="46.419652" lon="12.950008">
        <ele>932.0234618251008</ele>
      </trkpt>
      <trkpt lat="46.419632" lon="12.950061">
        <ele>933.5531831279806</ele>
      </trkpt>
      <trkpt lat="46.419632" lon="12.950131">
        <ele>936.2603335444136</ele>
      </trkpt>
      <trkpt lat="46.419809" lon="12.950392">
        <ele>947.1590719591094</ele>
      </trkpt>
      <trkpt lat="46.419838" lon="12.950506">
        <ele>950.4712467847818</ele>
      </trkpt>
      <trkpt lat="46.419336" lon="12.95069">
        <ele>965.0300606365569</ele>
      </trkpt>
      <trkpt lat="46.419035" lon="12.951057">
        <ele>963.4763723786201</ele>
      </trkpt>
      <trkpt lat="46.419124" lon="12.951164">
        <ele>969.511635709835</ele>
      </trkpt>
      <trkpt lat="46.419233" lon="12.951251">
        <ele>975.2379997906297</ele>
      </trkpt>
      <trkpt lat="46.419331" lon="12.951316">
        <ele>980.2906574043063</ele>
      </trkpt>
      <trkpt lat="46.419333" lon="12.951318">
        <ele>980.4162575602471</ele>
      </trkpt>
      <trkpt lat="46.419455" lon="12.951312">
        <ele>983.337080508937</ele>
      </trkpt>
      <trkpt lat="46.419521" lon="12.951345">
        <ele>985.7128433097406</ele>
      </trkpt>
      <trkpt lat="46.419608" lon="12.951449">
        <ele>991.9761456781217</ele>
      </trkpt>
      <trkpt lat="46.419607" lon="12.951492">
        <ele>994.4210554992718</ele>
      </trkpt>
      <trkpt lat="46.419508" lon="12.951538">
        <ele>994.132773558191</ele>
      </trkpt>
      <trkpt lat="46.419395" lon="12.951659">
        <ele>995.2173785545688</ele>
      </trkpt>
      <trkpt lat="46.419371" lon="12.951757">
        <ele>998.0011575883586</ele>
      </trkpt>
      <trkpt lat="46.419404" lon="12.951861">
        <ele>1004.2711256649427</ele>
      </trkpt>
      <trkpt lat="46.419384" lon="12.951932">
        <ele>1006.13169549862</ele>
      </trkpt>
      <trkpt lat="46.4192" lon="12.95217">
        <ele>1002.6108649509736</ele>
      </trkpt>
      <trkpt lat="46.419071" lon="12.952724">
        <ele>1008.9076746559712</ele>
      </trkpt>
      <trkpt lat="46.41908" lon="12.952835">
        <ele>1012.1415095984943</ele>
      </trkpt>
      <trkpt lat="46.419033" lon="12.953119">
        <ele>1013.9893055515894</ele>
      </trkpt>
      <trkpt lat="46.419107" lon="12.953203">
        <ele>1020.4937737361106</ele>
      </trkpt>
      <trkpt lat="46.419099" lon="12.953401">
        <ele>1021.3283073915068</ele>
      </trkpt>
      <trkpt lat="46.419131" lon="12.953364">
        <ele>1022.9259688860001</ele>
      </trkpt>
      <trkpt lat="46.419206" lon="12.953401">
        <ele>1025.3011466855808</ele>
      </trkpt>
      <trkpt lat="46.419237" lon="12.953369">
        <ele>1026.200445696224</ele>
      </trkpt>
      <trkpt lat="46.419403" lon="12.95295">
        <ele>1030.9484394495298</ele>
      </trkpt>
      <trkpt lat="46.419549" lon="12.952768">
        <ele>1032.2803052431498</ele>
      </trkpt>
      <trkpt lat="46.419808" lon="12.952583">
        <ele>1031.722583200743</ele>
      </trkpt>
      <trkpt lat="46.419913" lon="12.952597">
        <ele>1031.5305265702978</ele>
      </trkpt>
      <trkpt lat="46.419999" lon="12.952551">
        <ele>1031.1172995256309</ele>
      </trkpt>
      <trkpt lat="46.420135" lon="12.952566">
        <ele>1030.1189101992054</ele>
      </trkpt>
      <trkpt lat="46.420326" lon="12.952588">
        <ele>1028.4343138242061</ele>
      </trkpt>
      <trkpt lat="46.420559" lon="12.952908">
        <ele>1027.2337618836677</ele>
      </trkpt>
      <trkpt lat="46.420694" lon="12.952946">
        <ele>1027.3824072324276</ele>
      </trkpt>
      <trkpt lat="46.420852" lon="12.952891">
        <ele>1025.5747973255077</ele>
      </trkpt>
      <trkpt lat="46.420935" lon="12.952933">
        <ele>1024.3642474625271</ele>
      </trkpt>
      <trkpt lat="46.421137" lon="12.95316">
        <ele>1015.9857836339477</ele>
      </trkpt>
      <trkpt lat="46.421249" lon="12.953212">
        <ele>1013.0464209478105</ele>
      </trkpt>
      <trkpt lat="46.42139" lon="12.953141">
        <ele>1010.6427340101302</ele>
      </trkpt>
      <trkpt lat="46.421551" lon="12.953131">
        <ele>1009.3158124741167</ele>
      </trkpt>
      <trkpt lat="46.421752" lon="12.953302">
        <ele>1008.9000000000015</ele>
      </trkpt>
      <trkpt lat="46.42181" lon="12.953421">
        <ele>1007.522536301981</ele>
      </trkpt>
      <trkpt lat="46.421971" lon="12.953531">
        <ele>1004.3351347239204</ele>
      </trkpt>
      <trkpt lat="46.422353" lon="12.953512">
        <ele>997.1497411023827</ele>
      </trkpt>
      <trkpt lat="46.422425" lon="12.953446">
        <ele>996.6547046126341</ele>
      </trkpt>
      <trkpt lat="46.422505" lon="12.953289">
        <ele>997.2053254309114</ele>
      </trkpt>
      <trkpt lat="46.422596" lon="12.953225">
        <ele>995.9618511348156</ele>
      </trkpt>
      <trkpt lat="46.422711" lon="12.953299">
        <ele>993.5772618317047</ele>
      </trkpt>
      <trkpt lat="46.422882" lon="12.953218">
        <ele>992.2626301363558</ele>
      </trkpt>
      <trkpt lat="46.422948" lon="12.953492">
        <ele>991.447099184321</ele>
      </trkpt>
      <trkpt lat="46.422912" lon="12.953806">
        <ele>989.158747010197</ele>
      </trkpt>
      <trkpt lat="46.422916" lon="12.953887">
        <ele>988.6527528566967</ele>
      </trkpt>
      <trkpt lat="46.422932" lon="12.954176">
        <ele>985.7603632761308</ele>
      </trkpt>
      <trkpt lat="46.423142" lon="12.954383">
        <ele>992.8383837930016</ele>
      </trkpt>
      <trkpt lat="46.423319" lon="12.954713">
        <ele>996.5471668821472</ele>
      </trkpt>
      <trkpt lat="46.424293" lon="12.954339">
        <ele>1029.2685039572416</ele>
      </trkpt>
      <trkpt lat="46.424476" lon="12.954329">
        <ele>1030.8309028779167</ele>
      </trkpt>
      <trkpt lat="46.42484" lon="12.954543">
        <ele>1033.0405101253652</ele>
      </trkpt>
      <trkpt lat="46.425016" lon="12.954508">
        <ele>1034.8123765014443</ele>
      </trkpt>
      <trkpt lat="46.425211" lon="12.954323">
        <ele>1035.8475950960587</ele>
      </trkpt>
      <trkpt lat="46.425319" lon="12.954449">
        <ele>1035.3974912421857</ele>
      </trkpt>
      <trkpt lat="46.425393" lon="12.954673">
        <ele>1035.699893127881</ele>
      </trkpt>
      <trkpt lat="46.425568" lon="12.954959">
        <ele>1038.2797809195586</ele>
      </trkpt>
      <trkpt lat="46.425911" lon="12.955332">
        <ele>1053.5882310157172</ele>
      </trkpt>
      <trkpt lat="46.426049" lon="12.955549">
        <ele>1058.8037885668546</ele>
      </trkpt>
      <trkpt lat="46.426149" lon="12.955828">
        <ele>1061.4861621995803</ele>
      </trkpt>
      <trkpt lat="46.426255" lon="12.95589">
        <ele>1064.7573544084562</ele>
      </trkpt>
      <trkpt lat="46.426669" lon="12.956002">
        <ele>1066.2976513602773</ele>
      </trkpt>
      <trkpt lat="46.426738" lon="12.956126">
        <ele>1064.4697988769485</ele>
      </trkpt>
      <trkpt lat="46.426902" lon="12.956218">
        <ele>1062.8193275681622</ele>
      </trkpt>
      <trkpt lat="46.426992" lon="12.956268">
        <ele>1061.863966729571</ele>
      </trkpt>
      <trkpt lat="46.427115" lon="12.956247">
        <ele>1062.6802929074638</ele>
      </trkpt>
      <trkpt lat="46.427377" lon="12.956428">
        <ele>1060.9878467851963</ele>
      </trkpt>
      <trkpt lat="46.427743" lon="12.956486">
        <ele>1064.60459906419</ele>
      </trkpt>
      <trkpt lat="46.427804" lon="12.956464">
        <ele>1065.1874007000808</ele>
      </trkpt>
      <trkpt lat="46.427824" lon="12.95638">
        <ele>1066.2320568887517</ele>
      </trkpt>
      <trkpt lat="46.42786" lon="12.95604">
        <ele>1069.233376757502</ele>
      </trkpt>
      <trkpt lat="46.42791" lon="12.955889">
        <ele>1069.7418217681143</ele>
      </trkpt>
      <trkpt lat="46.428295" lon="12.955829">
        <ele>1067.8606622481961</ele>
      </trkpt>
      <trkpt lat="46.428424" lon="12.955668">
        <ele>1069.7085893635053</ele>
      </trkpt>
      <trkpt lat="46.428599" lon="12.955526">
        <ele>1069.1790199897955</ele>
      </trkpt>
      <trkpt lat="46.428852" lon="12.955732">
        <ele>1068.8345795435837</ele>
      </trkpt>
      <trkpt lat="46.42897" lon="12.955727">
        <ele>1069.4900098510595</ele>
      </trkpt>
      <trkpt lat="46.429069" lon="12.955674">
        <ele>1070.4999808995526</ele>
      </trkpt>
      <trkpt lat="46.430043" lon="12.955211">
        <ele>1070.9939421686934</ele>
      </trkpt>
      <trkpt lat="46.430255" lon="12.955257">
        <ele>1072.2399804322133</ele>
      </trkpt>
      <trkpt lat="46.430332" lon="12.955329">
        <ele>1072.8109592461722</ele>
      </trkpt>
      <trkpt lat="46.430516" lon="12.955352">
        <ele>1072.709924297571</ele>
      </trkpt>
      <trkpt lat="46.430594" lon="12.955362">
        <ele>1072.5674376601119</ele>
      </trkpt>
      <trkpt lat="46.430744" lon="12.955326">
        <ele>1072.2900853902152</ele>
      </trkpt>
      <trkpt lat="46.430956" lon="12.955344">
        <ele>1071.5121136562202</ele>
      </trkpt>
      <trkpt lat="46.431062" lon="12.955306">
        <ele>1070.7590714035034</ele>
      </trkpt>
      <trkpt lat="46.431235" lon="12.955142">
        <ele>1067.087320461989</ele>
      </trkpt>
      <trkpt lat="46.431276" lon="12.955142">
        <ele>1066.7623792116433</ele>
      </trkpt>
      <trkpt lat="46.431388" lon="12.955203">
        <ele>1066.286062282456</ele>
      </trkpt>
      <trkpt lat="46.431977" lon="12.955203">
        <ele>1055.1225458749968</ele>
      </trkpt>
      <trkpt lat="46.432219" lon="12.955129">
        <ele>1048.712734554011</ele>
      </trkpt>
      <trkpt lat="46.432293" lon="12.955176">
        <ele>1045.9702781790409</ele>
      </trkpt>
      <trkpt lat="46.432794" lon="12.955196">
        <ele>1039.9127878020063</ele>
      </trkpt>
      <trkpt lat="46.43305" lon="12.955024">
        <ele>1037.945880887285</ele>
      </trkpt>
      <trkpt lat="46.433207" lon="12.955018">
        <ele>1034.0617303309302</ele>
      </trkpt>
      <trkpt lat="46.433395" lon="12.9549">
        <ele>1032.6332785752227</ele>
      </trkpt>
      <trkpt lat="46.433672" lon="12.954879">
        <ele>1030.9338484262914</ele>
      </trkpt>
      <trkpt lat="46.433861" lon="12.954931">
        <ele>1028.4413108218469</ele>
      </trkpt>
      <trkpt lat="46.433968" lon="12.954917">
        <ele>1026.012532673824</ele>
      </trkpt>
      <trkpt lat="46.434288" lon="12.954725">
        <ele>1016.9370986170759</ele>
      </trkpt>
      <trkpt lat="46.434375" lon="12.954707">
        <ele>1014.1829944365305</ele>
      </trkpt>
      <trkpt lat="46.434453" lon="12.954692">
        <ele>1011.7016006010118</ele>
      </trkpt>
      <trkpt lat="46.4344" lon="12.954459">
        <ele>1010.6207502078429</ele>
      </trkpt>
      <trkpt lat="46.434314" lon="12.954354">
        <ele>1010.8382801823128</ele>
      </trkpt>
      <trkpt lat="46.433775" lon="12.953869">
        <ele>995.8153833829829</ele>
      </trkpt>
      <trkpt lat="46.433343" lon="12.953678">
        <ele>983.5227155075274</ele>
      </trkpt>
      <trkpt lat="46.433028" lon="12.953687">
        <ele>982.5849219862371</ele>
      </trkpt>
      <trkpt lat="46.432719" lon="12.953573">
        <ele>970.5947043378671</ele>
      </trkpt>
      <trkpt lat="46.432291" lon="12.953544">
        <ele>965.2065275845123</ele>
      </trkpt>
      <trkpt lat="46.431905" lon="12.953287">
        <ele>959.3767851062324</ele>
      </trkpt>
      <trkpt lat="46.431791" lon="12.953024">
        <ele>953.9212973691451</ele>
      </trkpt>
    </trkseg>
  </trk>
</gpx>
