<?xml version="1.0" encoding="UTF-8"?>
<gpx creator="Garmin Explore App" version="1.1" schemaLocation="http://www.topografix.com/GPX/1/1 http://www.topografix.com/GPX/1/1/gpx.xsd http://www.garmin.com/xmlschemas/GpxExtensions/v3 http://www.garmin.com/xmlschemas/GpxExtensionsv3.xsd http://www.garmin.com/xmlschemas/TrackPointExtension/v1 http://www.garmin.com/xmlschemas/TrackPointExtensionv1.xsd http://www.garmin.com/xmlschemas/PowerExtension/v1 http://www.garmin.com/xmlschemas/PowerExtensionv1.xsd http://www.topografix.com/GPX/gpx_style/0/2 http://www.topografix.com/GPX/gpx_style/0/2/gpx_style.xsd" xmlns="http://www.topografix.com/GPX/1/1" xmlns:xsi="http://www.w3.org/2001/XMLSchema-instance" xsi:schemaLocation="http://www.topografix.com/GPX/1/1 http://www.topografix.com/GPX/1/1/gpx.xsd http://www.garmin.com/xmlschemas/GpxExtensions/v3 http://www.garmin.com/xmlschemas/GpxExtensionsv3.xsd http://www.garmin.com/xmlschemas/TrackPointExtension/v1 http://www.garmin.com/xmlschemas/TrackPointExtensionv1.xsd http://www.garmin.com/xmlschemas/PowerExtension/v1 http://www.garmin.com/xmlschemas/PowerExtensionv1.xsd http://www.topografix.com/GPX/gpx_style/0/2 http://www.topografix.com/GPX/gpx_style/0/2/gpx_style.xsd" xmlns:gpxtpx="http://www.garmin.com/xmlschemas/TrackPointExtension/v1" xmlns:gpxx="http://www.garmin.com/xmlschemas/GpxExtensions/v3" xmlns:gpxpx="http://www.garmin.com/xmlschemas/PowerExtension/v1" xmlns:gpx_style="http://www.topografix.com/GPX/gpx_style/0/2">
  <metadata>
    <name>LAUCO_#_2</name>
    <author>
      <name>gpx.studio</name>
      <link href="https://gpx.studio"/>
    </author>
    <link href="http://www.garmin.com">
      <text>Garmin International</text>
    </link>
    <time>2026-02-21T22:05:40.000Z</time>
  </metadata>
  <trk>
    <name>LAUCO_#_2</name>
    <trkseg>
      <trkpt lat="46.419925136593406" lon="12.932127218163629">
        <ele>699.7671304038607</ele>
        <time>2026-02-21T16:31:30.000Z</time>
      </trkpt>
      <trkpt lat="46.41985583305359" lon="12.932132482528687">
        <ele>698.558128681209</ele>
        <time>2026-02-21T16:31:34.904Z</time>
      </trkpt>
      <trkpt lat="46.419838547706604" lon="12.932119846343994">
        <ele>698.2961762953322</ele>
        <time>2026-02-21T16:31:36.271Z</time>
      </trkpt>
      <trkpt lat="46.419811725616455" lon="12.93209958076477">
        <ele>697.8867129100762</ele>
        <time>2026-02-21T16:31:38.271Z</time>
      </trkpt>
      <trkpt lat="46.419758439064026" lon="12.932060241699219">
        <ele>696.3498901780372</ele>
        <time>2026-02-21T16:31:41.271Z</time>
      </trkpt>
      <trkpt lat="46.41974449157715" lon="12.932051539421082">
        <ele>695.9364467100264</ele>
        <time>2026-02-21T16:31:42.271Z</time>
      </trkpt>
      <trkpt lat="46.41970670223236" lon="12.93200421333313">
        <ele>694.9299859941077</ele>
        <time>2026-02-21T16:31:45.271Z</time>
      </trkpt>
      <trkpt lat="46.41966927051544" lon="12.931987404823303">
        <ele>693.8019828709315</ele>
        <time>2026-02-21T16:31:47.271Z</time>
      </trkpt>
      <trkpt lat="46.41965293884277" lon="12.931980967521667">
        <ele>693.300051503443</ele>
        <time>2026-02-21T16:31:48.271Z</time>
      </trkpt>
      <trkpt lat="46.41958272457123" lon="12.931946516036987">
        <ele>691.2555365837184</ele>
        <time>2026-02-21T16:31:52.271Z</time>
      </trkpt>
      <trkpt lat="46.419565200805664" lon="12.93193507194519">
        <ele>690.8628290422964</ele>
        <time>2026-02-21T16:31:53.271Z</time>
      </trkpt>
      <trkpt lat="46.419517993927" lon="12.931901097297668">
        <ele>689.9839872839405</ele>
        <time>2026-02-21T16:31:56.271Z</time>
      </trkpt>
      <trkpt lat="46.41946351528168" lon="12.931865811347961">
        <ele>689.0283860671574</ele>
        <time>2026-02-21T16:31:59.271Z</time>
      </trkpt>
      <trkpt lat="46.419426798820496" lon="12.931857347488403">
        <ele>688.2815187036534</ele>
        <time>2026-02-21T16:32:02.271Z</time>
      </trkpt>
      <trkpt lat="46.4194061756134" lon="12.931846261024475">
        <ele>687.8828034028186</ele>
        <time>2026-02-21T16:32:04.271Z</time>
      </trkpt>
      <trkpt lat="46.41939651966095" lon="12.931840538978577">
        <ele>687.702368062904</ele>
        <time>2026-02-21T16:32:05.271Z</time>
      </trkpt>
      <trkpt lat="46.419379234313965" lon="12.93183720111847">
        <ele>687.3726897027709</ele>
        <time>2026-02-21T16:32:07.271Z</time>
      </trkpt>
      <trkpt lat="46.41933214664459" lon="12.931846261024475">
        <ele>686.4153998378474</ele>
        <time>2026-02-21T16:32:10.271Z</time>
      </trkpt>
      <trkpt lat="46.419318199157715" lon="12.93184781074524">
        <ele>686.1932182645835</ele>
        <time>2026-02-21T16:32:11.271Z</time>
      </trkpt>
      <trkpt lat="46.41927695274353" lon="12.931854724884033">
        <ele>685.5237693727021</ele>
        <time>2026-02-21T16:32:15.271Z</time>
      </trkpt>
      <trkpt lat="46.419270157814026" lon="12.931851387023926">
        <ele>685.4246867118202</ele>
        <time>2026-02-21T16:32:16.271Z</time>
      </trkpt>
      <trkpt lat="46.419256925582886" lon="12.93185019493103">
        <ele>685.2074191057136</ele>
        <time>2026-02-21T16:32:18.271Z</time>
      </trkpt>
      <trkpt lat="46.419238448143005" lon="12.931841015815735">
        <ele>684.9463543177845</ele>
        <time>2026-02-21T16:32:21.271Z</time>
      </trkpt>
      <trkpt lat="46.419229388237" lon="12.93183171749115">
        <ele>684.8480045222939</ele>
        <time>2026-02-21T16:32:22.271Z</time>
      </trkpt>
      <trkpt lat="46.41922152042389" lon="12.931828737258911">
        <ele>684.735685071842</ele>
        <time>2026-02-21T16:32:23.271Z</time>
      </trkpt>
      <trkpt lat="46.41919565200806" lon="12.93181836605072">
        <ele>684.3853012765476</ele>
        <time>2026-02-21T16:32:25.271Z</time>
      </trkpt>
      <trkpt lat="46.41916882991791" lon="12.931806445121765">
        <ele>684.016430054981</ele>
        <time>2026-02-21T16:32:27.271Z</time>
      </trkpt>
      <trkpt lat="46.41915214061737" lon="12.931797742843628">
        <ele>683.7799313632777</ele>
        <time>2026-02-21T16:32:28.271Z</time>
      </trkpt>
      <trkpt lat="46.419134974479675" lon="12.93179202079773">
        <ele>683.5164812412117</ele>
        <time>2026-02-21T16:32:29.271Z</time>
      </trkpt>
      <trkpt lat="46.419109582901" lon="12.931789636611938">
        <ele>683.0984614368533</ele>
        <time>2026-02-21T16:32:30.271Z</time>
      </trkpt>
      <trkpt lat="46.41908812522888" lon="12.931784868240356">
        <ele>682.7580379701225</ele>
        <time>2026-02-21T16:32:31.271Z</time>
      </trkpt>
      <trkpt lat="46.41907322406769" lon="12.931779980659485">
        <ele>682.5289785482926</ele>
        <time>2026-02-21T16:32:32.271Z</time>
      </trkpt>
      <trkpt lat="46.419055104255676" lon="12.93177318572998">
        <ele>682.2544112724256</ele>
        <time>2026-02-21T16:32:33.271Z</time>
      </trkpt>
      <trkpt lat="46.41903328895569" lon="12.931758761405945">
        <ele>681.952944080858</ele>
        <time>2026-02-21T16:32:34.271Z</time>
      </trkpt>
      <trkpt lat="46.419010639190674" lon="12.931745529174805">
        <ele>681.6318186156454</ele>
        <time>2026-02-21T16:32:35.271Z</time>
      </trkpt>
      <trkpt lat="46.41899275779724" lon="12.931739091873169">
        <ele>681.3596144137907</ele>
        <time>2026-02-21T16:32:36.271Z</time>
      </trkpt>
      <trkpt lat="46.418970823287964" lon="12.931728482246399">
        <ele>681.0383551724723</ele>
        <time>2026-02-21T16:32:37.271Z</time>
      </trkpt>
      <trkpt lat="46.41895127296448" lon="12.931715607643127">
        <ele>680.7679454910106</ele>
        <time>2026-02-21T16:32:38.271Z</time>
      </trkpt>
      <trkpt lat="46.41893935203552" lon="12.931708455085754">
        <ele>680.5998095648365</ele>
        <time>2026-02-21T16:32:39.271Z</time>
      </trkpt>
      <trkpt lat="46.4189076423645" lon="12.931684255599976">
        <ele>680.0233523226343</ele>
        <time>2026-02-21T16:32:41.271Z</time>
      </trkpt>
      <trkpt lat="46.41890025138855" lon="12.93167781829834">
        <ele>679.8674246025</ele>
        <time>2026-02-21T16:32:42.271Z</time>
      </trkpt>
      <trkpt lat="46.41889262199402" lon="12.931672811508179">
        <ele>679.7010470335053</ele>
        <time>2026-02-21T16:32:43.271Z</time>
      </trkpt>
      <trkpt lat="46.41887879371643" lon="12.931654334068298">
        <ele>679.4558418618359</ele>
        <time>2026-02-21T16:32:45.271Z</time>
      </trkpt>
      <trkpt lat="46.41885781288147" lon="12.931633353233337">
        <ele>679.0525026251563</ele>
        <time>2026-02-21T16:32:47.271Z</time>
      </trkpt>
      <trkpt lat="46.41884195804596" lon="12.931610345840454">
        <ele>678.7845999333076</ele>
        <time>2026-02-21T16:32:49.271Z</time>
      </trkpt>
      <trkpt lat="46.41882681846619" lon="12.931578040122986">
        <ele>678.5825849023768</ele>
        <time>2026-02-21T16:32:51.271Z</time>
      </trkpt>
      <trkpt lat="46.418816685676575" lon="12.931562185287476">
        <ele>678.4185426918144</ele>
        <time>2026-02-21T16:32:52.271Z</time>
      </trkpt>
      <trkpt lat="46.41880512237549" lon="12.931549906730652">
        <ele>678.2088611160207</ele>
        <time>2026-02-21T16:32:53.271Z</time>
      </trkpt>
      <trkpt lat="46.41875171661377" lon="12.93149471282959">
        <ele>677.3589070965543</ele>
        <time>2026-02-21T16:32:56.271Z</time>
      </trkpt>
      <trkpt lat="46.418726325035095" lon="12.931457757949829">
        <ele>676.9642763580864</ele>
        <time>2026-02-21T16:32:58.271Z</time>
      </trkpt>
      <trkpt lat="46.41871464252472" lon="12.931435823440552">
        <ele>676.8222136732386</ele>
        <time>2026-02-21T16:32:59.271Z</time>
      </trkpt>
      <trkpt lat="46.41869759559631" lon="12.93142020702362">
        <ele>676.5177166592645</ele>
        <time>2026-02-21T16:33:00.271Z</time>
      </trkpt>
      <trkpt lat="46.41868317127228" lon="12.931399941444397">
        <ele>676.1946732962049</ele>
        <time>2026-02-21T16:33:01.271Z</time>
      </trkpt>
      <trkpt lat="46.41867768764496" lon="12.931385397911072">
        <ele>676.0569745354367</ele>
        <time>2026-02-21T16:33:02.271Z</time>
      </trkpt>
      <trkpt lat="46.418667793273926" lon="12.931342840194702">
        <ele>675.9035664439214</ele>
        <time>2026-02-21T16:33:04.271Z</time>
      </trkpt>
      <trkpt lat="46.41865348815918" lon="12.93130338191986">
        <ele>675.2761157822805</ele>
        <time>2026-02-21T16:33:06.271Z</time>
      </trkpt>
      <trkpt lat="46.41864800453186" lon="12.931286096572876">
        <ele>675.0134171430032</ele>
        <time>2026-02-21T16:33:07.271Z</time>
      </trkpt>
      <trkpt lat="46.418643951416016" lon="12.931265830993652">
        <ele>674.801796907653</ele>
        <time>2026-02-21T16:33:08.271Z</time>
      </trkpt>
      <trkpt lat="46.41864085197449" lon="12.931247234344482">
        <ele>674.636825063838</ele>
        <time>2026-02-21T16:33:09.271Z</time>
      </trkpt>
      <trkpt lat="46.41863262653351" lon="12.931204676628113">
        <ele>674.2520512783569</ele>
        <time>2026-02-21T16:33:12.271Z</time>
      </trkpt>
      <trkpt lat="46.41862618923187" lon="12.931190013885498">
        <ele>673.9781412184603</ele>
        <time>2026-02-21T16:33:13.271Z</time>
      </trkpt>
      <trkpt lat="46.41862142086029" lon="12.931177377700806">
        <ele>673.7701742044002</ele>
        <time>2026-02-21T16:33:14.271Z</time>
      </trkpt>
      <trkpt lat="46.41861653327942" lon="12.931165099143982">
        <ele>673.5549707978037</ele>
        <time>2026-02-21T16:33:15.271Z</time>
      </trkpt>
      <trkpt lat="46.418606638908386" lon="12.931129693984985">
        <ele>673.0711464887492</ele>
        <time>2026-02-21T16:33:17.271Z</time>
      </trkpt>
      <trkpt lat="46.41859686374664" lon="12.931079387664795">
        <ele>672.556324151159</ele>
        <time>2026-02-21T16:33:19.271Z</time>
      </trkpt>
      <trkpt lat="46.41859269142151" lon="12.931061387062073">
        <ele>672.3032021718104</ele>
        <time>2026-02-21T16:33:20.271Z</time>
      </trkpt>
      <trkpt lat="46.41858518123627" lon="12.931043028831482">
        <ele>671.9130270862955</ele>
        <time>2026-02-21T16:33:21.271Z</time>
      </trkpt>
      <trkpt lat="46.41857123374939" lon="12.931018471717834">
        <ele>671.2328607689592</ele>
        <time>2026-02-21T16:33:23.271Z</time>
      </trkpt>
      <trkpt lat="46.418566942214966" lon="12.930979132652283">
        <ele>670.828716275948</ele>
        <time>2026-02-21T16:33:26.271Z</time>
      </trkpt>
      <trkpt lat="46.418566823005676" lon="12.930967569351196">
        <ele>670.7288442188919</ele>
        <time>2026-02-21T16:33:27.271Z</time>
      </trkpt>
      <trkpt lat="46.418567419052124" lon="12.930956363677979">
        <ele>670.660196245891</ele>
        <time>2026-02-21T16:33:28.271Z</time>
      </trkpt>
      <trkpt lat="46.41856825351715" lon="12.930917143821716">
        <ele>670.3714501369541</ele>
        <time>2026-02-21T16:33:31.271Z</time>
      </trkpt>
      <trkpt lat="46.4185665845871" lon="12.93091082572937">
        <ele>670.2520027729627</ele>
        <time>2026-02-21T16:33:32.271Z</time>
      </trkpt>
      <trkpt lat="46.41856586933136" lon="12.930903911590576">
        <ele>670.1659728054057</ele>
        <time>2026-02-21T16:33:33.271Z</time>
      </trkpt>
      <trkpt lat="46.41855454444885" lon="12.930883646011353">
        <ele>669.5339184007125</ele>
        <time>2026-02-21T16:33:34.271Z</time>
      </trkpt>
      <trkpt lat="46.41852653026581" lon="12.930838346481323">
        <ele>667.9751932288636</ele>
        <time>2026-02-21T16:33:36.271Z</time>
      </trkpt>
      <trkpt lat="46.41852867603302" lon="12.930819392204285">
        <ele>667.8938844927594</ele>
        <time>2026-02-21T16:33:38.271Z</time>
      </trkpt>
      <trkpt lat="46.41850304603577" lon="12.93077278137207">
        <ele>666.4137977694237</ele>
        <time>2026-02-21T16:33:40.271Z</time>
      </trkpt>
      <trkpt lat="46.418490052223206" lon="12.93074095249176">
        <ele>665.6382414882912</ele>
        <time>2026-02-21T16:33:41.271Z</time>
      </trkpt>
      <trkpt lat="46.41849172115326" lon="12.93070137500763">
        <ele>665.4561923004234</ele>
        <time>2026-02-21T16:33:43.271Z</time>
      </trkpt>
      <trkpt lat="46.41850566864014" lon="12.930671215057373">
        <ele>665.7990754828336</ele>
        <time>2026-02-21T16:33:45.271Z</time>
      </trkpt>
      <trkpt lat="46.418500661849976" lon="12.930652499198914">
        <ele>665.5038916182252</ele>
        <time>2026-02-21T16:33:46.271Z</time>
      </trkpt>
      <trkpt lat="46.41850697994232" lon="12.930628538131714">
        <ele>665.6230377109816</ele>
        <time>2026-02-21T16:33:47.271Z</time>
      </trkpt>
      <trkpt lat="46.4185049533844" lon="12.93060290813446">
        <ele>665.4240075102261</ele>
        <time>2026-02-21T16:33:48.271Z</time>
      </trkpt>
      <trkpt lat="46.41850280761719" lon="12.930511713027954">
        <ele>664.9014263724135</ele>
        <time>2026-02-21T16:33:51.271Z</time>
      </trkpt>
      <trkpt lat="46.41849994659424" lon="12.930487394332886">
        <ele>664.6683097167027</ele>
        <time>2026-02-21T16:33:52.271Z</time>
      </trkpt>
      <trkpt lat="46.418501019477844" lon="12.93046236038208">
        <ele>664.5897705185533</ele>
        <time>2026-02-21T16:33:53.271Z</time>
      </trkpt>
      <trkpt lat="46.41848576068878" lon="12.930377006530762">
        <ele>663.6462312788245</ele>
        <time>2026-02-21T16:33:57.271Z</time>
      </trkpt>
      <trkpt lat="46.418477177619934" lon="12.930365562438965">
        <ele>663.3102563634525</ele>
        <time>2026-02-21T16:33:58.271Z</time>
      </trkpt>
      <trkpt lat="46.418456077575684" lon="12.93030560016632">
        <ele>662.5604396719947</ele>
        <time>2026-02-21T16:34:01.271Z</time>
      </trkpt>
      <trkpt lat="46.41844284534454" lon="12.930289149284363">
        <ele>662.1654464191636</ele>
        <time>2026-02-21T16:34:02.271Z</time>
      </trkpt>
      <trkpt lat="46.418439865112305" lon="12.93028438091278">
        <ele>662.0869536285993</ele>
        <time>2026-02-21T16:34:03.271Z</time>
      </trkpt>
      <trkpt lat="46.418399691581726" lon="12.930257320404053">
        <ele>660.8668412764364</ele>
        <time>2026-02-21T16:34:07.271Z</time>
      </trkpt>
      <trkpt lat="46.41838252544403" lon="12.930242538452148">
        <ele>660.3173359053853</ele>
        <time>2026-02-21T16:34:09.271Z</time>
      </trkpt>
      <trkpt lat="46.41830909252167" lon="12.930242776870728">
        <ele>657.8761574507865</ele>
        <time>2026-02-21T16:34:12.271Z</time>
      </trkpt>
      <trkpt lat="46.41828954219818" lon="12.930245876312256">
        <ele>657.2371194956754</ele>
        <time>2026-02-21T16:34:13.271Z</time>
      </trkpt>
      <trkpt lat="46.41827654838562" lon="12.930251479148865">
        <ele>656.8230605753993</ele>
        <time>2026-02-21T16:34:14.271Z</time>
      </trkpt>
      <trkpt lat="46.418264746665955" lon="12.930254220962524">
        <ele>656.4324718635539</ele>
        <time>2026-02-21T16:34:15.271Z</time>
      </trkpt>
      <trkpt lat="46.418251156806946" lon="12.93026316165924">
        <ele>655.9939610752288</ele>
        <time>2026-02-21T16:34:16.271Z</time>
      </trkpt>
      <trkpt lat="46.418214321136475" lon="12.930280089378357">
        <ele>654.7875776831316</ele>
        <time>2026-02-21T16:34:18.271Z</time>
      </trkpt>
      <trkpt lat="46.41818451881409" lon="12.930297493934631">
        <ele>653.8154817112503</ele>
        <time>2026-02-21T16:34:20.271Z</time>
      </trkpt>
      <trkpt lat="46.41817581653595" lon="12.930298089981079">
        <ele>653.521502796424</ele>
        <time>2026-02-21T16:34:21.271Z</time>
      </trkpt>
      <trkpt lat="46.41817045211792" lon="12.93029510974884">
        <ele>653.329598728063</ele>
        <time>2026-02-21T16:34:22.271Z</time>
      </trkpt>
      <trkpt lat="46.41815185546875" lon="12.930267691612244">
        <ele>652.6018345500818</ele>
        <time>2026-02-21T16:34:25.271Z</time>
      </trkpt>
      <trkpt lat="46.4181489944458" lon="12.930240154266357">
        <ele>652.408880715259</ele>
        <time>2026-02-21T16:34:26.271Z</time>
      </trkpt>
      <trkpt lat="46.41814684867859" lon="12.930208444595337">
        <ele>652.2230090098378</ele>
        <time>2026-02-21T16:34:27.271Z</time>
      </trkpt>
      <trkpt lat="46.41813886165619" lon="12.930185794830322">
        <ele>651.8639169240851</ele>
        <time>2026-02-21T16:34:28.271Z</time>
      </trkpt>
      <trkpt lat="46.418137311935425" lon="12.930172443389893">
        <ele>651.7587144691884</ele>
        <time>2026-02-21T16:34:29.271Z</time>
      </trkpt>
      <trkpt lat="46.418129205703735" lon="12.930103540420532">
        <ele>651.1787632955715</ele>
        <time>2026-02-21T16:34:35.271Z</time>
      </trkpt>
      <trkpt lat="46.41811966896057" lon="12.930073261260986">
        <ele>650.6991889236041</ele>
        <time>2026-02-21T16:34:38.271Z</time>
      </trkpt>
      <trkpt lat="46.4181045293808" lon="12.930044412612915">
        <ele>649.9827119525067</ele>
        <time>2026-02-21T16:34:41.271Z</time>
      </trkpt>
      <trkpt lat="46.41810476779938" lon="12.930031538009644">
        <ele>649.8261735306597</ele>
        <time>2026-02-21T16:34:42.271Z</time>
      </trkpt>
      <trkpt lat="46.41810429096222" lon="12.930018901824951">
        <ele>649.6473059290564</ele>
        <time>2026-02-21T16:34:43.271Z</time>
      </trkpt>
      <trkpt lat="46.418100476264954" lon="12.93000316619873">
        <ele>649.3102540128175</ele>
        <time>2026-02-21T16:34:44.271Z</time>
      </trkpt>
      <trkpt lat="46.41808533668518" lon="12.929967403411865">
        <ele>648.3138176611566</ele>
        <time>2026-02-21T16:34:46.271Z</time>
      </trkpt>
      <trkpt lat="46.418063163757324" lon="12.92991030216217">
        <ele>646.858517540014</ele>
        <time>2026-02-21T16:34:49.271Z</time>
      </trkpt>
      <trkpt lat="46.41805338859558" lon="12.92986512184143">
        <ele>645.9965681169851</ele>
        <time>2026-02-21T16:34:51.271Z</time>
      </trkpt>
      <trkpt lat="46.41804051399231" lon="12.929831624031067">
        <ele>645.1902111306258</ele>
        <time>2026-02-21T16:34:53.271Z</time>
      </trkpt>
      <trkpt lat="46.41800546646118" lon="12.929801225662231">
        <ele>643.3088623732389</ele>
        <time>2026-02-21T16:34:56.271Z</time>
      </trkpt>
      <trkpt lat="46.41798293590546" lon="12.929786562919617">
        <ele>642.0761551809692</ele>
        <time>2026-02-21T16:34:58.271Z</time>
      </trkpt>
      <trkpt lat="46.41797125339508" lon="12.929784893989563">
        <ele>641.4959180540798</ele>
        <time>2026-02-21T16:35:00.271Z</time>
      </trkpt>
      <trkpt lat="46.417951345443726" lon="12.92976999282837">
        <ele>640.2602223624026</ele>
        <time>2026-02-21T16:35:03.271Z</time>
      </trkpt>
      <trkpt lat="46.41791617870331" lon="12.929765462875366">
        <ele>638.4492681360617</ele>
        <time>2026-02-21T16:35:06.271Z</time>
      </trkpt>
      <trkpt lat="46.41785418987274" lon="12.929766654968262">
        <ele>635.3448075824977</ele>
        <time>2026-02-21T16:35:10.271Z</time>
      </trkpt>
      <trkpt lat="46.41777503490448" lon="12.929768085479736">
        <ele>628.7900973976213</ele>
        <time>2026-02-21T16:35:13.271Z</time>
      </trkpt>
      <trkpt lat="46.41772532463074" lon="12.92977523803711">
        <ele>622.157213067836</ele>
        <time>2026-02-21T16:35:16.806Z</time>
      </trkpt>
      <trkpt lat="46.41767239911874" lon="12.929787110046021">
        <ele>615.6064403389792</ele>
        <time>2026-02-21T16:35:20.596Z</time>
      </trkpt>
    </trkseg>
  </trk>
</gpx>
