<?xml version="1.0" encoding="UTF-8"?>
<gpx creator="https://gpx.studio" version="1.1" schemaLocation="http://www.topografix.com/GPX/1/1 http://www.topografix.com/GPX/1/1/gpx.xsd http://www.garmin.com/xmlschemas/GpxExtensions/v3 http://www.garmin.com/xmlschemas/GpxExtensionsv3.xsd http://www.garmin.com/xmlschemas/TrackPointExtension/v1 http://www.garmin.com/xmlschemas/TrackPointExtensionv1.xsd http://www.garmin.com/xmlschemas/PowerExtension/v1 http://www.garmin.com/xmlschemas/PowerExtensionv1.xsd http://www.topografix.com/GPX/gpx_style/0/2 http://www.topografix.com/GPX/gpx_style/0/2/gpx_style.xsd" xmlns="http://www.topografix.com/GPX/1/1" xmlns:xsi="http://www.w3.org/2001/XMLSchema-instance" xsi:schemaLocation="http://www.topografix.com/GPX/1/1 http://www.topografix.com/GPX/1/1/gpx.xsd http://www.garmin.com/xmlschemas/GpxExtensions/v3 http://www.garmin.com/xmlschemas/GpxExtensionsv3.xsd http://www.garmin.com/xmlschemas/TrackPointExtension/v1 http://www.garmin.com/xmlschemas/TrackPointExtensionv1.xsd http://www.garmin.com/xmlschemas/PowerExtension/v1 http://www.garmin.com/xmlschemas/PowerExtensionv1.xsd http://www.topografix.com/GPX/gpx_style/0/2 http://www.topografix.com/GPX/gpx_style/0/2/gpx_style.xsd" xmlns:gpxtpx="http://www.garmin.com/xmlschemas/TrackPointExtension/v1" xmlns:gpxx="http://www.garmin.com/xmlschemas/GpxExtensions/v3" xmlns:gpxpx="http://www.garmin.com/xmlschemas/PowerExtension/v1" xmlns:gpx_style="http://www.topografix.com/GPX/gpx_style/0/2">
  <metadata>
    <name>LAUCO_#_7-V</name>
    <author>
      <name>gpx.studio</name>
      <link href="https://gpx.studio"/>
    </author>
  </metadata>
  <trk>
    <name>LAUCO_#_7-V</name>
    <trkseg>
      <trkpt lat="46.427829" lon="12.956391">
        <ele>1066.103897599969</ele>
      </trkpt>
      <trkpt lat="46.428055" lon="12.956808">
        <ele>1062.4325018821064</ele>
      </trkpt>
      <trkpt lat="46.428399" lon="12.956949">
        <ele>1056.7825652627207</ele>
      </trkpt>
      <trkpt lat="46.428647" lon="12.957266">
        <ele>1048.3828704956238</ele>
      </trkpt>
      <trkpt lat="46.428649" lon="12.957269">
        <ele>1048.3157252138349</ele>
      </trkpt>
      <trkpt lat="46.428918" lon="12.957376">
        <ele>1045.0908917804356</ele>
      </trkpt>
      <trkpt lat="46.429262" lon="12.957955">
        <ele>1032.3952611602397</ele>
      </trkpt>
      <trkpt lat="46.429675" lon="12.958536">
        <ele>1018.0703528184447</ele>
      </trkpt>
      <trkpt lat="46.430119" lon="12.958608">
        <ele>1009.096114844502</ele>
      </trkpt>
      <trkpt lat="46.430513" lon="12.958543">
        <ele>1008.1408400613539</ele>
      </trkpt>
      <trkpt lat="46.431302" lon="12.957994">
        <ele>1016.7369421987376</ele>
      </trkpt>
      <trkpt lat="46.431696" lon="12.957295">
        <ele>1023.0313395124873</ele>
      </trkpt>
      <trkpt lat="46.433453" lon="12.955915">
        <ele>1010.9290402638754</ele>
      </trkpt>
      <trkpt lat="46.433715" lon="12.955655">
        <ele>1014.5379894862594</ele>
      </trkpt>
      <trkpt lat="46.433948" lon="12.955426">
        <ele>1017.0365311968193</ele>
      </trkpt>
      <trkpt lat="46.434403" lon="12.954919">
        <ele>1012.5806634175293</ele>
      </trkpt>
      <trkpt lat="46.434444" lon="12.954807">
        <ele>1011.5364328832745</ele>
      </trkpt>
      <trkpt lat="46.434452" lon="12.954701">
        <ele>1011.6978469377303</ele>
      </trkpt>
    </trkseg>
  </trk>
</gpx>
