<?xml version="1.0" encoding="UTF-8"?>
<gpx creator="Garmin Explore App" version="1.1" schemaLocation="http://www.topografix.com/GPX/1/1 http://www.topografix.com/GPX/1/1/gpx.xsd http://www.garmin.com/xmlschemas/GpxExtensions/v3 http://www.garmin.com/xmlschemas/GpxExtensionsv3.xsd http://www.garmin.com/xmlschemas/TrackPointExtension/v1 http://www.garmin.com/xmlschemas/TrackPointExtensionv1.xsd http://www.garmin.com/xmlschemas/PowerExtension/v1 http://www.garmin.com/xmlschemas/PowerExtensionv1.xsd http://www.topografix.com/GPX/gpx_style/0/2 http://www.topografix.com/GPX/gpx_style/0/2/gpx_style.xsd" xmlns="http://www.topografix.com/GPX/1/1" xmlns:xsi="http://www.w3.org/2001/XMLSchema-instance" xsi:schemaLocation="http://www.topografix.com/GPX/1/1 http://www.topografix.com/GPX/1/1/gpx.xsd http://www.garmin.com/xmlschemas/GpxExtensions/v3 http://www.garmin.com/xmlschemas/GpxExtensionsv3.xsd http://www.garmin.com/xmlschemas/TrackPointExtension/v1 http://www.garmin.com/xmlschemas/TrackPointExtensionv1.xsd http://www.garmin.com/xmlschemas/PowerExtension/v1 http://www.garmin.com/xmlschemas/PowerExtensionv1.xsd http://www.topografix.com/GPX/gpx_style/0/2 http://www.topografix.com/GPX/gpx_style/0/2/gpx_style.xsd" xmlns:gpxtpx="http://www.garmin.com/xmlschemas/TrackPointExtension/v1" xmlns:gpxx="http://www.garmin.com/xmlschemas/GpxExtensions/v3" xmlns:gpxpx="http://www.garmin.com/xmlschemas/PowerExtension/v1" xmlns:gpx_style="http://www.topografix.com/GPX/gpx_style/0/2">
  <metadata>
    <name>LAUCO_#_12</name>
    <author>
      <name>gpx.studio</name>
      <link href="https://gpx.studio"/>
    </author>
    <link href="http://www.garmin.com">
      <text>Garmin International</text>
    </link>
    <time>2026-02-18T10:02:41.000Z</time>
  </metadata>
  <trk>
    <name>LAUCO_#_12</name>
    <trkseg>
      <trkpt lat="46.44280951541555" lon="12.97004396603154">
        <ele>935.2199302293465</ele>
        <time>2025-03-30T13:19:19.256Z</time>
      </trkpt>
      <trkpt lat="46.44312755379212" lon="12.970505276165857">
        <ele>937.6162191469768</ele>
        <time>2025-03-30T13:20:11.637Z</time>
      </trkpt>
      <trkpt lat="46.44337868690491" lon="12.970869541168213">
        <ele>938.3992778275167</ele>
        <time>2025-03-30T13:20:52.999Z</time>
      </trkpt>
      <trkpt lat="46.44337868690491" lon="12.970869541168213">
        <ele>938.3992778275167</ele>
        <time>2025-03-30T13:20:52.999Z</time>
      </trkpt>
      <trkpt lat="46.44358932971954" lon="12.97098171710968">
        <ele>940.0705868098066</ele>
        <time>2025-03-30T13:21:10.000Z</time>
      </trkpt>
      <trkpt lat="46.44363713264465" lon="12.970970392227173">
        <ele>941.4502997741112</ele>
        <time>2025-03-30T13:21:14.000Z</time>
      </trkpt>
      <trkpt lat="46.4437575340271" lon="12.970856070518494">
        <ele>946.7851853662612</ele>
        <time>2025-03-30T13:21:25.000Z</time>
      </trkpt>
      <trkpt lat="46.44392442703247" lon="12.970770478248596">
        <ele>951.6678326898439</ele>
        <time>2025-03-30T13:21:38.000Z</time>
      </trkpt>
      <trkpt lat="46.443984627723694" lon="12.970569133758545">
        <ele>957.6043370700193</ele>
        <time>2025-03-30T13:21:49.000Z</time>
      </trkpt>
      <trkpt lat="46.44404137134552" lon="12.97051727771759">
        <ele>959.5918574268007</ele>
        <time>2025-03-30T13:21:55.000Z</time>
      </trkpt>
      <trkpt lat="46.444053173065186" lon="12.970965385437012">
        <ele>950.801050199912</ele>
        <time>2025-03-30T13:22:21.000Z</time>
      </trkpt>
      <trkpt lat="46.44417226314545" lon="12.971274137496948">
        <ele>951.2243640195583</ele>
        <time>2025-03-30T13:22:40.000Z</time>
      </trkpt>
      <trkpt lat="46.444196820259094" lon="12.971575617790222">
        <ele>950.1612000294281</ele>
        <time>2025-03-30T13:23:00.000Z</time>
      </trkpt>
      <trkpt lat="46.44432306289673" lon="12.971712708473206">
        <ele>956.5760494627447</ele>
        <time>2025-03-30T13:23:15.000Z</time>
      </trkpt>
      <trkpt lat="46.444515347480774" lon="12.971750497817993">
        <ele>966.6184047222634</ele>
        <time>2025-03-30T13:23:31.000Z</time>
      </trkpt>
      <trkpt lat="46.44457399845123" lon="12.972028613090515">
        <ele>968.4120897256529</ele>
        <time>2025-03-30T13:23:49.000Z</time>
      </trkpt>
      <trkpt lat="46.444780111312866" lon="12.972273230552673">
        <ele>973.3495201998529</ele>
        <time>2025-03-30T13:24:14.000Z</time>
      </trkpt>
      <trkpt lat="46.44472658634186" lon="12.972461700439453">
        <ele>968.324211407667</ele>
        <time>2025-03-30T13:24:30.000Z</time>
      </trkpt>
      <trkpt lat="46.44476664066315" lon="12.972517848014832">
        <ele>968.4357036155614</ele>
        <time>2025-03-30T13:24:36.000Z</time>
      </trkpt>
      <trkpt lat="46.44491124153137" lon="12.972472071647644">
        <ele>973.2454241123994</ele>
        <time>2025-03-30T13:24:58.000Z</time>
      </trkpt>
      <trkpt lat="46.4450318813324" lon="12.972581505775452">
        <ele>973.020854915226</ele>
        <time>2025-03-30T13:25:12.000Z</time>
      </trkpt>
      <trkpt lat="46.445082902908325" lon="12.97270393371582">
        <ele>970.6154720876227</ele>
        <time>2025-03-30T13:25:22.000Z</time>
      </trkpt>
      <trkpt lat="46.44513738155365" lon="12.972606539726257">
        <ele>973.7603444766728</ele>
        <time>2025-03-30T13:25:35.000Z</time>
      </trkpt>
      <trkpt lat="46.44529402256012" lon="12.972480177879333">
        <ele>979.1410983211933</ele>
        <time>2025-03-30T13:25:53.000Z</time>
      </trkpt>
      <trkpt lat="46.44536375999451" lon="12.972357034683228">
        <ele>983.426776397684</ele>
        <time>2025-03-30T13:26:04.000Z</time>
      </trkpt>
      <trkpt lat="46.44544339179993" lon="12.972197771072388">
        <ele>989.1167841098716</ele>
        <time>2025-03-30T13:26:22.000Z</time>
      </trkpt>
      <trkpt lat="46.44534349441528" lon="12.971994161605835">
        <ele>991.3797608789101</ele>
        <time>2025-03-30T13:26:51.000Z</time>
      </trkpt>
      <trkpt lat="46.44543015956879" lon="12.971922755241394">
        <ele>994.4779280353506</ele>
        <time>2025-03-30T13:27:06.000Z</time>
      </trkpt>
      <trkpt lat="46.44552552700043" lon="12.971747398376465">
        <ele>999.9009759500784</ele>
        <time>2025-03-30T13:27:24.000Z</time>
      </trkpt>
      <trkpt lat="46.44561278820038" lon="12.971735835075378">
        <ele>1002.3773535699135</ele>
        <time>2025-03-30T13:27:41.000Z</time>
      </trkpt>
      <trkpt lat="46.44565570354462" lon="12.971584677696228">
        <ele>1006.9267984223201</ele>
        <time>2025-03-30T13:28:01.000Z</time>
      </trkpt>
      <trkpt lat="46.44571268558502" lon="12.971539378166199">
        <ele>1009.4263978467093</ele>
        <time>2025-03-30T13:28:12.000Z</time>
      </trkpt>
      <trkpt lat="46.445757269859314" lon="12.971620559692383">
        <ele>1008.4680491022443</ele>
        <time>2025-03-30T13:28:21.000Z</time>
      </trkpt>
      <trkpt lat="46.44589006900787" lon="12.971652269363403">
        <ele>1010.934320075432</ele>
        <time>2025-03-30T13:28:44.000Z</time>
      </trkpt>
      <trkpt lat="46.44617033004761" lon="12.971447467803955">
        <ele>1029.6006766635398</ele>
        <time>2025-03-30T13:29:20.000Z</time>
      </trkpt>
      <trkpt lat="46.44623267650604" lon="12.971467852592468">
        <ele>1032.2587524411474</ele>
        <time>2025-03-30T13:29:32.000Z</time>
      </trkpt>
      <trkpt lat="46.446252942085266" lon="12.971523761749268">
        <ele>1031.914495659418</ele>
        <time>2025-03-30T13:29:43.000Z</time>
      </trkpt>
      <trkpt lat="46.446370363235474" lon="12.97135305404663">
        <ele>1041.654206114348</ele>
        <time>2025-03-30T13:30:02.000Z</time>
      </trkpt>
      <trkpt lat="46.446370363235474" lon="12.971268892288208">
        <ele>1043.420446360018</ele>
        <time>2025-03-30T13:30:10.000Z</time>
      </trkpt>
      <trkpt lat="46.44631767272949" lon="12.971190929412842">
        <ele>1042.7101590288937</ele>
        <time>2025-03-30T13:30:17.000Z</time>
      </trkpt>
      <trkpt lat="46.44619393348694" lon="12.971111416816711">
        <ele>1039.354250548658</ele>
        <time>2025-03-30T13:30:28.000Z</time>
      </trkpt>
      <trkpt lat="46.446192502975464" lon="12.97101616859436">
        <ele>1041.5595687275038</ele>
        <time>2025-03-30T13:30:38.000Z</time>
      </trkpt>
      <trkpt lat="46.44621193408966" lon="12.970906615257263">
        <ele>1044.8504004081212</ele>
        <time>2025-03-30T13:30:49.000Z</time>
      </trkpt>
      <trkpt lat="46.44610011577606" lon="12.970669984817505">
        <ele>1046.1951159635234</ele>
        <time>2025-03-30T13:31:11.000Z</time>
      </trkpt>
      <trkpt lat="46.44601321220398" lon="12.97029435634613">
        <ele>1048.5099612007855</ele>
        <time>2025-03-30T13:31:36.000Z</time>
      </trkpt>
      <trkpt lat="46.445879101753235" lon="12.969905734062195">
        <ele>1045.020184944476</ele>
        <time>2025-03-30T13:32:01.000Z</time>
      </trkpt>
      <trkpt lat="46.4457802772522" lon="12.969770789146423">
        <ele>1041.9700710544519</ele>
        <time>2025-03-30T13:32:12.000Z</time>
      </trkpt>
      <trkpt lat="46.4457221031189" lon="12.96958041191101">
        <ele>1041.827670901642</ele>
        <time>2025-03-30T13:32:22.000Z</time>
      </trkpt>
      <trkpt lat="46.44576859474182" lon="12.96915054321289">
        <ele>1049.8136915874213</ele>
        <time>2025-03-30T13:32:46.000Z</time>
      </trkpt>
      <trkpt lat="46.44566512107849" lon="12.969127893447876">
        <ele>1044.8191409955093</ele>
        <time>2025-03-30T13:32:58.000Z</time>
      </trkpt>
      <trkpt lat="46.44561731815338" lon="12.969056844711304">
        <ele>1043.3315459575779</ele>
        <time>2025-03-30T13:33:06.000Z</time>
      </trkpt>
      <trkpt lat="46.44566881656647" lon="12.968691110610962">
        <ele>1048.5034547958537</ele>
        <time>2025-03-30T13:33:28.000Z</time>
      </trkpt>
      <trkpt lat="46.44546186923981" lon="12.968438386917114">
        <ele>1039.7950082249947</ele>
        <time>2025-03-30T13:33:53.000Z</time>
      </trkpt>
      <trkpt lat="46.445467948913574" lon="12.968218922615051">
        <ele>1042.3179838300052</ele>
        <time>2025-03-30T13:34:07.000Z</time>
      </trkpt>
      <trkpt lat="46.445536732673645" lon="12.967788696289062">
        <ele>1052.9425900500046</ele>
        <time>2025-03-30T13:34:39.004Z</time>
      </trkpt>
      <trkpt lat="46.445519" lon="12.967798">
        <ele>1052.0156801901412</ele>
        <time>2025-03-30T13:34:40.987Z</time>
      </trkpt>
      <trkpt lat="46.445512" lon="12.967773">
        <ele>1052.1347571111546</ele>
        <time>2025-03-30T13:34:42.942Z</time>
      </trkpt>
      <trkpt lat="46.445513" lon="12.967677">
        <ele>1053.839697498629</ele>
        <time>2025-03-30T13:34:49.899Z</time>
      </trkpt>
      <trkpt lat="46.445539" lon="12.967613">
        <ele>1055.9735249842527</ele>
        <time>2025-03-30T13:34:55.282Z</time>
      </trkpt>
      <trkpt lat="46.445546" lon="12.967587">
        <ele>1056.7002645976906</ele>
        <time>2025-03-30T13:34:57.320Z</time>
      </trkpt>
      <trkpt lat="46.445562" lon="12.96753">
        <ele>1058.421830197161</ele>
        <time>2025-03-30T13:35:01.814Z</time>
      </trkpt>
      <trkpt lat="46.445553" lon="12.967475">
        <ele>1059.280706589609</ele>
        <time>2025-03-30T13:35:05.942Z</time>
      </trkpt>
      <trkpt lat="46.445523" lon="12.967415">
        <ele>1059.6443594841803</ele>
        <time>2025-03-30T13:35:11.355Z</time>
      </trkpt>
      <trkpt lat="46.445414" lon="12.96735">
        <ele>1058.1483513824649</ele>
        <time>2025-03-30T13:35:23.844Z</time>
      </trkpt>
      <trkpt lat="46.445394" lon="12.967338">
        <ele>1057.9428181607288</ele>
        <time>2025-03-30T13:35:26.137Z</time>
      </trkpt>
      <trkpt lat="46.445329" lon="12.967312">
        <ele>1056.9688939164462</ele>
        <time>2025-03-30T13:35:33.282Z</time>
      </trkpt>
      <trkpt lat="46.445245" lon="12.967292">
        <ele>1055.3250106367755</ele>
        <time>2025-03-30T13:35:42.303Z</time>
      </trkpt>
      <trkpt lat="46.444869" lon="12.967266">
        <ele>1048.9294273762848</ele>
        <time>2025-03-30T13:36:22.196Z</time>
      </trkpt>
      <trkpt lat="46.444826" lon="12.967232">
        <ele>1049.050926126781</ele>
        <time>2025-03-30T13:36:27.385Z</time>
      </trkpt>
      <trkpt lat="46.444789" lon="12.967187">
        <ele>1049.1384055890826</ele>
        <time>2025-03-30T13:36:32.501Z</time>
      </trkpt>
      <trkpt lat="46.44476" lon="12.967128">
        <ele>1049.1788868579288</ele>
        <time>2025-03-30T13:36:37.793Z</time>
      </trkpt>
      <trkpt lat="46.444743" lon="12.967066">
        <ele>1049.428367013099</ele>
        <time>2025-03-30T13:36:42.665Z</time>
      </trkpt>
      <trkpt lat="46.444726" lon="12.966928">
        <ele>1050.359386238874</ele>
        <time>2025-03-30T13:36:52.902Z</time>
      </trkpt>
      <trkpt lat="46.44472" lon="12.966845">
        <ele>1051.0483939880073</ele>
        <time>2025-03-30T13:36:58.996Z</time>
      </trkpt>
      <trkpt lat="46.444717" lon="12.966795">
        <ele>1051.472676091595</ele>
        <time>2025-03-30T13:37:02.661Z</time>
      </trkpt>
      <trkpt lat="46.444607" lon="12.966215">
        <ele>1055.2019299869462</ele>
        <time>2025-03-30T13:37:46.591Z</time>
      </trkpt>
      <trkpt lat="46.444587" lon="12.966034">
        <ele>1055.1707064671114</ele>
        <time>2025-03-30T13:37:59.977Z</time>
      </trkpt>
      <trkpt lat="46.444575" lon="12.965849">
        <ele>1055.5083428318662</ele>
        <time>2025-03-30T13:38:13.546Z</time>
      </trkpt>
      <trkpt lat="46.444578" lon="12.965759">
        <ele>1055.9317356046479</ele>
        <time>2025-03-30T13:38:20.126Z</time>
      </trkpt>
      <trkpt lat="46.444561" lon="12.965718">
        <ele>1055.5455668270013</ele>
        <time>2025-03-30T13:38:23.620Z</time>
      </trkpt>
      <trkpt lat="46.444564" lon="12.965609">
        <ele>1056.2511043378242</ele>
        <time>2025-03-30T13:38:31.586Z</time>
      </trkpt>
      <trkpt lat="46.444553" lon="12.965546">
        <ele>1056.4635842017797</ele>
        <time>2025-03-30T13:38:36.332Z</time>
      </trkpt>
      <trkpt lat="46.444522" lon="12.965545">
        <ele>1055.9787750957328</ele>
        <time>2025-03-30T13:38:39.618Z</time>
      </trkpt>
      <trkpt lat="46.444505" lon="12.965377">
        <ele>1057.4606493226142</ele>
        <time>2025-03-30T13:38:52.017Z</time>
      </trkpt>
      <trkpt lat="46.444443" lon="12.964935">
        <ele>1064.0988288339233</ele>
        <time>2025-03-30T13:39:24.956Z</time>
      </trkpt>
      <trkpt lat="46.444348" lon="12.964605">
        <ele>1070.4396892024447</ele>
        <time>2025-03-30T13:39:51.073Z</time>
      </trkpt>
      <trkpt lat="46.444334" lon="12.964213">
        <ele>1079.3842532861981</ele>
        <time>2025-03-30T13:40:19.737Z</time>
      </trkpt>
      <trkpt lat="46.444255" lon="12.9638">
        <ele>1080.4447651917121</ele>
        <time>2025-03-30T13:40:51.037Z</time>
      </trkpt>
      <trkpt lat="46.444236" lon="12.963698">
        <ele>1079.9803614824086</ele>
        <time>2025-03-30T13:40:58.753Z</time>
      </trkpt>
      <trkpt lat="46.444396" lon="12.963889">
        <ele>1084.9905523846865</ele>
        <time>2025-03-30T13:41:20.709Z</time>
      </trkpt>
      <trkpt lat="46.444509" lon="12.964087">
        <ele>1087.8590873208154</ele>
        <time>2025-03-30T13:41:39.483Z</time>
      </trkpt>
      <trkpt lat="46.444561" lon="12.964212">
        <ele>1087.7482404133832</ele>
        <time>2025-03-30T13:41:50.145Z</time>
      </trkpt>
      <trkpt lat="46.444589" lon="12.964278">
        <ele>1087.7794836692065</ele>
        <time>2025-03-30T13:41:55.804Z</time>
      </trkpt>
      <trkpt lat="46.444687" lon="12.964401">
        <ele>1089.7291671231396</ele>
        <time>2025-03-30T13:42:09.535Z</time>
      </trkpt>
      <trkpt lat="46.444773" lon="12.964642">
        <ele>1088.3279747346655</ele>
        <time>2025-03-30T13:42:29.354Z</time>
      </trkpt>
      <trkpt lat="46.44493" lon="12.964827">
        <ele>1091.9212138452624</ele>
        <time>2025-03-30T13:42:50.786Z</time>
      </trkpt>
      <trkpt lat="46.444971" lon="12.964905">
        <ele>1091.8161162863234</ele>
        <time>2025-03-30T13:42:57.950Z</time>
      </trkpt>
      <trkpt lat="46.445142" lon="12.965095">
        <ele>1095.6885433980995</ele>
        <time>2025-03-30T13:43:20.774Z</time>
      </trkpt>
      <trkpt lat="46.44534182548523" lon="12.965259432792664">
        <ele>1102.2999172103137</ele>
        <time>2025-03-30T13:43:21.000Z</time>
      </trkpt>
      <trkpt lat="46.445481181144714" lon="12.965510606765747">
        <ele>1105.0843532597655</ele>
        <time>2025-03-30T13:43:44.000Z</time>
      </trkpt>
      <trkpt lat="46.445555686950684" lon="12.965214371681213">
        <ele>1116.436731992774</ele>
        <time>2025-03-30T13:44:01.000Z</time>
      </trkpt>
      <trkpt lat="46.445555567741394" lon="12.964996218681335">
        <ele>1121.8790045162327</ele>
        <time>2025-03-30T13:44:15.000Z</time>
      </trkpt>
      <trkpt lat="46.445417404174805" lon="12.964870691299438">
        <ele>1118.4830883311113</ele>
        <time>2025-03-30T13:44:28.000Z</time>
      </trkpt>
      <trkpt lat="46.445271492004395" lon="12.964473009109497">
        <ele>1122.8673123327285</ele>
        <time>2025-03-30T13:44:48.000Z</time>
      </trkpt>
      <trkpt lat="46.445188999176025" lon="12.964417934417725">
        <ele>1120.055450704665</ele>
        <time>2025-03-30T13:44:58.000Z</time>
      </trkpt>
      <trkpt lat="46.44514524936676" lon="12.96433687210083">
        <ele>1119.6966773095667</ele>
        <time>2025-03-30T13:45:06.000Z</time>
      </trkpt>
      <trkpt lat="46.44511020183563" lon="12.964236855506897">
        <ele>1119.8968857585692</ele>
        <time>2025-03-30T13:45:13.000Z</time>
      </trkpt>
      <trkpt lat="46.44514608383179" lon="12.964044213294983">
        <ele>1126.3043848697682</ele>
        <time>2025-03-30T13:45:27.000Z</time>
      </trkpt>
      <trkpt lat="46.44517147541046" lon="12.964033007621765">
        <ele>1128.1451498611837</ele>
        <time>2025-03-30T13:45:32.000Z</time>
      </trkpt>
      <trkpt lat="46.4452258348465" lon="12.964252948760986">
        <ele>1126.537924254963</ele>
        <time>2025-03-30T13:45:58.000Z</time>
      </trkpt>
      <trkpt lat="46.44532883167267" lon="12.964483261108398">
        <ele>1125.5719355132624</ele>
        <time>2025-03-30T13:46:22.000Z</time>
      </trkpt>
      <trkpt lat="46.44543015956879" lon="12.964566826820374">
        <ele>1128.6475741794814</ele>
        <time>2025-03-30T13:46:33.000Z</time>
      </trkpt>
      <trkpt lat="46.44544792175293" lon="12.964630246162415">
        <ele>1127.641290403438</ele>
        <time>2025-03-30T13:46:37.000Z</time>
      </trkpt>
      <trkpt lat="46.44570600986481" lon="12.964642524719238">
        <ele>1139.6292322981626</ele>
        <time>2025-03-30T13:47:06.000Z</time>
      </trkpt>
      <trkpt lat="46.44574689865112" lon="12.964802503585815">
        <ele>1137.462725620654</ele>
        <time>2025-03-30T13:47:19.000Z</time>
      </trkpt>
      <trkpt lat="46.445842146873474" lon="12.964934587478638">
        <ele>1139.0903096483094</ele>
        <time>2025-03-30T13:47:36.000Z</time>
      </trkpt>
      <trkpt lat="46.44593393802643" lon="12.96479845046997">
        <ele>1148.1836194361777</ele>
        <time>2025-03-30T13:47:46.000Z</time>
      </trkpt>
      <trkpt lat="46.44599962234497" lon="12.964618682861328">
        <ele>1157.591901700527</ele>
        <time>2025-03-30T13:48:04.000Z</time>
      </trkpt>
      <trkpt lat="46.44596862792969" lon="12.964458227157593">
        <ele>1161.5775356987965</ele>
        <time>2025-03-30T13:48:23.000Z</time>
      </trkpt>
      <trkpt lat="46.44598424434662" lon="12.964363813400269">
        <ele>1165.8387108452348</ele>
        <time>2025-03-30T13:48:32.000Z</time>
      </trkpt>
      <trkpt lat="46.44595158100128" lon="12.964130401611328">
        <ele>1170.2966383667674</ele>
        <time>2025-03-30T13:48:58.000Z</time>
      </trkpt>
      <trkpt lat="46.44575536251068" lon="12.963468670845032">
        <ele>1166.2533894813162</ele>
        <time>2025-03-30T13:49:45.000Z</time>
      </trkpt>
      <trkpt lat="46.44572830200195" lon="12.963190793991089">
        <ele>1167.6541859985207</ele>
        <time>2025-03-30T13:50:03.000Z</time>
      </trkpt>
      <trkpt lat="46.44574272632599" lon="12.96269142627716">
        <ele>1173.1435122239413</ele>
        <time>2025-03-30T13:50:35.000Z</time>
      </trkpt>
      <trkpt lat="46.445855259895325" lon="12.962355494499207">
        <ele>1179.4445503280679</ele>
        <time>2025-03-30T13:50:58.000Z</time>
      </trkpt>
      <trkpt lat="46.44596517086029" lon="12.962232828140259">
        <ele>1182.4544324587343</ele>
        <time>2025-03-30T13:51:13.000Z</time>
      </trkpt>
      <trkpt lat="46.44595503807068" lon="12.962349534034729">
        <ele>1183.2229648607558</ele>
        <time>2025-03-30T13:51:31.000Z</time>
      </trkpt>
      <trkpt lat="46.44607937335968" lon="12.962254047393799">
        <ele>1186.7271579361711</ele>
        <time>2025-03-30T13:51:49.000Z</time>
      </trkpt>
      <trkpt lat="46.44622611999512" lon="12.962034940719604">
        <ele>1188.0207234574182</ele>
        <time>2025-03-30T13:52:10.000Z</time>
      </trkpt>
      <trkpt lat="46.44625997543335" lon="12.961930990219116">
        <ele>1186.0014431220723</ele>
        <time>2025-03-30T13:52:21.000Z</time>
      </trkpt>
      <trkpt lat="46.4463711977005" lon="12.96185040473938">
        <ele>1187.7587979942682</ele>
        <time>2025-03-30T13:52:36.000Z</time>
      </trkpt>
      <trkpt lat="46.446386098861694" lon="12.961903095245361">
        <ele>1189.5903256754366</ele>
        <time>2025-03-30T13:52:42.000Z</time>
      </trkpt>
      <trkpt lat="46.44632065296173" lon="12.962060689926147">
        <ele>1191.2805692637335</ele>
        <time>2025-03-30T13:53:03.000Z</time>
      </trkpt>
      <trkpt lat="46.4462913274765" lon="12.962267637252808">
        <ele>1192.9197168035384</ele>
        <time>2025-03-30T13:53:24.000Z</time>
      </trkpt>
      <trkpt lat="46.44630825519562" lon="12.962555527687073">
        <ele>1195.2425330224285</ele>
        <time>2025-03-30T13:53:47.000Z</time>
      </trkpt>
      <trkpt lat="46.44628202915192" lon="12.962739109992981">
        <ele>1194.6918160357588</ele>
        <time>2025-03-30T13:53:58.000Z</time>
      </trkpt>
      <trkpt lat="46.446362376213074" lon="12.96324360370636">
        <ele>1197.391548932531</ele>
        <time>2025-03-30T13:54:28.000Z</time>
      </trkpt>
      <trkpt lat="46.44644796848297" lon="12.96332311630249">
        <ele>1200.6797391139908</ele>
        <time>2025-03-30T13:54:46.000Z</time>
      </trkpt>
      <trkpt lat="46.44646179676056" lon="12.963523864746094">
        <ele>1199.8242543220756</ele>
        <time>2025-03-30T13:55:01.000Z</time>
      </trkpt>
      <trkpt lat="46.446539878845215" lon="12.963614106178284">
        <ele>1202.0207936157826</ele>
        <time>2025-03-30T13:55:13.000Z</time>
      </trkpt>
      <trkpt lat="46.446638226509094" lon="12.963856816291809">
        <ele>1204.280154855247</ele>
        <time>2025-03-30T13:55:30.000Z</time>
      </trkpt>
      <trkpt lat="46.44683027267456" lon="12.964023232460022">
        <ele>1207.0572510060647</ele>
        <time>2025-03-30T13:55:53.000Z</time>
      </trkpt>
      <trkpt lat="46.44689691066742" lon="12.964019656181335">
        <ele>1209.9815869841289</ele>
        <time>2025-03-30T13:56:02.000Z</time>
      </trkpt>
      <trkpt lat="46.44705390930176" lon="12.96413254737854">
        <ele>1213.8824989825494</ele>
        <time>2025-03-30T13:56:24.000Z</time>
      </trkpt>
      <trkpt lat="46.44724667072296" lon="12.964169979095459">
        <ele>1221.8390206114866</ele>
        <time>2025-03-30T13:56:56.000Z</time>
      </trkpt>
      <trkpt lat="46.44750094413757" lon="12.964352488517761">
        <ele>1228.378921832518</ele>
        <time>2025-03-30T13:57:38.000Z</time>
      </trkpt>
      <trkpt lat="46.447539925575256" lon="12.9643394947052">
        <ele>1230.7499829407793</ele>
        <time>2025-03-30T13:57:44.000Z</time>
      </trkpt>
      <trkpt lat="46.44788932800293" lon="12.964503407478333">
        <ele>1248.2632279757647</ele>
        <time>2025-03-30T13:58:44.000Z</time>
      </trkpt>
      <trkpt lat="46.44789183139801" lon="12.964383721351624">
        <ele>1252.6916572700468</ele>
        <time>2025-03-30T13:58:56.000Z</time>
      </trkpt>
      <trkpt lat="46.44780898094177" lon="12.963956594467163">
        <ele>1259.5046560325209</ele>
        <time>2025-03-30T13:59:36.000Z</time>
      </trkpt>
      <trkpt lat="46.447755217552185" lon="12.963767170906067">
        <ele>1260.878554648814</ele>
        <time>2025-03-30T13:59:57.000Z</time>
      </trkpt>
      <trkpt lat="46.447620034217834" lon="12.963518381118774">
        <ele>1259.1165325060492</ele>
        <time>2025-03-30T14:00:21.000Z</time>
      </trkpt>
      <trkpt lat="46.44764566421509" lon="12.963159799575806">
        <ele>1271.114442250244</ele>
        <time>2025-03-30T14:00:55.000Z</time>
      </trkpt>
      <trkpt lat="46.447598457336426" lon="12.96298086643219">
        <ele>1272.3373465823124</ele>
        <time>2025-03-30T14:01:09.000Z</time>
      </trkpt>
      <trkpt lat="46.447657227516174" lon="12.962948441505432">
        <ele>1275.5101564137397</ele>
        <time>2025-03-30T14:01:16.000Z</time>
      </trkpt>
      <trkpt lat="46.44784104824066" lon="12.963063836097717">
        <ele>1283.4938200511142</ele>
        <time>2025-03-30T14:01:51.000Z</time>
      </trkpt>
      <trkpt lat="46.4479945898056" lon="12.963130474090576">
        <ele>1289.9919241545306</ele>
        <time>2025-03-30T14:02:23.000Z</time>
      </trkpt>
      <trkpt lat="46.44816863536835" lon="12.963112354278564">
        <ele>1299.1579241852278</ele>
        <time>2025-03-30T14:03:04.000Z</time>
      </trkpt>
      <trkpt lat="46.44833600521088" lon="12.96320128440857">
        <ele>1308.915996408985</ele>
        <time>2025-03-30T14:03:48.000Z</time>
      </trkpt>
      <trkpt lat="46.44844210147858" lon="12.963229775428772">
        <ele>1315.7000636284736</ele>
        <time>2025-03-30T14:04:11.000Z</time>
      </trkpt>
      <trkpt lat="46.44869077205658" lon="12.963252305984497">
        <ele>1330.5434803900146</ele>
        <time>2025-03-30T14:05:00.000Z</time>
      </trkpt>
      <trkpt lat="46.44870436191559" lon="12.963290572166443">
        <ele>1330.5874643181844</ele>
        <time>2025-03-30T14:05:11.000Z</time>
      </trkpt>
      <trkpt lat="46.44885718822479" lon="12.963333010673523">
        <ele>1337.3179727819638</ele>
        <time>2025-03-30T14:05:39.000Z</time>
      </trkpt>
      <trkpt lat="46.44887864589691" lon="12.963392734527588">
        <ele>1336.6983903979885</ele>
        <time>2025-03-30T14:05:46.000Z</time>
      </trkpt>
      <trkpt lat="46.448959946632385" lon="12.9634028673172">
        <ele>1339.9658642835452</ele>
        <time>2025-03-30T14:06:02.000Z</time>
      </trkpt>
      <trkpt lat="46.44906985759735" lon="12.963294744491577">
        <ele>1345.9597156815255</ele>
        <time>2025-03-30T14:06:21.000Z</time>
      </trkpt>
      <trkpt lat="46.44921803474426" lon="12.963309168815613">
        <ele>1349.965198528351</ele>
        <time>2025-03-30T14:06:47.000Z</time>
      </trkpt>
      <trkpt lat="46.44940650463104" lon="12.963298082351685">
        <ele>1357.6769258597349</ele>
        <time>2025-03-30T14:07:18.000Z</time>
      </trkpt>
      <trkpt lat="46.44947564601898" lon="12.96334993839264">
        <ele>1360.2044996548548</ele>
        <time>2025-03-30T14:07:27.000Z</time>
      </trkpt>
      <trkpt lat="46.449501514434814" lon="12.963416814804077">
        <ele>1359.8648492278028</ele>
        <time>2025-03-30T14:07:33.000Z</time>
      </trkpt>
      <trkpt lat="46.44957625865936" lon="12.963423252105713">
        <ele>1362.3738525484068</ele>
        <time>2025-03-30T14:07:41.000Z</time>
      </trkpt>
      <trkpt lat="46.44971489906311" lon="12.963552594184875">
        <ele>1364.926485002572</ele>
        <time>2025-03-30T14:07:57.000Z</time>
      </trkpt>
      <trkpt lat="46.44987332820892" lon="12.96363890171051">
        <ele>1369.1205746262071</ele>
        <time>2025-03-30T14:08:14.000Z</time>
      </trkpt>
      <trkpt lat="46.449954867362976" lon="12.963642239570618">
        <ele>1371.8694955657536</ele>
        <time>2025-03-30T14:08:22.000Z</time>
      </trkpt>
      <trkpt lat="46.44997692108154" lon="12.963714241981506">
        <ele>1372.269261141924</ele>
        <time>2025-03-30T14:08:29.000Z</time>
      </trkpt>
      <trkpt lat="46.45034694671631" lon="12.963852524757385">
        <ele>1382.5296088915331</ele>
        <time>2025-03-30T14:09:09.000Z</time>
      </trkpt>
      <trkpt lat="46.45044195652008" lon="12.963952779769897">
        <ele>1384.9609468080416</ele>
        <time>2025-03-30T14:09:19.000Z</time>
      </trkpt>
      <trkpt lat="46.45059633255005" lon="12.964272499084473">
        <ele>1387.1240023027788</ele>
        <time>2025-03-30T14:09:41.000Z</time>
      </trkpt>
      <trkpt lat="46.45072305202484" lon="12.964500308036804">
        <ele>1387.839448763539</ele>
        <time>2025-03-30T14:09:58.000Z</time>
      </trkpt>
      <trkpt lat="46.450907826423645" lon="12.964754223823547">
        <ele>1390.6594777437042</ele>
        <time>2025-03-30T14:10:20.000Z</time>
      </trkpt>
      <trkpt lat="46.45099925994873" lon="12.964845061302185">
        <ele>1391.9132820614955</ele>
        <time>2025-03-30T14:10:29.000Z</time>
      </trkpt>
      <trkpt lat="46.45112490653992" lon="12.964881777763367">
        <ele>1392.6792514057165</ele>
        <time>2025-03-30T14:10:47.000Z</time>
      </trkpt>
      <trkpt lat="46.45129370689392" lon="12.964831352233887">
        <ele>1392.4933784452267</ele>
        <time>2025-03-30T14:11:04.000Z</time>
      </trkpt>
      <trkpt lat="46.45140016078949" lon="12.96487808227539">
        <ele>1389.4507871834567</ele>
        <time>2025-03-30T14:11:13.000Z</time>
      </trkpt>
      <trkpt lat="46.45153033733368" lon="12.964872598648071">
        <ele>1386.0627674162179</ele>
        <time>2025-03-30T14:11:23.000Z</time>
      </trkpt>
      <trkpt lat="46.45169520378113" lon="12.964810013771057">
        <ele>1382.6503552547047</ele>
        <time>2025-03-30T14:11:31.000Z</time>
      </trkpt>
      <trkpt lat="46.45188915729523" lon="12.96480143070221">
        <ele>1376.5786047640186</ele>
        <time>2025-03-30T14:11:48.000Z</time>
      </trkpt>
      <trkpt lat="46.452091336250305" lon="12.964709281921387">
        <ele>1371.2594324253512</ele>
        <time>2025-03-30T14:12:02.000Z</time>
      </trkpt>
      <trkpt lat="46.45256686210632" lon="12.964938998222351">
        <ele>1363.2281985318907</ele>
        <time>2025-03-30T14:12:40.000Z</time>
      </trkpt>
      <trkpt lat="46.4527884721756" lon="12.964888095855713">
        <ele>1369.4577272651027</ele>
        <time>2025-03-30T14:13:01.000Z</time>
      </trkpt>
      <trkpt lat="46.452924489974976" lon="12.964892268180847">
        <ele>1370.6388708976235</ele>
        <time>2025-03-30T14:14:37.000Z</time>
      </trkpt>
      <trkpt lat="46.45283234119415" lon="12.96491289138794">
        <ele>1369.3856589072857</ele>
        <time>2025-03-30T14:15:37.000Z</time>
      </trkpt>
      <trkpt lat="46.452882170677185" lon="12.964881777763367">
        <ele>1370.6181203499536</ele>
        <time>2025-03-30T14:15:54.000Z</time>
      </trkpt>
      <trkpt lat="46.45318901538849" lon="12.96491539478302">
        <ele>1369.5914476724347</ele>
        <time>2025-03-30T14:16:34.000Z</time>
      </trkpt>
      <trkpt lat="46.453431844711304" lon="12.964882254600525">
        <ele>1368.0928683683287</ele>
        <time>2025-03-30T14:16:53.000Z</time>
      </trkpt>
      <trkpt lat="46.453524589538574" lon="12.964922904968262">
        <ele>1366.8342645961795</ele>
        <time>2025-03-30T14:17:01.000Z</time>
      </trkpt>
      <trkpt lat="46.45376920700073" lon="12.964750528335571">
        <ele>1373.3907756787826</ele>
        <time>2025-03-30T14:17:30.000Z</time>
      </trkpt>
      <trkpt lat="46.45401048660278" lon="12.964791417121887">
        <ele>1373.2906073936595</ele>
        <time>2025-03-30T14:18:03.000Z</time>
      </trkpt>
      <trkpt lat="46.4544438123703" lon="12.964783787727356">
        <ele>1367.8684012673802</ele>
        <time>2025-03-30T14:18:41.000Z</time>
      </trkpt>
      <trkpt lat="46.45466697216034" lon="12.964708924293518">
        <ele>1360.7262679413025</ele>
        <time>2025-03-30T14:18:58.000Z</time>
      </trkpt>
      <trkpt lat="46.4547244310379" lon="12.96475338935852">
        <ele>1357.761762828584</ele>
        <time>2025-03-30T14:19:05.000Z</time>
      </trkpt>
      <trkpt lat="46.455182909965515" lon="12.964660167694092">
        <ele>1343.0526237409945</ele>
        <time>2025-03-30T14:19:35.000Z</time>
      </trkpt>
      <trkpt lat="46.455373644828796" lon="12.964673280715942">
        <ele>1337.7217822463476</ele>
        <time>2025-03-30T14:19:52.000Z</time>
      </trkpt>
      <trkpt lat="46.45612859725952" lon="12.96445083618164">
        <ele>1326.4644462316303</ele>
        <time>2025-03-30T14:20:44.000Z</time>
      </trkpt>
      <trkpt lat="46.456236243247986" lon="12.964288353919983">
        <ele>1329.3819408874242</ele>
        <time>2025-03-30T14:20:59.000Z</time>
      </trkpt>
      <trkpt lat="46.45643222332001" lon="12.964207530021667">
        <ele>1331.2813036574057</ele>
        <time>2025-03-30T14:21:16.000Z</time>
      </trkpt>
      <trkpt lat="46.456433057785034" lon="12.964257597923279">
        <ele>1331.4012575045376</ele>
        <time>2025-03-30T14:21:24.000Z</time>
      </trkpt>
      <trkpt lat="46.456502199172974" lon="12.964439392089844">
        <ele>1329.6646955098076</ele>
        <time>2025-03-30T14:21:41.000Z</time>
      </trkpt>
      <trkpt lat="46.4566935300827" lon="12.964473605155945">
        <ele>1331.5283746259493</ele>
        <time>2025-03-30T14:22:07.000Z</time>
      </trkpt>
      <trkpt lat="46.45673620700836" lon="12.964405059814453">
        <ele>1333.761108144558</ele>
        <time>2025-03-30T14:22:17.000Z</time>
      </trkpt>
      <trkpt lat="46.4568567276001" lon="12.964343190193176">
        <ele>1335.5293254699186</ele>
        <time>2025-03-30T14:22:36.000Z</time>
      </trkpt>
      <trkpt lat="46.45706796646118" lon="12.96445095539093">
        <ele>1334.5935391923465</ele>
        <time>2025-03-30T14:23:06.000Z</time>
      </trkpt>
      <trkpt lat="46.45804762840271" lon="12.964303970336914">
        <ele>1345.1740353510384</ele>
        <time>2025-03-30T14:24:31.000Z</time>
      </trkpt>
      <trkpt lat="46.45815813541412" lon="12.964152693748474">
        <ele>1345.9996703053002</ele>
        <time>2025-03-30T14:24:44.000Z</time>
      </trkpt>
      <trkpt lat="46.45826208591461" lon="12.964078664779663">
        <ele>1348.1654226260162</ele>
        <time>2025-03-30T14:24:52.000Z</time>
      </trkpt>
      <trkpt lat="46.45842909812927" lon="12.963819146156311">
        <ele>1350.1330777893784</ele>
        <time>2025-03-30T14:25:07.000Z</time>
      </trkpt>
      <trkpt lat="46.45866668224335" lon="12.963571667671204">
        <ele>1349.1478388829344</ele>
        <time>2025-03-30T14:25:33.000Z</time>
      </trkpt>
      <trkpt lat="46.45888662338257" lon="12.963433980941772">
        <ele>1348.7688336926092</ele>
        <time>2025-03-30T14:25:49.000Z</time>
      </trkpt>
      <trkpt lat="46.45911681652069" lon="12.96338140964508">
        <ele>1348.4951380127798</ele>
        <time>2025-03-30T14:26:10.000Z</time>
      </trkpt>
      <trkpt lat="46.45938241481781" lon="12.963044047355652">
        <ele>1346.4838885617942</ele>
        <time>2025-03-30T14:26:34.000Z</time>
      </trkpt>
      <trkpt lat="46.459572553634644" lon="12.962963223457336">
        <ele>1347.427165545382</ele>
        <time>2025-03-30T14:27:03.000Z</time>
      </trkpt>
      <trkpt lat="46.45975875854492" lon="12.962721943855286">
        <ele>1351.0591478265524</ele>
        <time>2025-03-30T14:27:27.000Z</time>
      </trkpt>
      <trkpt lat="46.45989179611206" lon="12.962320327758789">
        <ele>1358.1562755433247</ele>
        <time>2025-03-30T14:28:06.000Z</time>
      </trkpt>
      <trkpt lat="46.45994806289673" lon="12.962244391441345">
        <ele>1360.6949736679123</ele>
        <time>2025-03-30T14:28:22.000Z</time>
      </trkpt>
      <trkpt lat="46.46010971069336" lon="12.962265253067017">
        <ele>1366.4111507496086</ele>
        <time>2025-03-30T14:28:43.000Z</time>
      </trkpt>
      <trkpt lat="46.46019649505615" lon="12.962222456932068">
        <ele>1368.6611395093169</ele>
        <time>2025-03-30T14:28:53.000Z</time>
      </trkpt>
      <trkpt lat="46.460243225097656" lon="12.962254643440247">
        <ele>1368.912570990192</ele>
        <time>2025-03-30T14:28:58.000Z</time>
      </trkpt>
      <trkpt lat="46.46082401275635" lon="12.962145566940308">
        <ele>1357.681149055208</ele>
        <time>2025-03-30T14:29:47.000Z</time>
      </trkpt>
      <trkpt lat="46.46124470233917" lon="12.962168097496033">
        <ele>1350.0304163308354</ele>
        <time>2025-03-30T14:30:16.000Z</time>
      </trkpt>
      <trkpt lat="46.4613299369812" lon="12.962208032608032">
        <ele>1348.0441954325431</ele>
        <time>2025-03-30T14:30:22.000Z</time>
      </trkpt>
      <trkpt lat="46.4615364074707" lon="12.962168216705322">
        <ele>1346.2184300032313</ele>
        <time>2025-03-30T14:30:42.000Z</time>
      </trkpt>
      <trkpt lat="46.46163809299469" lon="12.962212562561035">
        <ele>1343.2603798891687</ele>
        <time>2025-03-30T14:30:51.000Z</time>
      </trkpt>
      <trkpt lat="46.461989879608154" lon="12.96221137046814">
        <ele>1335.7017790915452</ele>
        <time>2025-03-30T14:31:17.000Z</time>
      </trkpt>
      <trkpt lat="46.46214985847473" lon="12.962149620056152">
        <ele>1334.783931815392</ele>
        <time>2025-03-30T14:31:29.000Z</time>
      </trkpt>
      <trkpt lat="46.4622722864151" lon="12.962183594703674">
        <ele>1332.9354242218665</ele>
        <time>2025-03-30T14:31:38.000Z</time>
      </trkpt>
      <trkpt lat="46.46264684200287" lon="12.962151050567627">
        <ele>1326.4481964496902</ele>
        <time>2025-03-30T14:32:01.000Z</time>
      </trkpt>
      <trkpt lat="46.46283173561096" lon="12.962076663970947">
        <ele>1324.5706305935735</ele>
        <time>2025-03-30T14:32:15.000Z</time>
      </trkpt>
      <trkpt lat="46.4629430770874" lon="12.9620863199234">
        <ele>1323.3753490758486</ele>
        <time>2025-03-30T14:32:23.000Z</time>
      </trkpt>
      <trkpt lat="46.46299076080322" lon="12.961989760398865">
        <ele>1324.2531724810615</ele>
        <time>2025-03-30T14:32:34.000Z</time>
      </trkpt>
      <trkpt lat="46.46313405036926" lon="12.961888194084167">
        <ele>1324.871491251071</ele>
        <time>2025-03-30T14:32:50.000Z</time>
      </trkpt>
      <trkpt lat="46.46314096450806" lon="12.961948037147522">
        <ele>1324.1835684606554</ele>
        <time>2025-03-30T14:33:02.000Z</time>
      </trkpt>
      <trkpt lat="46.46334612369537" lon="12.961693048477173">
        <ele>1324.5223241165195</ele>
        <time>2025-03-30T14:33:20.000Z</time>
      </trkpt>
      <trkpt lat="46.463340299349426" lon="12.961676865301996">
        <ele>1324.3702513808073</ele>
        <time>2025-03-30T14:33:21.376Z</time>
      </trkpt>
      <trkpt lat="46.463299" lon="12.961562">
        <ele>1323.5252043919663</ele>
        <time>2025-03-30T14:33:31.142Z</time>
      </trkpt>
      <trkpt lat="46.463283" lon="12.961347">
        <ele>1320.4455373498402</ele>
        <time>2025-03-30T14:33:47.441Z</time>
      </trkpt>
      <trkpt lat="46.463236" lon="12.961002">
        <ele>1311.926310685265</ele>
        <time>2025-03-30T14:34:13.948Z</time>
      </trkpt>
      <trkpt lat="46.46323" lon="12.960828">
        <ele>1306.0802525294957</ele>
        <time>2025-03-30T14:34:27.079Z</time>
      </trkpt>
      <trkpt lat="46.463482" lon="12.960327">
        <ele>1284.8240447721453</ele>
        <time>2025-03-30T14:35:13.837Z</time>
      </trkpt>
      <trkpt lat="46.46342" lon="12.960266">
        <ele>1283.5869426347258</ele>
        <time>2025-03-30T14:35:22.032Z</time>
      </trkpt>
      <trkpt lat="46.463369" lon="12.960156">
        <ele>1280.8435838396667</ele>
        <time>2025-03-30T14:35:32.026Z</time>
      </trkpt>
      <trkpt lat="46.463393" lon="12.960069">
        <ele>1279.5541637283068</ele>
        <time>2025-03-30T14:35:39.089Z</time>
      </trkpt>
      <trkpt lat="46.463457" lon="12.959846">
        <ele>1277.1752715887478</ele>
        <time>2025-03-30T14:35:57.298Z</time>
      </trkpt>
      <trkpt lat="46.463554" lon="12.959353">
        <ele>1271.1423464052384</ele>
        <time>2025-03-30T14:36:35.943Z</time>
      </trkpt>
      <trkpt lat="46.46367" lon="12.958601">
        <ele>1260.580858249239</ele>
        <time>2025-03-30T14:37:34.027Z</time>
      </trkpt>
      <trkpt lat="46.463734" lon="12.958521">
        <ele>1258.8015558298225</ele>
        <time>2025-03-30T14:37:43.268Z</time>
      </trkpt>
      <trkpt lat="46.46376" lon="12.958444">
        <ele>1257.4624746572463</ele>
        <time>2025-03-30T14:37:49.731Z</time>
      </trkpt>
      <trkpt lat="46.463827" lon="12.958511">
        <ele>1258.021668727245</ele>
        <time>2025-03-30T14:37:58.633Z</time>
      </trkpt>
      <trkpt lat="46.463909" lon="12.9585">
        <ele>1257.19871269876</ele>
        <time>2025-03-30T14:38:07.644Z</time>
      </trkpt>
      <trkpt lat="46.464007" lon="12.958377">
        <ele>1254.051254031761</ele>
        <time>2025-03-30T14:38:21.819Z</time>
      </trkpt>
      <trkpt lat="46.464058" lon="12.958038">
        <ele>1248.2702177929161</ele>
        <time>2025-03-30T14:38:47.972Z</time>
      </trkpt>
      <trkpt lat="46.464068" lon="12.95774">
        <ele>1245.1531889159942</ele>
        <time>2025-03-30T14:39:10.459Z</time>
      </trkpt>
      <trkpt lat="46.464058" lon="12.957437">
        <ele>1242.1959281989612</ele>
        <time>2025-03-30T14:39:33.323Z</time>
      </trkpt>
      <trkpt lat="46.46412" lon="12.957041">
        <ele>1239.9840506458952</ele>
        <time>2025-03-30T14:40:03.932Z</time>
      </trkpt>
      <trkpt lat="46.463945" lon="12.956676">
        <ele>1237.2107700850122</ele>
        <time>2025-03-30T14:40:37.451Z</time>
      </trkpt>
      <trkpt lat="46.463652" lon="12.956363">
        <ele>1231.929271379828</ele>
        <time>2025-03-30T14:41:17.257Z</time>
      </trkpt>
      <trkpt lat="46.463642" lon="12.956147">
        <ele>1230.942146099174</ele>
        <time>2025-03-30T14:41:33.574Z</time>
      </trkpt>
      <trkpt lat="46.463704" lon="12.955895">
        <ele>1230.2424362797656</ele>
        <time>2025-03-30T14:41:53.743Z</time>
      </trkpt>
      <trkpt lat="46.463654" lon="12.955487">
        <ele>1223.6624095395919</ele>
        <time>2025-03-30T14:42:24.978Z</time>
      </trkpt>
      <trkpt lat="46.463789" lon="12.955166">
        <ele>1216.8917724214964</ele>
        <time>2025-03-30T14:42:53.326Z</time>
      </trkpt>
      <trkpt lat="46.463887" lon="12.954859">
        <ele>1212.279453316143</ele>
        <time>2025-03-30T14:43:18.829Z</time>
      </trkpt>
    </trkseg>
  </trk>
</gpx>
